{
"type": "FeatureCollection",
"name": "chandigarh_boundary",
"crs": { "type": "name", "properties": { "name": "urn:ogc:def:crs:OGC:1.3:CRS84" } },
"features": [
{ "type": "Feature", "properties": { "city": "Chandigarh" }, "geometry": { "type": "MultiPolygon", "coordinates": [ [ [ [ 76.690177393733364, 30.707427789098613 ], [ 76.700615977192996, 30.707291458396615 ], [ 76.700695117365711, 30.711801278979969 ], [ 76.705914624947482, 30.711732786940953 ], [ 76.706073444213416, 30.72075239371631 ], [ 76.711293419241201, 30.720683667488128 ], [ 76.711373098501966, 30.725193453638784 ], [ 76.727033643809222, 30.724985979442547 ], [ 76.726872846910865, 30.71596647779073 ], [ 76.737312148996821, 30.715827162417554 ], [ 76.737231292476451, 30.711317431443568 ], [ 76.732011893157136, 30.711387181544993 ], [ 76.73177016055962, 30.697857931346324 ], [ 76.721332762599985, 30.697996728249475 ], [ 76.721252706248535, 30.69348694677403 ], [ 76.716034222574052, 30.693556018558798 ], [ 76.715954426648608, 30.689046221438677 ], [ 76.721172667954193, 30.688977161975362 ], [ 76.721092647713448, 30.684467373853796 ], [ 76.726310628654645, 30.684398117259189 ], [ 76.726150157862264, 30.675378555760602 ], [ 76.720932661378811, 30.675447787643204 ], [ 76.721012645522819, 30.679957582409632 ], [ 76.71579488879118, 30.680026617233409 ], [ 76.715874648722149, 30.684536420996789 ], [ 76.710656631735361, 30.684605258685615 ], [ 76.710815720897102, 30.693624880814667 ], [ 76.70559720127234, 30.693693533539125 ], [ 76.7056765303427, 30.698203351870184 ], [ 76.700457750390797, 30.698271807271105 ], [ 76.700299594956547, 30.689252142869282 ], [ 76.695081281982851, 30.689320364351204 ], [ 76.695160108397928, 30.693830210383499 ], [ 76.689941535257574, 30.693898234498363 ], [ 76.690177393733364, 30.707427789098613 ] ], [ [ 76.700615977192996, 30.707291458396615 ], [ 76.700536854869171, 30.702781634493565 ], [ 76.705755877309713, 30.70271316688104 ], [ 76.705835242176803, 30.707222978571405 ], [ 76.700615977192996, 30.707291458396615 ] ], [ [ 76.710895292397979, 30.698134686897898 ], [ 76.716114036501949, 30.698065812356813 ], [ 76.716193868435781, 30.702575602832407 ], [ 76.710974881850134, 30.702644489659804 ], [ 76.710895292397979, 30.698134686897898 ] ] ], [ [ [ 76.747344852671759, 30.69313844500682 ], [ 76.747426121088296, 30.697648164309012 ], [ 76.757863336529368, 30.697507271859351 ], [ 76.758026898297871, 30.706526650207309 ], [ 76.74236959270192, 30.706737749847644 ], [ 76.74245067356064, 30.711247471674081 ], [ 76.747670036355018, 30.71117730223915 ], [ 76.747751378128143, 30.715687008222659 ], [ 76.742531772709157, 30.715757190171523 ], [ 76.742612890151022, 30.720266905339635 ], [ 76.732173139118501, 30.720406665044251 ], [ 76.732495849319292, 30.738445592111709 ], [ 76.722054082909438, 30.738584611931216 ], [ 76.722214575234759, 30.747604105056087 ], [ 76.727435953501896, 30.747534675351631 ], [ 76.72735545526966, 30.743024942824839 ], [ 76.748239814199934, 30.742745174172814 ], [ 76.748321284483936, 30.747254856836388 ], [ 76.743099979160917, 30.747325126414616 ], [ 76.74318122475546, 30.751834818268531 ], [ 76.753624303149778, 30.751694044066664 ], [ 76.75370605329681, 30.756203707502944 ], [ 76.758927807984463, 30.756132992806627 ], [ 76.759091849970986, 30.76515228447402 ], [ 76.76431407254627, 30.765081334469965 ], [ 76.764396364553733, 30.769590962659588 ], [ 76.780063650541592, 30.769376813891903 ], [ 76.780146691059414, 30.773886400596318 ], [ 76.790591941496615, 30.773742558462331 ], [ 76.790508414360119, 30.769232997376644 ], [ 76.795730768052962, 30.769160773925961 ], [ 76.795647016496645, 30.764651222361028 ], [ 76.806091180688355, 30.764506170927824 ], [ 76.806006961634864, 30.75999664185699 ], [ 76.800785132193496, 30.760069259678161 ], [ 76.800701175258411, 30.755559714324139 ], [ 76.805922761567629, 30.755487109439724 ], [ 76.805754418377205, 30.74646803456719 ], [ 76.810975499611217, 30.746395245620029 ], [ 76.810891113516476, 30.741885716136032 ], [ 76.816111932759995, 30.741812730266837 ], [ 76.816027322785757, 30.737303210443333 ], [ 76.805586151087667, 30.737448946312806 ], [ 76.805670275246655, 30.741958492112566 ], [ 76.800449418005329, 30.742031058193749 ], [ 76.800365536759458, 30.737521499461938 ], [ 76.795144903518107, 30.737593842750417 ], [ 76.795061284047463, 30.733084267781454 ], [ 76.800281674426714, 30.733011937386472 ], [ 76.800114006485998, 30.723992803205906 ], [ 76.794894101666756, 30.724065107817427 ], [ 76.794810538749402, 30.719555522822994 ], [ 76.784371158030098, 30.719699477121971 ], [ 76.784288099254027, 30.715189863120852 ], [ 76.779068623419562, 30.715261512916246 ], [ 76.77898582597382, 30.710751882801084 ], [ 76.784205059208759, 30.710680245781234 ], [ 76.784039035296104, 30.701661001087651 ], [ 76.778820287096195, 30.701732612559962 ], [ 76.778737545657108, 30.697222972434627 ], [ 76.773519021231067, 30.697294361599905 ], [ 76.773436540838162, 30.692784705404964 ], [ 76.762999920999476, 30.692926829764986 ], [ 76.762917943880552, 30.68841714488277 ], [ 76.757699848533306, 30.688487880185466 ], [ 76.757781583311569, 30.692997577687983 ], [ 76.747344852671759, 30.69313844500682 ] ], [ [ 76.758026898297871, 30.706526650207309 ], [ 76.763245963335564, 30.706455864416526 ], [ 76.76332801445264, 30.71096553596762 ], [ 76.758108706855708, 30.711036334383294 ], [ 76.758026898297871, 30.706526650207309 ] ], [ [ 76.753624303149778, 30.751694044066664 ], [ 76.753542571434025, 30.747184377296211 ], [ 76.758763839956416, 30.74711368779673 ], [ 76.758845814727422, 30.751623341969328 ], [ 76.753624303149778, 30.751694044066664 ] ], [ [ 76.758763839956416, 30.74711368779673 ], [ 76.758681883667848, 30.742604030289154 ], [ 76.77956580041932, 30.742319223511267 ], [ 76.779648728673934, 30.746828830258124 ], [ 76.784869904236544, 30.74675709100152 ], [ 76.784953094229849, 30.751266681623949 ], [ 76.769288782369856, 30.751481307795004 ], [ 76.769206321499098, 30.746971678930283 ], [ 76.758763839956416, 30.74711368779673 ] ], [ [ 76.7794, 30.7333 ], [ 76.779317127828051, 30.728790383236237 ], [ 76.784537331789139, 30.728718695107304 ], [ 76.784620446779385, 30.733228299090889 ], [ 76.7794, 30.7333 ] ], [ [ 76.784620446779385, 30.733228299090889 ], [ 76.789840874813436, 30.733156388350487 ], [ 76.78992425141837, 30.737665976175556 ], [ 76.784703580514929, 30.737737899734675 ], [ 76.784620446779385, 30.733228299090889 ] ], [ [ 76.768382734755207, 30.701875206784869 ], [ 76.773601520231011, 30.701804014459917 ], [ 76.773684037841576, 30.70631366398468 ], [ 76.768465009868351, 30.706384869008108 ], [ 76.768382734755207, 30.701875206784869 ] ], [ [ 76.748158362285295, 30.738235488176876 ], [ 76.74799551354991, 30.729216106189128 ], [ 76.758436125661021, 30.729075037759696 ], [ 76.758518026523745, 30.733584705270307 ], [ 76.753297486838591, 30.733655356983157 ], [ 76.753379163282005, 30.738165033754157 ], [ 76.748158362285295, 30.738235488176876 ] ], [ [ 76.758518026523745, 30.733584705270307 ], [ 76.768959050424172, 30.733442772313662 ], [ 76.769041455529859, 30.737952411189294 ], [ 76.758599945858151, 30.738094369446902 ], [ 76.758518026523745, 30.733584705270307 ] ], [ [ 76.742775179928955, 30.729286325686608 ], [ 76.742937542922789, 30.738305732712448 ], [ 76.737716705249213, 30.738375767358256 ], [ 76.737554828004008, 30.729356335369097 ], [ 76.742775179928955, 30.729286325686608 ] ] ], [ [ [ 76.684958075366879, 30.707495639970347 ], [ 76.685036487725029, 30.71200549697086 ], [ 76.690256048699794, 30.711937633997454 ], [ 76.690177393733364, 30.707427789098613 ], [ 76.684958075366879, 30.707495639970347 ] ] ], [ [ [ 76.721172667954193, 30.688977161975362 ], [ 76.721252706248535, 30.69348694677403 ], [ 76.731689619371579, 30.693348174628088 ], [ 76.73177016055962, 30.697857931346324 ], [ 76.736988832311923, 30.697788218555637 ], [ 76.736908048710859, 30.693278474272059 ], [ 76.747344852671759, 30.69313844500682 ], [ 76.747263602585505, 30.688628722375768 ], [ 76.757699848533306, 30.688487880185466 ], [ 76.757536434281135, 30.679468475188237 ], [ 76.752318805022512, 30.679538975857639 ], [ 76.752237367721861, 30.675029255784064 ], [ 76.747019962272958, 30.675099534512555 ], [ 76.74710115738965, 30.679609267128306 ], [ 76.74188349143715, 30.679679348997631 ], [ 76.741964462631401, 30.684189090791438 ], [ 76.731528591491113, 30.684328651215544 ], [ 76.731609096349914, 30.688838414584392 ], [ 76.721172667954193, 30.688977161975362 ] ] ], [ [ [ 76.74188349143715, 30.679679348997631 ], [ 76.74180253850794, 30.675169603877045 ], [ 76.736585096481434, 30.675239463874949 ], [ 76.736665807219623, 30.679749221463009 ], [ 76.74188349143715, 30.679679348997631 ] ] ], [ [ [ 76.794810538749402, 30.719555522822994 ], [ 76.80524984409351, 30.719410729668745 ], [ 76.805417959669555, 30.72842984467913 ], [ 76.810638069375145, 30.728357107607366 ], [ 76.810553759363373, 30.723847564740002 ], [ 76.820993436194627, 30.723701487301586 ], [ 76.820908659824212, 30.719191967130733 ], [ 76.810469468363152, 30.719338018527598 ], [ 76.810385196370774, 30.71482846897047 ], [ 76.805165814737066, 30.714901167148085 ], [ 76.805081804330143, 30.710391601284229 ], [ 76.799862646331874, 30.710464076865758 ], [ 76.799946414153879, 30.71497365565461 ], [ 76.794726994675855, 30.715045934487367 ], [ 76.794810538749402, 30.719555522822994 ] ] ], [ [ [ 76.794726994675855, 30.715045934487367 ], [ 76.794643469442448, 30.71053634281089 ], [ 76.78942427371652, 30.710608399116932 ], [ 76.789507556357677, 30.715118003643681 ], [ 76.794726994675855, 30.715045934487367 ] ] ], [ [ [ 76.805081804330143, 30.710391601284229 ], [ 76.810300943382558, 30.710318916068978 ], [ 76.810216709394851, 30.705809359823395 ], [ 76.804997812869019, 30.705882032077465 ], [ 76.805081804330143, 30.710391601284229 ] ] ], [ [ [ 76.810300943382558, 30.710318916068978 ], [ 76.810385196370774, 30.71482846897047 ], [ 76.815604559000292, 30.714755561124477 ], [ 76.815520063434505, 30.710246021222702 ], [ 76.810300943382558, 30.710318916068978 ] ] ], [ [ [ 76.805922761567629, 30.755487109439724 ], [ 76.806006961634864, 30.75999664185699 ], [ 76.811228772089962, 30.759923813990888 ], [ 76.811144328894272, 30.755414294547787 ], [ 76.805922761567629, 30.755487109439724 ] ] ], [ [ [ 76.811228772089962, 30.759923813990888 ], [ 76.811313234326704, 30.764433330086366 ], [ 76.816535268920319, 30.764360279165288 ], [ 76.816450563504034, 30.759850776082555 ], [ 76.811228772089962, 30.759923813990888 ] ] ], [ [ [ 76.811144328894272, 30.755414294547787 ], [ 76.816365877183571, 30.755341269651023 ], [ 76.816281209955207, 30.750831759871005 ], [ 76.811059904735913, 30.750904771757391 ], [ 76.811144328894272, 30.755414294547787 ] ] ] ] } }
]
}
