{
"type": "FeatureCollection",
"name": "chandigarh_city_extent",
"crs": { "type": "name", "properties": { "name": "urn:ogc:def:crs:EPSG::32643" } },
"features": [
{ "type": "Feature", "properties": { "city": "Chandigarh", "component_id": 1, "selected_component_ids": "1,6,23,27,59,72,73,95,115,148,168,169,201", "selection_method": "nearest city-centre component + components within 1 km", "combine_distance_km": 1.0, "extent_cells": 534, "extent_area_km2": 133.5, "distance_to_city_center_km": 3.4135235394223291 }, "geometry": { "type": "MultiPolygon", "coordinates": [ [ [ [ 666000.0, 3393500.0 ], [ 666500.0, 3393500.0 ], [ 666500.0, 3393000.0 ], [ 666000.0, 3393000.0 ], [ 665500.0, 3393000.0 ], [ 665000.0, 3393000.0 ], [ 665000.0, 3393500.0 ], [ 664500.0, 3393500.0 ], [ 664500.0, 3394000.0 ], [ 665000.0, 3394000.0 ], [ 665500.0, 3394000.0 ], [ 666000.0, 3394000.0 ], [ 666000.0, 3393500.0 ] ] ], [ [ [ 663000.0, 3397000.0 ], [ 663000.0, 3396500.0 ], [ 662500.0, 3396500.0 ], [ 662000.0, 3396500.0 ], [ 662000.0, 3397000.0 ], [ 662000.0, 3397500.0 ], [ 662000.0, 3398000.0 ], [ 661500.0, 3398000.0 ], [ 661500.0, 3398500.0 ], [ 661500.0, 3399000.0 ], [ 662000.0, 3399000.0 ], [ 662000.0, 3398500.0 ], [ 662500.0, 3398500.0 ], [ 663000.0, 3398500.0 ], [ 663000.0, 3399000.0 ], [ 663500.0, 3399000.0 ], [ 663500.0, 3399500.0 ], [ 663500.0, 3400000.0 ], [ 663500.0, 3400500.0 ], [ 664000.0, 3400500.0 ], [ 664500.0, 3400500.0 ], [ 664500.0, 3401000.0 ], [ 665000.0, 3401000.0 ], [ 665000.0, 3400500.0 ], [ 665500.0, 3400500.0 ], [ 665500.0, 3400000.0 ], [ 665500.0, 3399500.0 ], [ 666000.0, 3399500.0 ], [ 666000.0, 3399000.0 ], [ 666000.0, 3398500.0 ], [ 666000.0, 3398000.0 ], [ 666500.0, 3398000.0 ], [ 666500.0, 3398500.0 ], [ 666500.0, 3399000.0 ], [ 667000.0, 3399000.0 ], [ 667000.0, 3399500.0 ], [ 666500.0, 3399500.0 ], [ 666500.0, 3400000.0 ], [ 666000.0, 3400000.0 ], [ 666000.0, 3400500.0 ], [ 666000.0, 3401000.0 ], [ 665500.0, 3401000.0 ], [ 665500.0, 3401500.0 ], [ 665500.0, 3402000.0 ], [ 665000.0, 3402000.0 ], [ 665000.0, 3402500.0 ], [ 665000.0, 3403000.0 ], [ 665000.0, 3403500.0 ], [ 665500.0, 3403500.0 ], [ 666000.0, 3403500.0 ], [ 666000.0, 3404000.0 ], [ 666500.0, 3404000.0 ], [ 666500.0, 3403500.0 ], [ 666500.0, 3403000.0 ], [ 667000.0, 3403000.0 ], [ 667000.0, 3403500.0 ], [ 667500.0, 3403500.0 ], [ 667500.0, 3403000.0 ], [ 668000.0, 3403000.0 ], [ 668000.0, 3403500.0 ], [ 668000.0, 3404000.0 ], [ 668000.0, 3404500.0 ], [ 668000.0, 3405000.0 ], [ 668500.0, 3405000.0 ], [ 669000.0, 3405000.0 ], [ 669000.0, 3405500.0 ], [ 669500.0, 3405500.0 ], [ 670000.0, 3405500.0 ], [ 670500.0, 3405500.0 ], [ 670500.0, 3406000.0 ], [ 671000.0, 3406000.0 ], [ 671000.0, 3405500.0 ], [ 671500.0, 3405500.0 ], [ 671500.0, 3405000.0 ], [ 672000.0, 3405000.0 ], [ 672500.0, 3405000.0 ], [ 673000.0, 3405000.0 ], [ 673000.0, 3404500.0 ], [ 673500.0, 3404500.0 ], [ 673500.0, 3405000.0 ], [ 674000.0, 3405000.0 ], [ 674000.0, 3404500.0 ], [ 674000.0, 3404000.0 ], [ 673500.0, 3404000.0 ], [ 673500.0, 3403500.0 ], [ 673500.0, 3403000.0 ], [ 673500.0, 3402500.0 ], [ 673500.0, 3402000.0 ], [ 673500.0, 3401500.0 ], [ 673000.0, 3401500.0 ], [ 673000.0, 3402000.0 ], [ 672500.0, 3402000.0 ], [ 672500.0, 3401500.0 ], [ 672500.0, 3401000.0 ], [ 673000.0, 3401000.0 ], [ 673500.0, 3401000.0 ], [ 673500.0, 3400500.0 ], [ 674000.0, 3400500.0 ], [ 674500.0, 3400500.0 ], [ 674500.0, 3400000.0 ], [ 674000.0, 3400000.0 ], [ 673500.0, 3400000.0 ], [ 673500.0, 3399500.0 ], [ 674000.0, 3399500.0 ], [ 674000.0, 3399000.0 ], [ 674000.0, 3398500.0 ], [ 673500.0, 3398500.0 ], [ 673000.0, 3398500.0 ], [ 673000.0, 3399000.0 ], [ 672500.0, 3399000.0 ], [ 672000.0, 3399000.0 ], [ 672000.0, 3398500.0 ], [ 671500.0, 3398500.0 ], [ 671500.0, 3399000.0 ], [ 671500.0, 3399500.0 ], [ 671000.0, 3399500.0 ], [ 670500.0, 3399500.0 ], [ 670500.0, 3399000.0 ], [ 671000.0, 3399000.0 ], [ 671000.0, 3398500.0 ], [ 671000.0, 3398000.0 ], [ 670500.0, 3398000.0 ], [ 670500.0, 3397500.0 ], [ 670000.0, 3397500.0 ], [ 670000.0, 3397000.0 ], [ 669500.0, 3397000.0 ], [ 669500.0, 3396500.0 ], [ 669000.0, 3396500.0 ], [ 668500.0, 3396500.0 ], [ 668500.0, 3396000.0 ], [ 668500.0, 3395500.0 ], [ 668000.0, 3395500.0 ], [ 668000.0, 3395000.0 ], [ 667500.0, 3395000.0 ], [ 667000.0, 3395000.0 ], [ 667000.0, 3394500.0 ], [ 666500.0, 3394500.0 ], [ 666500.0, 3395000.0 ], [ 666500.0, 3395500.0 ], [ 666000.0, 3395500.0 ], [ 666000.0, 3396000.0 ], [ 665500.0, 3396000.0 ], [ 665500.0, 3395500.0 ], [ 665500.0, 3395000.0 ], [ 665000.0, 3395000.0 ], [ 664500.0, 3395000.0 ], [ 664500.0, 3395500.0 ], [ 664500.0, 3396000.0 ], [ 664000.0, 3396000.0 ], [ 663500.0, 3396000.0 ], [ 663500.0, 3396500.0 ], [ 663500.0, 3397000.0 ], [ 663000.0, 3397000.0 ] ], [ [ 666500.0, 3397500.0 ], [ 666500.0, 3397000.0 ], [ 667000.0, 3397000.0 ], [ 667500.0, 3397000.0 ], [ 667500.0, 3397500.0 ], [ 668000.0, 3397500.0 ], [ 668000.0, 3398000.0 ], [ 668500.0, 3398000.0 ], [ 668500.0, 3398500.0 ], [ 668000.0, 3398500.0 ], [ 667500.0, 3398500.0 ], [ 667000.0, 3398500.0 ], [ 667000.0, 3398000.0 ], [ 666500.0, 3398000.0 ], [ 666500.0, 3397500.0 ] ], [ [ 667500.0, 3396500.0 ], [ 667500.0, 3396000.0 ], [ 668000.0, 3396000.0 ], [ 668000.0, 3396500.0 ], [ 668000.0, 3397000.0 ], [ 667500.0, 3397000.0 ], [ 667500.0, 3396500.0 ] ], [ [ 669000.0, 3398500.0 ], [ 669000.0, 3399000.0 ], [ 668500.0, 3399000.0 ], [ 668500.0, 3398500.0 ], [ 669000.0, 3398500.0 ] ], [ [ 668000.0, 3402500.0 ], [ 668500.0, 3402500.0 ], [ 669000.0, 3402500.0 ], [ 669500.0, 3402500.0 ], [ 669500.0, 3403000.0 ], [ 669000.0, 3403000.0 ], [ 668500.0, 3403000.0 ], [ 668000.0, 3403000.0 ], [ 668000.0, 3402500.0 ] ], [ [ 669500.0, 3402000.0 ], [ 670000.0, 3402000.0 ], [ 670000.0, 3402500.0 ], [ 669500.0, 3402500.0 ], [ 669500.0, 3402000.0 ] ], [ [ 670500.0, 3402500.0 ], [ 670500.0, 3403000.0 ], [ 670500.0, 3403500.0 ], [ 670000.0, 3403500.0 ], [ 670000.0, 3403000.0 ], [ 670000.0, 3402500.0 ], [ 670500.0, 3402500.0 ] ], [ [ 672000.0, 3399500.0 ], [ 672000.0, 3400000.0 ], [ 671500.0, 3400000.0 ], [ 671500.0, 3399500.0 ], [ 672000.0, 3399500.0 ] ], [ [ 672500.0, 3400000.0 ], [ 673000.0, 3400000.0 ], [ 673000.0, 3400500.0 ], [ 672500.0, 3400500.0 ], [ 672000.0, 3400500.0 ], [ 672000.0, 3400000.0 ], [ 672500.0, 3400000.0 ] ], [ [ 665500.0, 3396500.0 ], [ 665000.0, 3396500.0 ], [ 665000.0, 3396000.0 ], [ 665500.0, 3396000.0 ], [ 665500.0, 3396500.0 ] ], [ [ 665000.0, 3397000.0 ], [ 664500.0, 3397000.0 ], [ 664500.0, 3396500.0 ], [ 665000.0, 3396500.0 ], [ 665000.0, 3397000.0 ] ], [ [ 670500.0, 3401500.0 ], [ 670500.0, 3401000.0 ], [ 671000.0, 3401000.0 ], [ 671000.0, 3401500.0 ], [ 670500.0, 3401500.0 ] ], [ [ 666500.0, 3401500.0 ], [ 667000.0, 3401500.0 ], [ 667000.0, 3402000.0 ], [ 666500.0, 3402000.0 ], [ 666500.0, 3401500.0 ] ] ], [ [ [ 661500.0, 3397000.0 ], [ 661000.0, 3397000.0 ], [ 660500.0, 3397000.0 ], [ 660500.0, 3397500.0 ], [ 661000.0, 3397500.0 ], [ 661500.0, 3397500.0 ], [ 661500.0, 3397000.0 ] ] ], [ [ [ 662500.0, 3400000.0 ], [ 662500.0, 3400500.0 ], [ 663000.0, 3400500.0 ], [ 663000.0, 3400000.0 ], [ 662500.0, 3400000.0 ] ] ], [ [ [ 663000.0, 3400500.0 ], [ 663000.0, 3401000.0 ], [ 663500.0, 3401000.0 ], [ 663500.0, 3400500.0 ], [ 663000.0, 3400500.0 ] ] ], [ [ [ 662500.0, 3401000.0 ], [ 662500.0, 3401500.0 ], [ 663000.0, 3401500.0 ], [ 663000.0, 3401000.0 ], [ 662500.0, 3401000.0 ] ] ], [ [ [ 663000.0, 3402000.0 ], [ 663500.0, 3402000.0 ], [ 663500.0, 3402500.0 ], [ 664000.0, 3402500.0 ], [ 664500.0, 3402500.0 ], [ 664500.0, 3402000.0 ], [ 665000.0, 3402000.0 ], [ 665000.0, 3401500.0 ], [ 664500.0, 3401500.0 ], [ 664500.0, 3401000.0 ], [ 664000.0, 3401000.0 ], [ 664000.0, 3401500.0 ], [ 663500.0, 3401500.0 ], [ 663000.0, 3401500.0 ], [ 663000.0, 3402000.0 ] ] ], [ [ [ 664000.0, 3404500.0 ], [ 664000.0, 3405000.0 ], [ 664500.0, 3405000.0 ], [ 665000.0, 3405000.0 ], [ 665000.0, 3404500.0 ], [ 664500.0, 3404500.0 ], [ 664500.0, 3404000.0 ], [ 664000.0, 3404000.0 ], [ 663500.0, 3404000.0 ], [ 663500.0, 3404500.0 ], [ 664000.0, 3404500.0 ] ] ], [ [ [ 666500.0, 3404500.0 ], [ 666500.0, 3405000.0 ], [ 667000.0, 3405000.0 ], [ 667000.0, 3404500.0 ], [ 666500.0, 3404500.0 ] ] ], [ [ [ 666500.0, 3406000.0 ], [ 666500.0, 3406500.0 ], [ 667000.0, 3406500.0 ], [ 667500.0, 3406500.0 ], [ 668000.0, 3406500.0 ], [ 668000.0, 3406000.0 ], [ 668000.0, 3405500.0 ], [ 668000.0, 3405000.0 ], [ 667500.0, 3405000.0 ], [ 667000.0, 3405000.0 ], [ 667000.0, 3405500.0 ], [ 667000.0, 3406000.0 ], [ 666500.0, 3406000.0 ] ] ], [ [ [ 665500.0, 3406500.0 ], [ 665500.0, 3407000.0 ], [ 666000.0, 3407000.0 ], [ 666000.0, 3406500.0 ], [ 665500.0, 3406500.0 ] ] ], [ [ [ 667000.0, 3397500.0 ], [ 667000.0, 3398000.0 ], [ 667500.0, 3398000.0 ], [ 667500.0, 3397500.0 ], [ 667000.0, 3397500.0 ] ] ], [ [ [ 668500.0, 3406500.0 ], [ 668500.0, 3407000.0 ], [ 669000.0, 3407000.0 ], [ 669000.0, 3406500.0 ], [ 668500.0, 3406500.0 ] ] ], [ [ [ 670500.0, 3392000.0 ], [ 670500.0, 3392500.0 ], [ 670500.0, 3393000.0 ], [ 671000.0, 3393000.0 ], [ 671500.0, 3393000.0 ], [ 672000.0, 3393000.0 ], [ 672000.0, 3393500.0 ], [ 672000.0, 3394000.0 ], [ 672500.0, 3394000.0 ], [ 672500.0, 3394500.0 ], [ 672000.0, 3394500.0 ], [ 672000.0, 3395000.0 ], [ 671500.0, 3395000.0 ], [ 671000.0, 3395000.0 ], [ 670500.0, 3395000.0 ], [ 670500.0, 3395500.0 ], [ 670000.0, 3395500.0 ], [ 669500.0, 3395500.0 ], [ 669500.0, 3396000.0 ], [ 669500.0, 3396500.0 ], [ 670000.0, 3396500.0 ], [ 670500.0, 3396500.0 ], [ 671000.0, 3396500.0 ], [ 671000.0, 3396000.0 ], [ 671000.0, 3395500.0 ], [ 671500.0, 3395500.0 ], [ 672000.0, 3395500.0 ], [ 672500.0, 3395500.0 ], [ 672500.0, 3395000.0 ], [ 673000.0, 3395000.0 ], [ 673000.0, 3395500.0 ], [ 673500.0, 3395500.0 ], [ 673500.0, 3395000.0 ], [ 673500.0, 3394500.0 ], [ 674000.0, 3394500.0 ], [ 674500.0, 3394500.0 ], [ 675000.0, 3394500.0 ], [ 675000.0, 3395000.0 ], [ 675000.0, 3395500.0 ], [ 675500.0, 3395500.0 ], [ 676000.0, 3395500.0 ], [ 676000.0, 3396000.0 ], [ 676000.0, 3396500.0 ], [ 675500.0, 3396500.0 ], [ 675500.0, 3397000.0 ], [ 675500.0, 3397500.0 ], [ 675500.0, 3398000.0 ], [ 675500.0, 3398500.0 ], [ 676000.0, 3398500.0 ], [ 676000.0, 3399000.0 ], [ 676500.0, 3399000.0 ], [ 676500.0, 3399500.0 ], [ 676000.0, 3399500.0 ], [ 676000.0, 3400000.0 ], [ 676500.0, 3400000.0 ], [ 677000.0, 3400000.0 ], [ 677000.0, 3400500.0 ], [ 677500.0, 3400500.0 ], [ 677500.0, 3401000.0 ], [ 678000.0, 3401000.0 ], [ 678500.0, 3401000.0 ], [ 678500.0, 3400500.0 ], [ 679000.0, 3400500.0 ], [ 679000.0, 3401000.0 ], [ 679500.0, 3401000.0 ], [ 679500.0, 3401500.0 ], [ 680000.0, 3401500.0 ], [ 680500.0, 3401500.0 ], [ 680500.0, 3401000.0 ], [ 680500.0, 3400500.0 ], [ 680000.0, 3400500.0 ], [ 679500.0, 3400500.0 ], [ 679500.0, 3400000.0 ], [ 679500.0, 3399500.0 ], [ 679500.0, 3399000.0 ], [ 679000.0, 3399000.0 ], [ 679000.0, 3398500.0 ], [ 679500.0, 3398500.0 ], [ 679500.0, 3398000.0 ], [ 679500.0, 3397500.0 ], [ 680000.0, 3397500.0 ], [ 680500.0, 3397500.0 ], [ 680500.0, 3397000.0 ], [ 680500.0, 3396500.0 ], [ 680500.0, 3396000.0 ], [ 680000.0, 3396000.0 ], [ 680000.0, 3396500.0 ], [ 679500.0, 3396500.0 ], [ 679500.0, 3396000.0 ], [ 679000.0, 3396000.0 ], [ 679000.0, 3395500.0 ], [ 679000.0, 3395000.0 ], [ 679000.0, 3394500.0 ], [ 679000.0, 3394000.0 ], [ 679000.0, 3393500.0 ], [ 679000.0, 3393000.0 ], [ 678500.0, 3393000.0 ], [ 678000.0, 3393000.0 ], [ 678000.0, 3393500.0 ], [ 677500.0, 3393500.0 ], [ 677500.0, 3394000.0 ], [ 677000.0, 3394000.0 ], [ 676500.0, 3394000.0 ], [ 676000.0, 3394000.0 ], [ 676000.0, 3393500.0 ], [ 676500.0, 3393500.0 ], [ 676500.0, 3393000.0 ], [ 677000.0, 3393000.0 ], [ 677000.0, 3392500.0 ], [ 676500.0, 3392500.0 ], [ 676500.0, 3392000.0 ], [ 676000.0, 3392000.0 ], [ 676000.0, 3392500.0 ], [ 676000.0, 3393000.0 ], [ 675500.0, 3393000.0 ], [ 675500.0, 3392500.0 ], [ 675000.0, 3392500.0 ], [ 675000.0, 3392000.0 ], [ 675000.0, 3391500.0 ], [ 675500.0, 3391500.0 ], [ 675500.0, 3391000.0 ], [ 675000.0, 3391000.0 ], [ 675000.0, 3390500.0 ], [ 675500.0, 3390500.0 ], [ 675500.0, 3390000.0 ], [ 675500.0, 3389500.0 ], [ 675500.0, 3389000.0 ], [ 675000.0, 3389000.0 ], [ 675000.0, 3388500.0 ], [ 674500.0, 3388500.0 ], [ 674000.0, 3388500.0 ], [ 673500.0, 3388500.0 ], [ 673500.0, 3389000.0 ], [ 673500.0, 3389500.0 ], [ 673000.0, 3389500.0 ], [ 673000.0, 3390000.0 ], [ 673000.0, 3390500.0 ], [ 672500.0, 3390500.0 ], [ 672500.0, 3391000.0 ], [ 672500.0, 3391500.0 ], [ 672500.0, 3392000.0 ], [ 672000.0, 3392000.0 ], [ 671500.0, 3392000.0 ], [ 671000.0, 3392000.0 ], [ 670500.0, 3392000.0 ] ], [ [ 672500.0, 3393500.0 ], [ 673000.0, 3393500.0 ], [ 673000.0, 3394000.0 ], [ 672500.0, 3394000.0 ], [ 672500.0, 3393500.0 ] ], [ [ 673000.0, 3393000.0 ], [ 673500.0, 3393000.0 ], [ 673500.0, 3393500.0 ], [ 673000.0, 3393500.0 ], [ 673000.0, 3393000.0 ] ], [ [ 679000.0, 3399500.0 ], [ 678500.0, 3399500.0 ], [ 678500.0, 3400000.0 ], [ 678000.0, 3400000.0 ], [ 677500.0, 3400000.0 ], [ 677500.0, 3399500.0 ], [ 677000.0, 3399500.0 ], [ 677000.0, 3399000.0 ], [ 677500.0, 3399000.0 ], [ 678000.0, 3399000.0 ], [ 678500.0, 3399000.0 ], [ 679000.0, 3399000.0 ], [ 679000.0, 3399500.0 ] ], [ [ 675500.0, 3393500.0 ], [ 675500.0, 3394000.0 ], [ 675000.0, 3394000.0 ], [ 675000.0, 3393500.0 ], [ 675000.0, 3393000.0 ], [ 675500.0, 3393000.0 ], [ 675500.0, 3393500.0 ] ] ], [ [ [ 670500.0, 3393500.0 ], [ 670500.0, 3394000.0 ], [ 670500.0, 3394500.0 ], [ 671000.0, 3394500.0 ], [ 671500.0, 3394500.0 ], [ 671500.0, 3394000.0 ], [ 671500.0, 3393500.0 ], [ 671000.0, 3393500.0 ], [ 670500.0, 3393500.0 ] ] ], [ [ [ 672000.0, 3389500.0 ], [ 672000.0, 3390000.0 ], [ 672500.0, 3390000.0 ], [ 672500.0, 3389500.0 ], [ 672000.0, 3389500.0 ] ] ], [ [ [ 671500.0, 3397500.0 ], [ 671500.0, 3398000.0 ], [ 672000.0, 3398000.0 ], [ 672000.0, 3397500.0 ], [ 672000.0, 3397000.0 ], [ 671500.0, 3397000.0 ], [ 671500.0, 3397500.0 ] ] ], [ [ [ 672500.0, 3398000.0 ], [ 672500.0, 3398500.0 ], [ 673000.0, 3398500.0 ], [ 673000.0, 3398000.0 ], [ 672500.0, 3398000.0 ] ] ], [ [ [ 674000.0, 3396000.0 ], [ 673500.0, 3396000.0 ], [ 673500.0, 3396500.0 ], [ 674000.0, 3396500.0 ], [ 674500.0, 3396500.0 ], [ 674500.0, 3396000.0 ], [ 674000.0, 3396000.0 ] ] ], [ [ [ 674000.0, 3397000.0 ], [ 674000.0, 3397500.0 ], [ 674000.0, 3398000.0 ], [ 674000.0, 3398500.0 ], [ 674500.0, 3398500.0 ], [ 674500.0, 3398000.0 ], [ 674500.0, 3397500.0 ], [ 674500.0, 3397000.0 ], [ 674000.0, 3397000.0 ] ] ], [ [ [ 675000.0, 3399000.0 ], [ 674500.0, 3399000.0 ], [ 674500.0, 3399500.0 ], [ 675000.0, 3399500.0 ], [ 675500.0, 3399500.0 ], [ 675500.0, 3399000.0 ], [ 675000.0, 3399000.0 ] ] ], [ [ [ 676500.0, 3401000.0 ], [ 676000.0, 3401000.0 ], [ 676000.0, 3401500.0 ], [ 676500.0, 3401500.0 ], [ 677000.0, 3401500.0 ], [ 677000.0, 3401000.0 ], [ 677000.0, 3400500.0 ], [ 676500.0, 3400500.0 ], [ 676500.0, 3401000.0 ] ] ], [ [ [ 675000.0, 3401500.0 ], [ 675500.0, 3401500.0 ], [ 675500.0, 3401000.0 ], [ 675000.0, 3401000.0 ], [ 675000.0, 3401500.0 ] ] ], [ [ [ 679500.0, 3394500.0 ], [ 680000.0, 3394500.0 ], [ 680000.0, 3395000.0 ], [ 680500.0, 3395000.0 ], [ 680500.0, 3395500.0 ], [ 681000.0, 3395500.0 ], [ 681000.0, 3395000.0 ], [ 681000.0, 3394500.0 ], [ 681000.0, 3394000.0 ], [ 681000.0, 3393500.0 ], [ 681000.0, 3393000.0 ], [ 681000.0, 3392500.0 ], [ 680500.0, 3392500.0 ], [ 680500.0, 3392000.0 ], [ 680000.0, 3392000.0 ], [ 679500.0, 3392000.0 ], [ 679500.0, 3392500.0 ], [ 679500.0, 3393000.0 ], [ 679500.0, 3393500.0 ], [ 679500.0, 3394000.0 ], [ 679500.0, 3394500.0 ] ] ] ] } }
]
}
