{
"type": "FeatureCollection",
"name": "jaipur_boundary",
"crs": { "type": "name", "properties": { "name": "urn:ogc:def:crs:OGC:1.3:CRS84" } },
"features": [
{ "type": "Feature", "properties": { "city": "Jaipur" }, "geometry": { "type": "MultiPolygon", "coordinates": [ [ [ [ 75.76706771151548, 26.89896901402194 ], [ 75.762033101994533, 26.898996266619516 ], [ 75.762063401472616, 26.903510226578213 ], [ 75.772133013623176, 26.903455531327761 ], [ 75.772163720579456, 26.907969477736341 ], [ 75.777198716044722, 26.907941855555862 ], [ 75.777229630437901, 26.912455793676724 ], [ 75.782264818871624, 26.912427986600978 ], [ 75.782358206564894, 26.925969767231287 ], [ 75.777322417172442, 26.92599759052133 ], [ 75.777353360606455, 26.930511516962415 ], [ 75.792461308046541, 26.930427491882039 ], [ 75.792492860122067, 26.934941399079573 ], [ 75.787456684525608, 26.934969592579662 ], [ 75.787488043501654, 26.93948350233104 ], [ 75.792524419603296, 26.939455303354702 ], [ 75.792555986491493, 26.943969204707106 ], [ 75.79759255573714, 26.943940820486581 ], [ 75.797560788297972, 26.939426924645762 ], [ 75.802597149538613, 26.939398366205193 ], [ 75.802533236062857, 26.930370576846073 ], [ 75.817641071730975, 26.930283856838692 ], [ 75.817673626078005, 26.934797736133632 ], [ 75.827745879303279, 26.934739013099712 ], [ 75.827778842284772, 26.939252878063886 ], [ 75.832815157813243, 26.939223241255135 ], [ 75.832748838642658, 26.930195519911802 ], [ 75.837784745447863, 26.930165714958903 ], [ 75.837718056648328, 26.921137993491836 ], [ 75.832682550594896, 26.921167786866274 ], [ 75.832616293659271, 26.912140042121269 ], [ 75.83765139914901, 26.912110260323502 ], [ 75.837618082133574, 26.907596389352207 ], [ 75.842652979590952, 26.907566433862989 ], [ 75.84258596874281, 26.898538694791601 ], [ 75.837551471564467, 26.89856863863708 ], [ 75.837518178008111, 26.894054758893922 ], [ 75.832483873081813, 26.89408451754375 ], [ 75.832417709418678, 26.885056737716681 ], [ 75.822349876310653, 26.885115693955367 ], [ 75.822317205993826, 26.880601788193104 ], [ 75.817283477839595, 26.880630991670792 ], [ 75.817251015081482, 26.876117077307683 ], [ 75.812217479189854, 26.876146095866275 ], [ 75.812152976178908, 26.86711824709117 ], [ 75.817186112435664, 26.8670892398214 ], [ 75.817218559947264, 26.871603160024449 ], [ 75.822251888375376, 26.871573967906173 ], [ 75.822153969465958, 26.858032215574873 ], [ 75.827186690991226, 26.858002861393732 ], [ 75.827153867037097, 26.853488943823677 ], [ 75.812056278467153, 26.85357645203673 ], [ 75.812088503465517, 26.858090386640001 ], [ 75.80705575908415, 26.858119203521934 ], [ 75.807087791952881, 26.862633140815323 ], [ 75.802054840343899, 26.862661784169084 ], [ 75.802086680989163, 26.867175724118276 ], [ 75.797053522150023, 26.867204193873572 ], [ 75.797085170477999, 26.871718136444226 ], [ 75.807151880270141, 26.871661006647034 ], [ 75.807183935721255, 26.876174935184675 ], [ 75.802150384722623, 26.876203595261853 ], [ 75.802182247813363, 26.88071752645557 ], [ 75.797148489439905, 26.880746012830983 ], [ 75.797180160076394, 26.885259946646418 ], [ 75.792146194325582, 26.885288259249762 ], [ 75.792209157895215, 26.89431612913636 ], [ 75.797243523666737, 26.894287805519685 ], [ 75.797275216623149, 26.898801730576835 ], [ 75.76706771151548, 26.89896901402194 ] ], [ [ 75.782264818871624, 26.912427986600978 ], [ 75.782233704252903, 26.907914053884053 ], [ 75.787268685156974, 26.907886072721894 ], [ 75.7873, 26.9124 ], [ 75.782264818871624, 26.912427986600978 ] ], [ [ 75.817283477839595, 26.880630991670792 ], [ 75.817315948222941, 26.885144903113428 ], [ 75.812282012508703, 26.885173932962587 ], [ 75.812249742060146, 26.880660015874451 ], [ 75.817283477839595, 26.880630991670792 ] ], [ [ 75.812314290536847, 26.889687847130343 ], [ 75.812346576145856, 26.894201758377378 ], [ 75.807312232839024, 26.894230620139179 ], [ 75.807280147260016, 26.889716703280637 ], [ 75.812314290536847, 26.889687847130343 ] ], [ [ 75.802309775032953, 26.898773222035256 ], [ 75.807344325953238, 26.898744534077089 ], [ 75.807376426603938, 26.903258445094039 ], [ 75.802341675558409, 26.903287138629693 ], [ 75.802309775032953, 26.898773222035256 ] ] ], [ [ [ 75.80705575908415, 26.858119203521934 ], [ 75.806959705622162, 26.844577374135703 ], [ 75.81199185118065, 26.844548574076565 ], [ 75.811959648889911, 26.840034630720336 ], [ 75.816991587367923, 26.840005657306559 ], [ 75.817056398589315, 26.849033529818108 ], [ 75.827121050794162, 26.848975023334308 ], [ 75.827088242261098, 26.844461099925969 ], [ 75.822056119547, 26.844490436970666 ], [ 75.822023518232442, 26.839976504932437 ], [ 75.827055441436599, 26.839947173599001 ], [ 75.827022648319328, 26.835433244353748 ], [ 75.821990924578245, 26.835462569976357 ], [ 75.821958338583116, 26.830948632102775 ], [ 75.826989862907979, 26.830919312190545 ], [ 75.826957085201229, 26.826405377109733 ], [ 75.801800384327777, 26.826550159562931 ], [ 75.801863953492031, 26.835578083211804 ], [ 75.7918004229319, 26.835634766262242 ], [ 75.791863224008068, 26.844662700325678 ], [ 75.796895391988997, 26.84463443726127 ], [ 75.796927003161585, 26.849148394417142 ], [ 75.801959363278542, 26.849119946816007 ], [ 75.801991181489868, 26.853633895517611 ], [ 75.791926054605767, 26.853690622726727 ], [ 75.791988914735086, 26.862718533462665 ], [ 75.797021881255674, 26.862690248385203 ], [ 75.796990247793659, 26.858176299979448 ], [ 75.80705575908415, 26.858119203521934 ] ], [ [ 75.796895391988997, 26.84463443726127 ], [ 75.79686378824367, 26.840120477189387 ], [ 75.801895749280902, 26.840092040662764 ], [ 75.801927552542651, 26.844605995197611 ], [ 75.796895391988997, 26.84463443726127 ] ] ], [ [ [ 75.787488043501654, 26.93948350233104 ], [ 75.77741526926566, 26.939539361081884 ], [ 75.777384311303763, 26.935025440482718 ], [ 75.77234811377248, 26.935053094883703 ], [ 75.772378871225428, 26.939567020854412 ], [ 75.767342465966436, 26.939594500890372 ], [ 75.76737303008089, 26.944108429277083 ], [ 75.762336417091717, 26.944135734877651 ], [ 75.762397165582527, 26.953163593493347 ], [ 75.772471186901754, 26.953108781238896 ], [ 75.772440407788821, 26.948594864032351 ], [ 75.777477206988124, 26.948567193515487 ], [ 75.777446234493368, 26.944053278759586 ], [ 75.7875194098376, 26.943997409160115 ], [ 75.787488043501654, 26.93948350233104 ] ] ], [ [ [ 75.772471186901754, 26.953108781238896 ], [ 75.772532766796289, 26.962136606885455 ], [ 75.767495358280385, 26.962164113610818 ], [ 75.767525958271833, 26.966678027389278 ], [ 75.772563567580349, 26.96665051532479 ], [ 75.772594375590614, 26.971164420841042 ], [ 75.777632178511453, 26.971136723456052 ], [ 75.777601169662688, 26.96662282331426 ], [ 75.782638764471727, 26.966594951358665 ], [ 75.782576367059647, 26.957567153122422 ], [ 75.777539173783808, 26.957595014260516 ], [ 75.777508186751191, 26.953081105349249 ], [ 75.772471186901754, 26.953108781238896 ] ] ], [ [ [ 75.782576367059647, 26.957567153122422 ], [ 75.787613553017621, 26.957539112110094 ], [ 75.787582164594326, 26.953025214049983 ], [ 75.78254517933108, 26.953053249619277 ], [ 75.782576367059647, 26.957567153122422 ] ] ], [ [ [ 75.817673626078005, 26.934797736133632 ], [ 75.812637487980467, 26.934826828112172 ], [ 75.812669849469657, 26.939340710133301 ], [ 75.817706188065955, 26.939311612504014 ], [ 75.817673626078005, 26.934797736133632 ] ] ], [ [ [ 75.792146194325582, 26.885288259249762 ], [ 75.792114723629027, 26.8807743199283 ], [ 75.787080950427665, 26.880802447746511 ], [ 75.787112221183023, 26.885316392539124 ], [ 75.792146194325582, 26.885288259249762 ] ] ] ] } }
]
}
