{
"type": "FeatureCollection",
"name": "jaipur_city_extent",
"crs": { "type": "name", "properties": { "name": "urn:ogc:def:crs:EPSG::32643" } },
"features": [
{ "type": "Feature", "properties": { "city": "Jaipur", "component_id": 0, "selected_component_ids": "0,1,5", "selection_method": "nearest city-centre component + components within 1 km", "combine_distance_km": 1.0, "extent_cells": 397, "extent_area_km2": 99.25, "distance_to_city_center_km": 4.0787912688651629 }, "geometry": { "type": "MultiPolygon", "coordinates": [ [ [ [ 574500.0, 2972000.0 ], [ 574500.0, 2972500.0 ], [ 574000.0, 2972500.0 ], [ 574000.0, 2973000.0 ], [ 573500.0, 2973000.0 ], [ 573500.0, 2973500.0 ], [ 574000.0, 2973500.0 ], [ 574500.0, 2973500.0 ], [ 574500.0, 2974000.0 ], [ 575000.0, 2974000.0 ], [ 575000.0, 2973500.0 ], [ 575500.0, 2973500.0 ], [ 576000.0, 2973500.0 ], [ 576000.0, 2973000.0 ], [ 576000.0, 2972500.0 ], [ 576500.0, 2972500.0 ], [ 577000.0, 2972500.0 ], [ 577000.0, 2972000.0 ], [ 577000.0, 2971500.0 ], [ 577000.0, 2971000.0 ], [ 577000.0, 2970500.0 ], [ 577000.0, 2970000.0 ], [ 577500.0, 2970000.0 ], [ 577500.0, 2969500.0 ], [ 577500.0, 2969000.0 ], [ 577500.0, 2968500.0 ], [ 577500.0, 2968000.0 ], [ 577500.0, 2967500.0 ], [ 577500.0, 2967000.0 ], [ 577000.0, 2967000.0 ], [ 577000.0, 2967500.0 ], [ 576500.0, 2967500.0 ], [ 576500.0, 2968000.0 ], [ 576500.0, 2968500.0 ], [ 576000.0, 2968500.0 ], [ 576000.0, 2969000.0 ], [ 576000.0, 2969500.0 ], [ 575500.0, 2969500.0 ], [ 575500.0, 2970000.0 ], [ 575500.0, 2970500.0 ], [ 575000.0, 2970500.0 ], [ 575000.0, 2971000.0 ], [ 574500.0, 2971000.0 ], [ 574500.0, 2971500.0 ], [ 574500.0, 2972000.0 ] ] ], [ [ [ 572500.0, 2975000.0 ], [ 572500.0, 2975500.0 ], [ 572500.0, 2976000.0 ], [ 572500.0, 2976500.0 ], [ 573000.0, 2976500.0 ], [ 573000.0, 2977000.0 ], [ 572500.0, 2977000.0 ], [ 572500.0, 2977500.0 ], [ 573000.0, 2977500.0 ], [ 573500.0, 2977500.0 ], [ 573500.0, 2978000.0 ], [ 574000.0, 2978000.0 ], [ 574500.0, 2978000.0 ], [ 575000.0, 2978000.0 ], [ 575000.0, 2977500.0 ], [ 575000.0, 2977000.0 ], [ 575000.0, 2976500.0 ], [ 575000.0, 2976000.0 ], [ 574500.0, 2976000.0 ], [ 574500.0, 2975500.0 ], [ 575000.0, 2975500.0 ], [ 575000.0, 2975000.0 ], [ 574500.0, 2975000.0 ], [ 574500.0, 2974500.0 ], [ 574500.0, 2974000.0 ], [ 574000.0, 2974000.0 ], [ 574000.0, 2974500.0 ], [ 574000.0, 2975000.0 ], [ 573500.0, 2975000.0 ], [ 573500.0, 2974500.0 ], [ 573000.0, 2974500.0 ], [ 573000.0, 2975000.0 ], [ 572500.0, 2975000.0 ] ] ], [ [ [ 572000.0, 2976500.0 ], [ 572000.0, 2977000.0 ], [ 572500.0, 2977000.0 ], [ 572500.0, 2976500.0 ], [ 572000.0, 2976500.0 ] ] ], [ [ [ 572500.0, 2977500.0 ], [ 572000.0, 2977500.0 ], [ 572000.0, 2978000.0 ], [ 572500.0, 2978000.0 ], [ 572500.0, 2977500.0 ] ] ], [ [ [ 576500.0, 2979000.0 ], [ 576500.0, 2978500.0 ], [ 576500.0, 2978000.0 ], [ 576500.0, 2977500.0 ], [ 576500.0, 2977000.0 ], [ 576000.0, 2977000.0 ], [ 576000.0, 2977500.0 ], [ 576000.0, 2978000.0 ], [ 575500.0, 2978000.0 ], [ 575500.0, 2978500.0 ], [ 576000.0, 2978500.0 ], [ 576000.0, 2979000.0 ], [ 576500.0, 2979000.0 ] ] ], [ [ [ 576500.0, 2966500.0 ], [ 576500.0, 2967000.0 ], [ 577000.0, 2967000.0 ], [ 577000.0, 2966500.0 ], [ 576500.0, 2966500.0 ] ] ], [ [ [ 577500.0, 2972500.0 ], [ 577000.0, 2972500.0 ], [ 577000.0, 2973000.0 ], [ 577500.0, 2973000.0 ], [ 577500.0, 2972500.0 ] ] ], [ [ [ 577000.0, 2975000.0 ], [ 577500.0, 2975000.0 ], [ 577500.0, 2974500.0 ], [ 577000.0, 2974500.0 ], [ 576500.0, 2974500.0 ], [ 576500.0, 2975000.0 ], [ 577000.0, 2975000.0 ] ] ], [ [ [ 577000.0, 2977000.0 ], [ 577500.0, 2977000.0 ], [ 577500.0, 2977500.0 ], [ 578000.0, 2977500.0 ], [ 578000.0, 2978000.0 ], [ 577500.0, 2978000.0 ], [ 577500.0, 2978500.0 ], [ 577000.0, 2978500.0 ], [ 577000.0, 2979000.0 ], [ 577500.0, 2979000.0 ], [ 578000.0, 2979000.0 ], [ 578000.0, 2979500.0 ], [ 577500.0, 2979500.0 ], [ 577500.0, 2980000.0 ], [ 577000.0, 2980000.0 ], [ 577000.0, 2979500.0 ], [ 576500.0, 2979500.0 ], [ 576500.0, 2980000.0 ], [ 576500.0, 2980500.0 ], [ 576000.0, 2980500.0 ], [ 576000.0, 2981000.0 ], [ 576000.0, 2981500.0 ], [ 576500.0, 2981500.0 ], [ 576500.0, 2982000.0 ], [ 576500.0, 2982500.0 ], [ 576500.0, 2983000.0 ], [ 576500.0, 2983500.0 ], [ 576500.0, 2984000.0 ], [ 576500.0, 2984500.0 ], [ 576500.0, 2985000.0 ], [ 576500.0, 2985500.0 ], [ 576500.0, 2986000.0 ], [ 576500.0, 2986500.0 ], [ 577000.0, 2986500.0 ], [ 577000.0, 2986000.0 ], [ 577000.0, 2985500.0 ], [ 577000.0, 2985000.0 ], [ 577000.0, 2984500.0 ], [ 577000.0, 2984000.0 ], [ 577000.0, 2983500.0 ], [ 577000.0, 2983000.0 ], [ 577500.0, 2983000.0 ], [ 578000.0, 2983000.0 ], [ 578000.0, 2982500.0 ], [ 577500.0, 2982500.0 ], [ 577500.0, 2982000.0 ], [ 577500.0, 2981500.0 ], [ 577500.0, 2981000.0 ], [ 577500.0, 2980500.0 ], [ 578000.0, 2980500.0 ], [ 578000.0, 2980000.0 ], [ 578500.0, 2980000.0 ], [ 579000.0, 2980000.0 ], [ 579000.0, 2980500.0 ], [ 579000.0, 2981000.0 ], [ 579000.0, 2981500.0 ], [ 579500.0, 2981500.0 ], [ 580000.0, 2981500.0 ], [ 580000.0, 2981000.0 ], [ 580500.0, 2981000.0 ], [ 580500.0, 2980500.0 ], [ 580000.0, 2980500.0 ], [ 579500.0, 2980500.0 ], [ 579500.0, 2980000.0 ], [ 579500.0, 2979500.0 ], [ 579500.0, 2979000.0 ], [ 580000.0, 2979000.0 ], [ 580500.0, 2979000.0 ], [ 581000.0, 2979000.0 ], [ 581000.0, 2979500.0 ], [ 581500.0, 2979500.0 ], [ 582000.0, 2979500.0 ], [ 582500.0, 2979500.0 ], [ 583000.0, 2979500.0 ], [ 583000.0, 2979000.0 ], [ 583000.0, 2978500.0 ], [ 583500.0, 2978500.0 ], [ 583500.0, 2978000.0 ], [ 583000.0, 2978000.0 ], [ 583000.0, 2977500.0 ], [ 583000.0, 2977000.0 ], [ 583000.0, 2976500.0 ], [ 583500.0, 2976500.0 ], [ 584000.0, 2976500.0 ], [ 584000.0, 2976000.0 ], [ 584500.0, 2976000.0 ], [ 584500.0, 2975500.0 ], [ 584000.0, 2975500.0 ], [ 583500.0, 2975500.0 ], [ 583000.0, 2975500.0 ], [ 583000.0, 2975000.0 ], [ 583000.0, 2974500.0 ], [ 582500.0, 2974500.0 ], [ 582500.0, 2974000.0 ], [ 582000.0, 2974000.0 ], [ 582000.0, 2973500.0 ], [ 581500.0, 2973500.0 ], [ 581500.0, 2973000.0 ], [ 581000.0, 2973000.0 ], [ 580500.0, 2973000.0 ], [ 580500.0, 2972500.0 ], [ 580500.0, 2972000.0 ], [ 581000.0, 2972000.0 ], [ 581500.0, 2972000.0 ], [ 581500.0, 2971500.0 ], [ 581500.0, 2971000.0 ], [ 582000.0, 2971000.0 ], [ 582000.0, 2970500.0 ], [ 582000.0, 2970000.0 ], [ 582000.0, 2969500.0 ], [ 581500.0, 2969500.0 ], [ 581500.0, 2969000.0 ], [ 582000.0, 2969000.0 ], [ 582500.0, 2969000.0 ], [ 583000.0, 2969000.0 ], [ 583000.0, 2968500.0 ], [ 583500.0, 2968500.0 ], [ 584000.0, 2968500.0 ], [ 584000.0, 2969000.0 ], [ 584500.0, 2969000.0 ], [ 584500.0, 2969500.0 ], [ 585000.0, 2969500.0 ], [ 585000.0, 2970000.0 ], [ 585500.0, 2970000.0 ], [ 585500.0, 2970500.0 ], [ 585000.0, 2970500.0 ], [ 585000.0, 2971000.0 ], [ 585000.0, 2971500.0 ], [ 585500.0, 2971500.0 ], [ 585500.0, 2972000.0 ], [ 586000.0, 2972000.0 ], [ 586000.0, 2972500.0 ], [ 586500.0, 2972500.0 ], [ 587000.0, 2972500.0 ], [ 587000.0, 2972000.0 ], [ 587000.0, 2971500.0 ], [ 586500.0, 2971500.0 ], [ 586000.0, 2971500.0 ], [ 586000.0, 2971000.0 ], [ 586000.0, 2970500.0 ], [ 586000.0, 2970000.0 ], [ 586500.0, 2970000.0 ], [ 587000.0, 2970000.0 ], [ 587500.0, 2970000.0 ], [ 588000.0, 2970000.0 ], [ 588000.0, 2969500.0 ], [ 588500.0, 2969500.0 ], [ 588500.0, 2970000.0 ], [ 589000.0, 2970000.0 ], [ 589500.0, 2970000.0 ], [ 589500.0, 2969500.0 ], [ 589500.0, 2969000.0 ], [ 589500.0, 2968500.0 ], [ 589500.0, 2968000.0 ], [ 589500.0, 2967500.0 ], [ 589500.0, 2967000.0 ], [ 590000.0, 2967000.0 ], [ 590000.0, 2966500.0 ], [ 590000.0, 2966000.0 ], [ 590000.0, 2965500.0 ], [ 589500.0, 2965500.0 ], [ 589500.0, 2965000.0 ], [ 589000.0, 2965000.0 ], [ 588500.0, 2965000.0 ], [ 588000.0, 2965000.0 ], [ 588000.0, 2965500.0 ], [ 588500.0, 2965500.0 ], [ 588500.0, 2966000.0 ], [ 588500.0, 2966500.0 ], [ 588000.0, 2966500.0 ], [ 588000.0, 2967000.0 ], [ 588000.0, 2967500.0 ], [ 588000.0, 2968000.0 ], [ 587500.0, 2968000.0 ], [ 587000.0, 2968000.0 ], [ 586500.0, 2968000.0 ], [ 586500.0, 2968500.0 ], [ 586000.0, 2968500.0 ], [ 586000.0, 2968000.0 ], [ 585500.0, 2968000.0 ], [ 585500.0, 2967500.0 ], [ 586000.0, 2967500.0 ], [ 586000.0, 2967000.0 ], [ 586000.0, 2966500.0 ], [ 585500.0, 2966500.0 ], [ 585500.0, 2966000.0 ], [ 585000.0, 2966000.0 ], [ 585000.0, 2966500.0 ], [ 584500.0, 2966500.0 ], [ 584500.0, 2967000.0 ], [ 584000.0, 2967000.0 ], [ 583500.0, 2967000.0 ], [ 583500.0, 2967500.0 ], [ 583500.0, 2968000.0 ], [ 583000.0, 2968000.0 ], [ 582500.0, 2968000.0 ], [ 582500.0, 2967500.0 ], [ 582000.0, 2967500.0 ], [ 581500.0, 2967500.0 ], [ 581000.0, 2967500.0 ], [ 580500.0, 2967500.0 ], [ 580000.0, 2967500.0 ], [ 579500.0, 2967500.0 ], [ 579000.0, 2967500.0 ], [ 578500.0, 2967500.0 ], [ 578500.0, 2968000.0 ], [ 579000.0, 2968000.0 ], [ 579500.0, 2968000.0 ], [ 579500.0, 2968500.0 ], [ 579000.0, 2968500.0 ], [ 578500.0, 2968500.0 ], [ 578500.0, 2969000.0 ], [ 578500.0, 2969500.0 ], [ 579000.0, 2969500.0 ], [ 579000.0, 2970000.0 ], [ 579500.0, 2970000.0 ], [ 579500.0, 2970500.0 ], [ 579000.0, 2970500.0 ], [ 578500.0, 2970500.0 ], [ 578500.0, 2971000.0 ], [ 578500.0, 2971500.0 ], [ 578500.0, 2972000.0 ], [ 579000.0, 2972000.0 ], [ 579000.0, 2972500.0 ], [ 579500.0, 2972500.0 ], [ 579500.0, 2973000.0 ], [ 579500.0, 2973500.0 ], [ 579000.0, 2973500.0 ], [ 579000.0, 2974000.0 ], [ 579000.0, 2974500.0 ], [ 579000.0, 2975000.0 ], [ 579000.0, 2975500.0 ], [ 578500.0, 2975500.0 ], [ 578500.0, 2975000.0 ], [ 578000.0, 2975000.0 ], [ 578000.0, 2975500.0 ], [ 577500.0, 2975500.0 ], [ 577000.0, 2975500.0 ], [ 576500.0, 2975500.0 ], [ 576500.0, 2975000.0 ], [ 576000.0, 2975000.0 ], [ 576000.0, 2975500.0 ], [ 576000.0, 2976000.0 ], [ 576500.0, 2976000.0 ], [ 577000.0, 2976000.0 ], [ 577000.0, 2976500.0 ], [ 577000.0, 2977000.0 ] ], [ [ 576500.0, 2981000.0 ], [ 577000.0, 2981000.0 ], [ 577000.0, 2981500.0 ], [ 576500.0, 2981500.0 ], [ 576500.0, 2981000.0 ] ], [ [ 581500.0, 2970000.0 ], [ 581500.0, 2970500.0 ], [ 581000.0, 2970500.0 ], [ 580500.0, 2970500.0 ], [ 580000.0, 2970500.0 ], [ 580000.0, 2970000.0 ], [ 580000.0, 2969500.0 ], [ 580500.0, 2969500.0 ], [ 580500.0, 2969000.0 ], [ 581000.0, 2969000.0 ], [ 581000.0, 2969500.0 ], [ 581500.0, 2969500.0 ], [ 581500.0, 2970000.0 ] ], [ [ 579500.0, 2969500.0 ], [ 579500.0, 2969000.0 ], [ 580000.0, 2969000.0 ], [ 580000.0, 2969500.0 ], [ 579500.0, 2969500.0 ] ], [ [ 582500.0, 2968500.0 ], [ 582000.0, 2968500.0 ], [ 581500.0, 2968500.0 ], [ 581500.0, 2968000.0 ], [ 582000.0, 2968000.0 ], [ 582500.0, 2968000.0 ], [ 582500.0, 2968500.0 ] ], [ [ 579000.0, 2971500.0 ], [ 579500.0, 2971500.0 ], [ 579500.0, 2972000.0 ], [ 579000.0, 2972000.0 ], [ 579000.0, 2971500.0 ] ], [ [ 579500.0, 2971000.0 ], [ 580000.0, 2971000.0 ], [ 580000.0, 2971500.0 ], [ 579500.0, 2971500.0 ], [ 579500.0, 2971000.0 ] ], [ [ 588500.0, 2968500.0 ], [ 588500.0, 2968000.0 ], [ 589000.0, 2968000.0 ], [ 589000.0, 2968500.0 ], [ 588500.0, 2968500.0 ] ] ], [ [ [ 578500.0, 2970500.0 ], [ 578500.0, 2970000.0 ], [ 578000.0, 2970000.0 ], [ 578000.0, 2970500.0 ], [ 578500.0, 2970500.0 ] ] ], [ [ [ 577500.0, 2971500.0 ], [ 577500.0, 2972000.0 ], [ 578000.0, 2972000.0 ], [ 578000.0, 2971500.0 ], [ 577500.0, 2971500.0 ] ] ], [ [ [ 578500.0, 2972000.0 ], [ 578000.0, 2972000.0 ], [ 578000.0, 2972500.0 ], [ 578500.0, 2972500.0 ], [ 578500.0, 2972000.0 ] ] ], [ [ [ 578000.0, 2982000.0 ], [ 578000.0, 2982500.0 ], [ 578500.0, 2982500.0 ], [ 578500.0, 2982000.0 ], [ 578500.0, 2981500.0 ], [ 578000.0, 2981500.0 ], [ 578000.0, 2982000.0 ] ] ], [ [ [ 583500.0, 2981000.0 ], [ 583500.0, 2980500.0 ], [ 583500.0, 2980000.0 ], [ 583500.0, 2979500.0 ], [ 583000.0, 2979500.0 ], [ 583000.0, 2980000.0 ], [ 583000.0, 2980500.0 ], [ 583000.0, 2981000.0 ], [ 583500.0, 2981000.0 ] ] ], [ [ [ 588500.0, 2963500.0 ], [ 588500.0, 2964000.0 ], [ 589000.0, 2964000.0 ], [ 589000.0, 2963500.0 ], [ 588500.0, 2963500.0 ] ] ], [ [ [ 589000.0, 2964000.0 ], [ 589000.0, 2964500.0 ], [ 589500.0, 2964500.0 ], [ 589500.0, 2965000.0 ], [ 590000.0, 2965000.0 ], [ 590000.0, 2964500.0 ], [ 590000.0, 2964000.0 ], [ 589500.0, 2964000.0 ], [ 589000.0, 2964000.0 ] ] ] ] } }
]
}
