{
"type": "FeatureCollection",
"name": "jaipur_building_extraction_envelope",
"crs": { "type": "name", "properties": { "name": "urn:ogc:def:crs:OGC:1.3:CRS84" } },
"features": [
{ "type": "Feature", "properties": { "city": "Jaipur", "method": "geofabrik-direct-temporary-extraction-window", "temporary_half_width_km": 50.0 }, "geometry": { "type": "Polygon", "coordinates": [ [ [ 76.291007292579394, 26.463244412504494 ], [ 76.291007292579394, 27.361555587495509 ], [ 75.28359270742061, 27.361555587495509 ], [ 75.28359270742061, 26.463244412504494 ], [ 76.291007292579394, 26.463244412504494 ] ] ] } }
]
}
