{
"type": "FeatureCollection",
"name": "kolkata_building_extraction_envelope",
"crs": { "type": "name", "properties": { "name": "urn:ogc:def:crs:OGC:1.3:CRS84" } },
"features": [
{ "type": "Feature", "properties": { "city": "Kolkata", "method": "geofabrik-direct-temporary-extraction-window", "temporary_half_width_km": 50.0 }, "geometry": { "type": "Polygon", "coordinates": [ [ [ 88.850318193454598, 22.123444412504494 ], [ 88.850318193454598, 23.021755587495509 ], [ 87.877481806545404, 23.021755587495509 ], [ 87.877481806545404, 22.123444412504494 ], [ 88.850318193454598, 22.123444412504494 ] ] ] } }
]
}
