{
"type": "FeatureCollection",
"name": "kolkata_boundary",
"crs": { "type": "name", "properties": { "name": "urn:ogc:def:crs:OGC:1.3:CRS84" } },
"features": [
{ "type": "Feature", "properties": { "city": "Kolkata" }, "geometry": { "type": "MultiPolygon", "coordinates": [ [ [ [ 88.275545975526043, 22.483001738189461 ], [ 88.275587357692388, 22.487517627798894 ], [ 88.299885032680976, 22.487323494955682 ], [ 88.299927213334627, 22.491839338811239 ], [ 88.29506754212764, 22.491878466938839 ], [ 88.295277818437185, 22.514457690634227 ], [ 88.30013827815398, 22.514418519020008 ], [ 88.300222779501439, 22.523450172863498 ], [ 88.305083544124926, 22.523410837161396 ], [ 88.305253308027744, 22.541474078627566 ], [ 88.310114693673825, 22.54143456117334 ], [ 88.309944297929178, 22.523371354771214 ], [ 88.314805040873992, 22.523331725694295 ], [ 88.314890532858271, 22.532363316517142 ], [ 88.319751580737417, 22.532323523093659 ], [ 88.319794501060485, 22.536839305759681 ], [ 88.314933295203957, 22.536879108014567 ], [ 88.314976068454101, 22.541394896902123 ], [ 88.319837432328328, 22.541355085815262 ], [ 88.319923327704586, 22.550386638093425 ], [ 88.329646654876626, 22.55030653995151 ], [ 88.329516879899074, 22.536759260906049 ], [ 88.334378052800574, 22.536719018310023 ], [ 88.334421458111891, 22.54123477167429 ], [ 88.349005384290933, 22.541113136241329 ], [ 88.349268895337829, 22.568207439606873 ], [ 88.344406648851489, 22.56824818573525 ], [ 88.344494258811395, 22.577279617324102 ], [ 88.339631684543818, 22.577320234447669 ], [ 88.339719022361493, 22.586351673568799 ], [ 88.334856120185208, 22.58639216155813 ], [ 88.334682122446722, 22.568329236981892 ], [ 88.329819842608927, 22.568369542097418 ], [ 88.329776529125084, 22.563853795481631 ], [ 88.315190098327378, 22.563973802176989 ], [ 88.315232937037663, 22.568489575396452 ], [ 88.305508278678374, 22.568568862542651 ], [ 88.305593355558045, 22.577600436291856 ], [ 88.310456006821511, 22.577560848682992 ], [ 88.310498719901318, 22.582076622867177 ], [ 88.315361518668368, 22.582036879376322 ], [ 88.315404401050515, 22.586552642142038 ], [ 88.310541443861126, 22.586592394437854 ], [ 88.310584178702555, 22.591108163394608 ], [ 88.3057210521673, 22.591147777320597 ], [ 88.305635910254253, 22.582116219247862 ], [ 88.295910258481385, 22.582194970673338 ], [ 88.296037036814667, 22.595742356206237 ], [ 88.300900343503017, 22.595703027926675 ], [ 88.300942783020929, 22.6002188091698 ], [ 88.296079317784447, 22.600258146158218 ], [ 88.29616391202147, 22.609289718221202 ], [ 88.301027694475252, 22.609250363813434 ], [ 88.301112649164779, 22.618281907997453 ], [ 88.296248549332233, 22.61832127982678 ], [ 88.296290884144184, 22.622837056706988 ], [ 88.31088362741076, 22.62271847286689 ], [ 88.310840816353661, 22.618202722219305 ], [ 88.320568939971665, 22.61812294695746 ], [ 88.32061206851759, 22.62263867995361 ], [ 88.315747853431532, 22.622678650111336 ], [ 88.315790834168538, 22.627194389331688 ], [ 88.325519570931988, 22.627114283897644 ], [ 88.325476272628578, 22.622598562395051 ], [ 88.340068818707223, 22.622477325328049 ], [ 88.340025055202901, 22.617961628025995 ], [ 88.335161042996631, 22.618002178806435 ], [ 88.33507386674458, 22.608970758398922 ], [ 88.344801245318934, 22.608889545426791 ], [ 88.3449769119309, 22.626952303855649 ], [ 88.33524826362715, 22.627033588735316 ], [ 88.335335528649054, 22.636064988182234 ], [ 88.320741520012263, 22.6361858632301 ], [ 88.320827875905465, 22.645217305650277 ], [ 88.330557861735841, 22.645136834207587 ], [ 88.330601374123489, 22.649652533698589 ], [ 88.350061848608817, 22.64948978412194 ], [ 88.349973563229142, 22.640458454453217 ], [ 88.354838335974591, 22.640417416231767 ], [ 88.354749777743365, 22.631386094213696 ], [ 88.359614221480484, 22.631344926680313 ], [ 88.359392229288758, 22.608766621250687 ], [ 88.354528579204867, 22.608807743269928 ], [ 88.354440178570798, 22.599776384541787 ], [ 88.364166833091275, 22.599694029679714 ], [ 88.364211344919411, 22.604209692120484 ], [ 88.369074813770325, 22.604168284684885 ], [ 88.369343075010008, 22.631262149249896 ], [ 88.364478653916166, 22.631303611691912 ], [ 88.364523245102376, 22.635819255771032 ], [ 88.359658653816552, 22.635860579896597 ], [ 88.359792018649898, 22.649407523798651 ], [ 88.364657086728585, 22.64936617225813 ], [ 88.36470172329868, 22.65388180583567 ], [ 88.354971257808074, 22.653964379577602 ], [ 88.355015587622262, 22.6584800287762 ], [ 88.359880985076259, 22.658438806606824 ], [ 88.359925485255644, 22.662954444071694 ], [ 88.36479103049092, 22.662913065111002 ], [ 88.364835701116363, 22.667428690807963 ], [ 88.389164051822817, 22.667219534608872 ], [ 88.389118585557114, 22.662703955107286 ], [ 88.3939840620653, 22.662661690076419 ], [ 88.394029687454008, 22.667177260241068 ], [ 88.4037609238828, 22.667092268388924 ], [ 88.403714980253156, 22.662576716995979 ], [ 88.413445851733485, 22.662491153233553 ], [ 88.413492113597215, 22.667006685724317 ], [ 88.432954351589117, 22.66683374800424 ], [ 88.432907453277863, 22.662318253709213 ], [ 88.437772823966412, 22.662274659670111 ], [ 88.437631723462204, 22.648728189860805 ], [ 88.442496605116034, 22.648684477147018 ], [ 88.442308002932947, 22.630622519152677 ], [ 88.447172237064606, 22.630578697647231 ], [ 88.44726683185587, 22.639609662530443 ], [ 88.452131371638401, 22.639565674147327 ], [ 88.452178845981251, 22.644081142910895 ], [ 88.457043532589921, 22.644036997277176 ], [ 88.457091177945713, 22.648552453645916 ], [ 88.466820832651578, 22.648463700193645 ], [ 88.466724918390469, 22.639432824047358 ], [ 88.461860414946088, 22.639477254904282 ], [ 88.461812634961191, 22.63496180305178 ], [ 88.456948278219983, 22.635006076629118 ], [ 88.456900669202327, 22.630490612350652 ], [ 88.452036459167871, 22.630534728712725 ], [ 88.45194159497251, 22.621503772737661 ], [ 88.44707769038699, 22.621547722226008 ], [ 88.446983191808968, 22.612516736270166 ], [ 88.451846779038235, 22.612472806225504 ], [ 88.45179938916462, 22.607957319019075 ], [ 88.446935960552935, 22.608001239342812 ], [ 88.446888741316528, 22.603485739783075 ], [ 88.437162165234326, 22.60357311928793 ], [ 88.43702153062047, 22.590026546797343 ], [ 88.4418843491502, 22.589982959624148 ], [ 88.441837336392467, 22.585467439853794 ], [ 88.446699984532259, 22.585423715228632 ], [ 88.446747155707627, 22.589939225313714 ], [ 88.46619826140774, 22.589762816729266 ], [ 88.466150456579399, 22.585247345711046 ], [ 88.475875619731227, 22.585158278363018 ], [ 88.475827510339826, 22.5806428244397 ], [ 88.470965093236885, 22.580687421781455 ], [ 88.470917154422921, 22.576171955345085 ], [ 88.475779413199461, 22.576127367882822 ], [ 88.475731328308342, 22.571611908692791 ], [ 88.46114499025586, 22.571745200447527 ], [ 88.461192600283368, 22.57626068917644 ], [ 88.456330305000947, 22.57630483554253 ], [ 88.456282853264867, 22.57178933703247 ], [ 88.451420704187626, 22.571833326614914 ], [ 88.45146799763053, 22.57634883487356 ], [ 88.446605678212421, 22.576392687168045 ], [ 88.446652825367778, 22.58090820251326 ], [ 88.44179033560529, 22.580951917453763 ], [ 88.441743346786936, 22.576436392424498 ], [ 88.436881003394362, 22.576479950641435 ], [ 88.436787378213666, 22.567448873395719 ], [ 88.427063288812064, 22.567535510298363 ], [ 88.427156280869283, 22.576566625950889 ], [ 88.417431510959673, 22.576652713084655 ], [ 88.41724684016809, 22.558590394987331 ], [ 88.407523289176027, 22.558675818167252 ], [ 88.407431656845233, 22.549644605496155 ], [ 88.402570180070157, 22.549687077867336 ], [ 88.40266149614277, 22.558718309378772 ], [ 88.397799691471704, 22.558760653669403 ], [ 88.397708691660711, 22.549729403382756 ], [ 88.392847191657154, 22.549771582040997 ], [ 88.392620684954608, 22.527193363701326 ], [ 88.397481395000582, 22.527151231807959 ], [ 88.397390557448048, 22.518119944843619 ], [ 88.407111311350349, 22.518035278574118 ], [ 88.406928513400587, 22.499972748417271 ], [ 88.402068773166832, 22.500015117208996 ], [ 88.401932269855919, 22.486468163870313 ], [ 88.392213700110972, 22.486552405779182 ], [ 88.392168537246818, 22.482036730710213 ], [ 88.397027670395843, 22.481994692302429 ], [ 88.396982361591853, 22.477479023964808 ], [ 88.401841325705163, 22.47743684856594 ], [ 88.401886791976011, 22.481952507525708 ], [ 88.411605000268963, 22.481867698871142 ], [ 88.411513449557759, 22.47283641604232 ], [ 88.406654666122648, 22.472878874667391 ], [ 88.406609065680087, 22.468363219887792 ], [ 88.411467691732071, 22.468320770704462 ], [ 88.411376211132094, 22.459289472183944 ], [ 88.401659576678682, 22.45937418658378 ], [ 88.401704996530128, 22.463889855999941 ], [ 88.39684650457626, 22.463932003268763 ], [ 88.396801242030932, 22.459416324477097 ], [ 88.387084538094143, 22.459500161643426 ], [ 88.387039601646251, 22.454984461587049 ], [ 88.39189780210549, 22.454942625417615 ], [ 88.391807649225342, 22.445911236090677 ], [ 88.396665523751125, 22.445869272429068 ], [ 88.396620307437658, 22.441353583190118 ], [ 88.399261198833528, 22.441330713445158 ], [ 88.391745170383686, 22.439649478272042 ], [ 88.391762590059045, 22.441395537511088 ], [ 88.386904861166784, 22.441437345754427 ], [ 88.386994676676835, 22.450468758919804 ], [ 88.382136621969934, 22.450510439635863 ], [ 88.382181389708535, 22.455026151579876 ], [ 88.377323166332502, 22.455067695394671 ], [ 88.377278555826351, 22.450551974206423 ], [ 88.372420478286273, 22.450593362630077 ], [ 88.372464931558298, 22.455109093030046 ], [ 88.362748427976072, 22.455191449756903 ], [ 88.362792578052591, 22.459707195874767 ], [ 88.357934152045686, 22.459748164078182 ], [ 88.357890159248385, 22.455232408845607 ], [ 88.353031879283165, 22.455273221749312 ], [ 88.353075714799644, 22.459788986064094 ], [ 88.348217266354652, 22.459829661831087 ], [ 88.348260955747477, 22.464345432588853 ], [ 88.34340233881943, 22.464385971153273 ], [ 88.343358806750842, 22.459870191377796 ], [ 88.328783361388403, 22.459990902682549 ], [ 88.328740312300312, 22.455475093444687 ], [ 88.314165239831127, 22.455594462154302 ], [ 88.314122673495262, 22.451078623750576 ], [ 88.309264451455007, 22.451118112138847 ], [ 88.309226788017284, 22.447106625601247 ], [ 88.299548070984542, 22.451206958315616 ], [ 88.299590069477858, 22.45571251508872 ], [ 88.294731657795538, 22.455751573666145 ], [ 88.294815564555506, 22.464783312593578 ], [ 88.304533006441574, 22.464705014403897 ], [ 88.304617585673697, 22.473736708089419 ], [ 88.294899514189225, 22.473815041117074 ], [ 88.294941505087621, 22.478330901476294 ], [ 88.280363845158476, 22.478447329406166 ], [ 88.280405374268057, 22.482963213051679 ], [ 88.275545975526043, 22.483001738189461 ] ], [ [ 88.314805040873992, 22.523331725694295 ], [ 88.314762311232215, 22.518815926369722 ], [ 88.309901726145611, 22.518855546649448 ], [ 88.309859165219919, 22.514339735920029 ], [ 88.319580008860655, 22.514260366333566 ], [ 88.319622885420685, 22.518776159437152 ], [ 88.324483448670776, 22.518736245853095 ], [ 88.324526494024227, 22.523252027485618 ], [ 88.314805040873992, 22.523331725694295 ] ], [ [ 88.334378052800574, 22.536719018310023 ], [ 88.334334658554809, 22.532203262333631 ], [ 88.339195662419741, 22.532162881921607 ], [ 88.339239214636507, 22.536678628936336 ], [ 88.334378052800574, 22.536719018310023 ] ], [ [ 88.320568939971665, 22.61812294695746 ], [ 88.320482715798633, 22.60909147311169 ], [ 88.325346443804719, 22.609051382175313 ], [ 88.32543298534064, 22.61808283827353 ], [ 88.320568939971665, 22.61812294695746 ] ], [ [ 88.325346443804719, 22.609051382175313 ], [ 88.325303189553537, 22.604535650199463 ], [ 88.320439620168344, 22.604575732262905 ], [ 88.320396535506731, 22.600059988797398 ], [ 88.325259946311391, 22.600019915606335 ], [ 88.32521671407666, 22.595504178396354 ], [ 88.334943185547772, 22.595423608147563 ], [ 88.335030295256416, 22.604455044266732 ], [ 88.330166747929681, 22.604495420866954 ], [ 88.330210160800164, 22.60901114393727 ], [ 88.325346443804719, 22.609051382175313 ] ], [ [ 88.335335528649054, 22.636064988182234 ], [ 88.340200176046338, 22.636024401508688 ], [ 88.340243984106863, 22.640540088325675 ], [ 88.335379177810836, 22.640580683973919 ], [ 88.335335528649054, 22.636064988182234 ] ], [ [ 88.354440178570798, 22.599776384541787 ], [ 88.349576834416055, 22.599817341131178 ], [ 88.349532809504637, 22.595301648769144 ], [ 88.344669612672789, 22.595342449094147 ], [ 88.344538080531606, 22.581795329193202 ], [ 88.349400802009228, 22.581754555969074 ], [ 88.349488795800767, 22.590785953787833 ], [ 88.354351822934944, 22.590745015332587 ], [ 88.354440178570798, 22.599776384541787 ] ], [ [ 88.36470172329868, 22.65388180583567 ], [ 88.37443214338883, 22.653798641627084 ], [ 88.374522086860722, 22.662829864145323 ], [ 88.369656564372761, 22.662871538468409 ], [ 88.369611746009781, 22.65835591931743 ], [ 88.364746371218914, 22.658397436786768 ], [ 88.36470172329868, 22.65388180583567 ] ], [ [ 88.437631723462204, 22.648728189860805 ], [ 88.432766829853747, 22.648771755012156 ], [ 88.432673140478343, 22.639740742708327 ], [ 88.418079341904146, 22.639870495397965 ], [ 88.417986653261835, 22.630839415192277 ], [ 88.422850946929813, 22.630796330854285 ], [ 88.422897444186944, 22.635311862744352 ], [ 88.437490730549655, 22.635181696336851 ], [ 88.437631723462204, 22.648728189860805 ] ], [ [ 88.442308002932947, 22.630622519152677 ], [ 88.437443756813238, 22.630666193227583 ], [ 88.437396795024483, 22.626150687485037 ], [ 88.442260882361623, 22.626107023068322 ], [ 88.442308002932947, 22.630622519152677 ] ], [ [ 88.402068773166832, 22.500015117208996 ], [ 88.402114297499821, 22.504530763088756 ], [ 88.3972543879824, 22.504572994763627 ], [ 88.397209021317281, 22.500057339503048 ], [ 88.402068773166832, 22.500015117208996 ] ], [ [ 88.392168537246818, 22.482036730710213 ], [ 88.387309392569122, 22.482078622747625 ], [ 88.387219416325379, 22.473047246143167 ], [ 88.392078246102869, 22.473005372730753 ], [ 88.392168537246818, 22.482036730710213 ] ], [ [ 88.39684650457626, 22.463932003268763 ], [ 88.396891778683724, 22.468447679447554 ], [ 88.392033117819707, 22.468489689821119 ], [ 88.391988001060213, 22.463974004298766 ], [ 88.39684650457626, 22.463932003268763 ] ], [ [ 88.348260955747477, 22.464345432588853 ], [ 88.353119561515101, 22.464304747771621 ], [ 88.353163419431141, 22.468820506871484 ], [ 88.348304656300698, 22.468861200739521 ], [ 88.348260955747477, 22.464345432588853 ] ], [ [ 88.456377768825035, 22.580820331421926 ], [ 88.461240222439159, 22.580776175274075 ], [ 88.461287856725065, 22.585291658740005 ], [ 88.456425244738881, 22.585335824670249 ], [ 88.456377768825035, 22.580820331421926 ] ], [ [ 88.412661197583361, 22.585726698355369 ], [ 88.422386624530958, 22.58564086729308 ], [ 88.422433003600773, 22.590156425478739 ], [ 88.412707259798864, 22.590242275553198 ], [ 88.412661197583361, 22.585726698355369 ] ], [ [ 88.422525797175041, 22.599187533966646 ], [ 88.422572211682962, 22.603703084268055 ], [ 88.417708870146427, 22.603746111448306 ], [ 88.417662614185815, 22.599230551622718 ], [ 88.422525797175041, 22.599187533966646 ] ], [ [ 88.384162517755129, 22.653714886963112 ], [ 88.384117245154556, 22.649199290269618 ], [ 88.388982256086791, 22.649157200822952 ], [ 88.388936836033324, 22.644641610803042 ], [ 88.393801676453705, 22.644599383113974 ], [ 88.393756109028175, 22.640083799799509 ], [ 88.388891427528705, 22.640126018154607 ], [ 88.388846030571244, 22.635610422878056 ], [ 88.398575064223266, 22.635525857356892 ], [ 88.398529361132702, 22.631010278150832 ], [ 88.403393701702811, 22.630967783573109 ], [ 88.403485437224035, 22.63999892055978 ], [ 88.398620778940085, 22.640041433934083 ], [ 88.398712243259254, 22.649072579200151 ], [ 88.403577219418679, 22.649030047026873 ], [ 88.403623128022801, 22.653545606314534 ], [ 88.384162517755129, 22.653714886963112 ] ], [ [ 88.403393701702811, 22.630967783573109 ], [ 88.403347851440472, 22.626452211135987 ], [ 88.413076179957827, 22.62636679854786 ], [ 88.413122347807757, 22.630882352092382 ], [ 88.403393701702811, 22.630967783573109 ] ], [ [ 88.407569122857694, 22.563191420568643 ], [ 88.412431062400742, 22.563148772984047 ], [ 88.412477065990302, 22.567664363307863 ], [ 88.407614968219121, 22.567707020346685 ], [ 88.407569122857694, 22.563191420568643 ] ], [ [ 88.407614968219121, 22.567707020346685 ], [ 88.407660825261999, 22.572222617500977 ], [ 88.397936278173518, 22.572307509435358 ], [ 88.397890737672626, 22.567791893469138 ], [ 88.407614968219121, 22.567707020346685 ] ], [ [ 88.378711753724716, 22.595053755730284 ], [ 88.378576894207413, 22.581506827588385 ], [ 88.388302167146591, 22.581423074719467 ], [ 88.388392695719475, 22.590454325658712 ], [ 88.38352974815632, 22.590496294225918 ], [ 88.383574871256357, 22.595011925055399 ], [ 88.378711753724716, 22.595053755730284 ] ], [ [ 88.383574871256357, 22.595011925055399 ], [ 88.393301071809347, 22.594927822145412 ], [ 88.393346523435412, 22.59944343172802 ], [ 88.38848327040688, 22.599485566103972 ], [ 88.388528575047758, 22.604001182390316 ], [ 88.378801717314985, 22.604085028045208 ], [ 88.378756729794205, 22.599569393199328 ], [ 88.383620005846367, 22.599527553261545 ], [ 88.383574871256357, 22.595011925055399 ] ], [ [ 88.392349257892164, 22.500099415298006 ], [ 88.392394466887708, 22.504615079906849 ], [ 88.382674590127436, 22.504698810592682 ], [ 88.382629696476016, 22.500183127384943 ], [ 88.392349257892164, 22.500099415298006 ] ], [ [ 88.373356384371107, 22.545423152553653 ], [ 88.378217772269494, 22.545381570562274 ], [ 88.378307484132847, 22.55441290053593 ], [ 88.373445780036647, 22.554454500975684 ], [ 88.373356384371107, 22.545423152553653 ] ], [ [ 88.378307484132847, 22.55441290053593 ], [ 88.383169176794382, 22.554371153200734 ], [ 88.383259250751905, 22.563402454182711 ], [ 88.37353522127961, 22.563485838924198 ], [ 88.373490494960123, 22.558970171259332 ], [ 88.378352357215633, 22.558928561594524 ], [ 88.378307484132847, 22.55441290053593 ] ], [ [ 88.383169176794382, 22.554371153200734 ], [ 88.383079148736584, 22.545339841740589 ], [ 88.38794051373209, 22.545297966090015 ], [ 88.388030857981008, 22.554329258971531 ], [ 88.383169176794382, 22.554371153200734 ] ], [ [ 88.372820966760713, 22.491234842265982 ], [ 88.377680460854208, 22.491193370916029 ], [ 88.377725174003302, 22.495709068601801 ], [ 88.372865522314029, 22.495750549168683 ], [ 88.372820966760713, 22.491234842265982 ] ], [ [ 88.378487045088477, 22.572475529052344 ], [ 88.373624708113198, 22.57251716639583 ], [ 88.373579958996743, 22.568001503969828 ], [ 88.378442137691792, 22.567959875853148 ], [ 88.378487045088477, 22.572475529052344 ] ], [ [ 88.364122332593396, 22.595178364617521 ], [ 88.364077843424113, 22.590662696934334 ], [ 88.368940836698442, 22.590621316994113 ], [ 88.368985484352905, 22.595136975512755 ], [ 88.364122332593396, 22.595178364617521 ] ], [ [ 88.358418814957901, 22.509421299427917 ], [ 88.363278973688537, 22.509380230924741 ], [ 88.363323259224771, 22.513895945714122 ], [ 88.353602614981554, 22.513977954355671 ], [ 88.353558644970207, 22.509462221355644 ], [ 88.358418814957901, 22.509421299427917 ] ], [ [ 88.348523326529744, 22.491440002371601 ], [ 88.353382877077053, 22.491399263240996 ], [ 88.35333896313368, 22.486883517185799 ], [ 88.358198344908502, 22.486842640694736 ], [ 88.358286499170063, 22.495874112021983 ], [ 88.348567094079471, 22.495955754870824 ], [ 88.348523326529744, 22.491440002371601 ] ], [ [ 88.35461702485027, 22.61783909151367 ], [ 88.349753046170093, 22.617880084378239 ], [ 88.34970897641206, 22.613364402497474 ], [ 88.354572796400333, 22.613323418702564 ], [ 88.35461702485027, 22.61783909151367 ] ], [ [ 88.338891107730049, 22.50055257969851 ], [ 88.334031208535109, 22.500592897394675 ], [ 88.33398790275595, 22.496077120536398 ], [ 88.338847644301836, 22.496036811797389 ], [ 88.338760750717768, 22.487005268168829 ], [ 88.343620165998118, 22.486964830924219 ], [ 88.343794628040868, 22.50502787178803 ], [ 88.338934582251198, 22.505068344990306 ], [ 88.338891107730049, 22.50055257969851 ] ], [ [ 88.324096534336775, 22.478094093791142 ], [ 88.319237389971491, 22.478133927639558 ], [ 88.319066342755946, 22.460070645759288 ], [ 88.323924857551134, 22.460030847334458 ], [ 88.323967760306672, 22.464546662855486 ], [ 88.333685071642819, 22.464466609518198 ], [ 88.333771539594565, 22.47349819712818 ], [ 88.328912574647688, 22.473538314767875 ], [ 88.329041886932998, 22.487085703402009 ], [ 88.324182438508984, 22.487125701387857 ], [ 88.324096534336775, 22.478094093791142 ] ] ], [ [ [ 88.275545975526043, 22.483001738189461 ], [ 88.275504603923508, 22.47848584597952 ], [ 88.270645352126238, 22.478524216182397 ], [ 88.270686566220178, 22.483040116924215 ], [ 88.275545975526043, 22.483001738189461 ] ] ], [ [ [ 88.310114693673825, 22.54143456117334 ], [ 88.310157319770468, 22.54595035625055 ], [ 88.315018852610294, 22.545910683179372 ], [ 88.314976068454101, 22.541394896902123 ], [ 88.310114693673825, 22.54143456117334 ] ] ], [ [ [ 88.344406648851489, 22.56824818573525 ], [ 88.344362860608541, 22.563732466016333 ], [ 88.339500761216158, 22.563773056143599 ], [ 88.339544391207681, 22.568288784860712 ], [ 88.344406648851489, 22.56824818573525 ] ] ], [ [ [ 88.432954351589117, 22.66683374800424 ], [ 88.433001261821573, 22.671349239663229 ], [ 88.442732627746324, 22.671261865336412 ], [ 88.442685399219684, 22.666746392972204 ], [ 88.432954351589117, 22.66683374800424 ] ] ], [ [ [ 88.396665523751125, 22.445869272429068 ], [ 88.396710751620034, 22.450384959056834 ], [ 88.401568771776041, 22.450342839912746 ], [ 88.401523386721465, 22.445827162658723 ], [ 88.396665523751125, 22.445869272429068 ] ] ] ] } }
]
}
