{
"type": "FeatureCollection",
"name": "kolkata_city_extent",
"crs": { "type": "name", "properties": { "name": "urn:ogc:def:crs:EPSG::32645" } },
"features": [
{ "type": "Feature", "properties": { "city": "Kolkata", "component_id": 0, "selected_component_ids": "0,3,21,28,39,40,43,51,57,60,66,79,93,95,98,99,105,108,110,111,125,126,131,145", "selection_method": "nearest city-centre component + components within 1 km", "combine_distance_km": 1.0, "extent_cells": 2399, "extent_area_km2": 599.75, "distance_to_city_center_km": 3.6508822251901409 }, "geometry": { "type": "MultiPolygon", "coordinates": [ [ [ [ 631000.0, 2483000.0 ], [ 631000.0, 2483500.0 ], [ 631500.0, 2483500.0 ], [ 631500.0, 2484000.0 ], [ 632000.0, 2484000.0 ], [ 632000.0, 2484500.0 ], [ 631500.0, 2484500.0 ], [ 631500.0, 2485000.0 ], [ 631000.0, 2485000.0 ], [ 630500.0, 2485000.0 ], [ 630500.0, 2485500.0 ], [ 630500.0, 2486000.0 ], [ 630500.0, 2486500.0 ], [ 630500.0, 2487000.0 ], [ 630500.0, 2487500.0 ], [ 630500.0, 2488000.0 ], [ 630500.0, 2488500.0 ], [ 630500.0, 2489000.0 ], [ 631000.0, 2489000.0 ], [ 631500.0, 2489000.0 ], [ 631500.0, 2488500.0 ], [ 631500.0, 2488000.0 ], [ 632000.0, 2488000.0 ], [ 632500.0, 2488000.0 ], [ 633000.0, 2488000.0 ], [ 633000.0, 2488500.0 ], [ 633000.0, 2489000.0 ], [ 633000.0, 2489500.0 ], [ 633000.0, 2490000.0 ], [ 632500.0, 2490000.0 ], [ 632000.0, 2490000.0 ], [ 632000.0, 2490500.0 ], [ 632500.0, 2490500.0 ], [ 632500.0, 2491000.0 ], [ 633000.0, 2491000.0 ], [ 633500.0, 2491000.0 ], [ 633500.0, 2491500.0 ], [ 633000.0, 2491500.0 ], [ 633000.0, 2492000.0 ], [ 633000.0, 2492500.0 ], [ 633000.0, 2493000.0 ], [ 632500.0, 2493000.0 ], [ 632000.0, 2493000.0 ], [ 632000.0, 2493500.0 ], [ 632000.0, 2494000.0 ], [ 632500.0, 2494000.0 ], [ 632500.0, 2493500.0 ], [ 633000.0, 2493500.0 ], [ 633500.0, 2493500.0 ], [ 633500.0, 2494000.0 ], [ 633500.0, 2494500.0 ], [ 633500.0, 2495000.0 ], [ 633500.0, 2495500.0 ], [ 633000.0, 2495500.0 ], [ 633000.0, 2496000.0 ], [ 633000.0, 2496500.0 ], [ 633000.0, 2497000.0 ], [ 633000.0, 2497500.0 ], [ 633000.0, 2498000.0 ], [ 633000.0, 2498500.0 ], [ 633000.0, 2499000.0 ], [ 633000.0, 2499500.0 ], [ 633000.0, 2500000.0 ], [ 633000.0, 2500500.0 ], [ 633000.0, 2501000.0 ], [ 633000.0, 2501500.0 ], [ 632500.0, 2501500.0 ], [ 632000.0, 2501500.0 ], [ 632000.0, 2501000.0 ], [ 631500.0, 2501000.0 ], [ 631000.0, 2501000.0 ], [ 631000.0, 2501500.0 ], [ 631500.0, 2501500.0 ], [ 631500.0, 2502000.0 ], [ 632000.0, 2502000.0 ], [ 632500.0, 2502000.0 ], [ 633000.0, 2502000.0 ], [ 633000.0, 2502500.0 ], [ 633000.0, 2503000.0 ], [ 633000.0, 2503500.0 ], [ 633000.0, 2504000.0 ], [ 633000.0, 2504500.0 ], [ 633500.0, 2504500.0 ], [ 633500.0, 2504000.0 ], [ 633500.0, 2503500.0 ], [ 634000.0, 2503500.0 ], [ 634000.0, 2503000.0 ], [ 634500.0, 2503000.0 ], [ 634500.0, 2503500.0 ], [ 634500.0, 2504000.0 ], [ 634500.0, 2504500.0 ], [ 635000.0, 2504500.0 ], [ 635500.0, 2504500.0 ], [ 635500.0, 2505000.0 ], [ 635500.0, 2505500.0 ], [ 635500.0, 2506000.0 ], [ 635500.0, 2506500.0 ], [ 635500.0, 2507000.0 ], [ 636000.0, 2507000.0 ], [ 636000.0, 2507500.0 ], [ 635500.0, 2507500.0 ], [ 635500.0, 2508000.0 ], [ 635000.0, 2508000.0 ], [ 635000.0, 2507500.0 ], [ 635000.0, 2507000.0 ], [ 634500.0, 2507000.0 ], [ 634000.0, 2507000.0 ], [ 634000.0, 2507500.0 ], [ 633500.0, 2507500.0 ], [ 633500.0, 2507000.0 ], [ 633000.0, 2507000.0 ], [ 632500.0, 2507000.0 ], [ 632000.0, 2507000.0 ], [ 631500.0, 2507000.0 ], [ 631000.0, 2507000.0 ], [ 630500.0, 2507000.0 ], [ 630000.0, 2507000.0 ], [ 630000.0, 2507500.0 ], [ 630000.0, 2508000.0 ], [ 630000.0, 2508500.0 ], [ 630000.0, 2509000.0 ], [ 630000.0, 2509500.0 ], [ 630000.0, 2510000.0 ], [ 630500.0, 2510000.0 ], [ 631000.0, 2510000.0 ], [ 631500.0, 2510000.0 ], [ 632000.0, 2510000.0 ], [ 632500.0, 2510000.0 ], [ 633000.0, 2510000.0 ], [ 633500.0, 2510000.0 ], [ 634000.0, 2510000.0 ], [ 634500.0, 2510000.0 ], [ 634500.0, 2509500.0 ], [ 634500.0, 2509000.0 ], [ 634500.0, 2508500.0 ], [ 635000.0, 2508500.0 ], [ 635500.0, 2508500.0 ], [ 635500.0, 2509000.0 ], [ 636000.0, 2509000.0 ], [ 636500.0, 2509000.0 ], [ 637000.0, 2509000.0 ], [ 637000.0, 2509500.0 ], [ 637000.0, 2510000.0 ], [ 637500.0, 2510000.0 ], [ 637500.0, 2510500.0 ], [ 637000.0, 2510500.0 ], [ 636500.0, 2510500.0 ], [ 636500.0, 2510000.0 ], [ 636000.0, 2510000.0 ], [ 635500.0, 2510000.0 ], [ 635500.0, 2510500.0 ], [ 635500.0, 2511000.0 ], [ 635500.0, 2511500.0 ], [ 635500.0, 2512000.0 ], [ 636000.0, 2512000.0 ], [ 636000.0, 2512500.0 ], [ 636000.0, 2513000.0 ], [ 636500.0, 2513000.0 ], [ 636500.0, 2513500.0 ], [ 637000.0, 2513500.0 ], [ 637500.0, 2513500.0 ], [ 637500.0, 2513000.0 ], [ 638000.0, 2513000.0 ], [ 638500.0, 2513000.0 ], [ 639000.0, 2513000.0 ], [ 639500.0, 2513000.0 ], [ 639500.0, 2512500.0 ], [ 639500.0, 2512000.0 ], [ 639500.0, 2511500.0 ], [ 640000.0, 2511500.0 ], [ 640000.0, 2512000.0 ], [ 640000.0, 2512500.0 ], [ 640000.0, 2513000.0 ], [ 640000.0, 2513500.0 ], [ 640000.0, 2514000.0 ], [ 639500.0, 2514000.0 ], [ 639500.0, 2514500.0 ], [ 639000.0, 2514500.0 ], [ 639000.0, 2515000.0 ], [ 638500.0, 2515000.0 ], [ 638000.0, 2515000.0 ], [ 638000.0, 2514500.0 ], [ 638000.0, 2514000.0 ], [ 637500.0, 2514000.0 ], [ 637500.0, 2514500.0 ], [ 637500.0, 2515000.0 ], [ 637000.0, 2515000.0 ], [ 636500.0, 2515000.0 ], [ 636500.0, 2515500.0 ], [ 637000.0, 2515500.0 ], [ 637500.0, 2515500.0 ], [ 638000.0, 2515500.0 ], [ 638000.0, 2516000.0 ], [ 638000.0, 2516500.0 ], [ 637500.0, 2516500.0 ], [ 637000.0, 2516500.0 ], [ 636500.0, 2516500.0 ], [ 636500.0, 2517000.0 ], [ 637000.0, 2517000.0 ], [ 637000.0, 2517500.0 ], [ 637500.0, 2517500.0 ], [ 637500.0, 2518000.0 ], [ 637500.0, 2518500.0 ], [ 637500.0, 2519000.0 ], [ 638000.0, 2519000.0 ], [ 638000.0, 2519500.0 ], [ 638000.0, 2520000.0 ], [ 637500.0, 2520000.0 ], [ 637000.0, 2520000.0 ], [ 637000.0, 2520500.0 ], [ 637500.0, 2520500.0 ], [ 638000.0, 2520500.0 ], [ 638000.0, 2521000.0 ], [ 638500.0, 2521000.0 ], [ 639000.0, 2521000.0 ], [ 639000.0, 2520500.0 ], [ 639500.0, 2520500.0 ], [ 639500.0, 2520000.0 ], [ 640000.0, 2520000.0 ], [ 640500.0, 2520000.0 ], [ 640500.0, 2520500.0 ], [ 640000.0, 2520500.0 ], [ 640000.0, 2521000.0 ], [ 640500.0, 2521000.0 ], [ 641000.0, 2521000.0 ], [ 641000.0, 2521500.0 ], [ 641500.0, 2521500.0 ], [ 641500.0, 2521000.0 ], [ 642000.0, 2521000.0 ], [ 642000.0, 2521500.0 ], [ 642000.0, 2522000.0 ], [ 642500.0, 2522000.0 ], [ 642500.0, 2521500.0 ], [ 642500.0, 2521000.0 ], [ 643000.0, 2521000.0 ], [ 643000.0, 2520500.0 ], [ 643000.0, 2520000.0 ], [ 643500.0, 2520000.0 ], [ 643500.0, 2519500.0 ], [ 644000.0, 2519500.0 ], [ 644000.0, 2519000.0 ], [ 644500.0, 2519000.0 ], [ 644500.0, 2519500.0 ], [ 645000.0, 2519500.0 ], [ 645500.0, 2519500.0 ], [ 645500.0, 2519000.0 ], [ 645000.0, 2519000.0 ], [ 645000.0, 2518500.0 ], [ 645500.0, 2518500.0 ], [ 646000.0, 2518500.0 ], [ 646000.0, 2518000.0 ], [ 646000.0, 2517500.0 ], [ 646000.0, 2517000.0 ], [ 646000.0, 2516500.0 ], [ 646000.0, 2516000.0 ], [ 646000.0, 2515500.0 ], [ 646000.0, 2515000.0 ], [ 645500.0, 2515000.0 ], [ 645500.0, 2514500.0 ], [ 645000.0, 2514500.0 ], [ 645000.0, 2514000.0 ], [ 645500.0, 2514000.0 ], [ 645500.0, 2513500.0 ], [ 646000.0, 2513500.0 ], [ 646000.0, 2513000.0 ], [ 646000.0, 2512500.0 ], [ 646000.0, 2512000.0 ], [ 646000.0, 2511500.0 ], [ 646000.0, 2511000.0 ], [ 646000.0, 2510500.0 ], [ 646000.0, 2510000.0 ], [ 646500.0, 2510000.0 ], [ 647000.0, 2510000.0 ], [ 647500.0, 2510000.0 ], [ 648000.0, 2510000.0 ], [ 648000.0, 2510500.0 ], [ 647500.0, 2510500.0 ], [ 647500.0, 2511000.0 ], [ 648000.0, 2511000.0 ], [ 648000.0, 2511500.0 ], [ 648000.0, 2512000.0 ], [ 648500.0, 2512000.0 ], [ 648500.0, 2512500.0 ], [ 649000.0, 2512500.0 ], [ 649000.0, 2513000.0 ], [ 649500.0, 2513000.0 ], [ 649500.0, 2513500.0 ], [ 649000.0, 2513500.0 ], [ 649000.0, 2514000.0 ], [ 649000.0, 2514500.0 ], [ 648500.0, 2514500.0 ], [ 648000.0, 2514500.0 ], [ 648000.0, 2515000.0 ], [ 648500.0, 2515000.0 ], [ 648500.0, 2515500.0 ], [ 649000.0, 2515500.0 ], [ 649000.0, 2516000.0 ], [ 649500.0, 2516000.0 ], [ 650000.0, 2516000.0 ], [ 650000.0, 2515500.0 ], [ 650500.0, 2515500.0 ], [ 651000.0, 2515500.0 ], [ 651000.0, 2515000.0 ], [ 651500.0, 2515000.0 ], [ 651500.0, 2515500.0 ], [ 652000.0, 2515500.0 ], [ 652500.0, 2515500.0 ], [ 653000.0, 2515500.0 ], [ 653000.0, 2515000.0 ], [ 653500.0, 2515000.0 ], [ 654000.0, 2515000.0 ], [ 654000.0, 2514500.0 ], [ 653500.0, 2514500.0 ], [ 653500.0, 2514000.0 ], [ 653500.0, 2513500.0 ], [ 653500.0, 2513000.0 ], [ 653500.0, 2512500.0 ], [ 653500.0, 2512000.0 ], [ 653500.0, 2511500.0 ], [ 653500.0, 2511000.0 ], [ 653500.0, 2510500.0 ], [ 653500.0, 2510000.0 ], [ 653000.0, 2510000.0 ], [ 652500.0, 2510000.0 ], [ 652000.0, 2510000.0 ], [ 651500.0, 2510000.0 ], [ 651500.0, 2509500.0 ], [ 651000.0, 2509500.0 ], [ 651000.0, 2509000.0 ], [ 651000.0, 2508500.0 ], [ 651000.0, 2508000.0 ], [ 651000.0, 2507500.0 ], [ 651000.0, 2507000.0 ], [ 651500.0, 2507000.0 ], [ 651500.0, 2506500.0 ], [ 652000.0, 2506500.0 ], [ 652500.0, 2506500.0 ], [ 653000.0, 2506500.0 ], [ 653000.0, 2507000.0 ], [ 653000.0, 2507500.0 ], [ 653500.0, 2507500.0 ], [ 653500.0, 2507000.0 ], [ 653500.0, 2506500.0 ], [ 653500.0, 2506000.0 ], [ 653000.0, 2506000.0 ], [ 653000.0, 2505500.0 ], [ 652500.0, 2505500.0 ], [ 652000.0, 2505500.0 ], [ 652000.0, 2506000.0 ], [ 651500.0, 2506000.0 ], [ 651500.0, 2505500.0 ], [ 651500.0, 2505000.0 ], [ 652000.0, 2505000.0 ], [ 652500.0, 2505000.0 ], [ 653000.0, 2505000.0 ], [ 653000.0, 2504500.0 ], [ 653500.0, 2504500.0 ], [ 654000.0, 2504500.0 ], [ 654000.0, 2504000.0 ], [ 654000.0, 2503500.0 ], [ 654000.0, 2503000.0 ], [ 654000.0, 2502500.0 ], [ 654000.0, 2502000.0 ], [ 654000.0, 2501500.0 ], [ 653500.0, 2501500.0 ], [ 653500.0, 2501000.0 ], [ 654000.0, 2501000.0 ], [ 654000.0, 2500500.0 ], [ 653500.0, 2500500.0 ], [ 653500.0, 2500000.0 ], [ 654000.0, 2500000.0 ], [ 654000.0, 2499500.0 ], [ 654000.0, 2499000.0 ], [ 654500.0, 2499000.0 ], [ 655000.0, 2499000.0 ], [ 655500.0, 2499000.0 ], [ 656000.0, 2499000.0 ], [ 656500.0, 2499000.0 ], [ 657000.0, 2499000.0 ], [ 657000.0, 2499500.0 ], [ 657500.0, 2499500.0 ], [ 657500.0, 2499000.0 ], [ 657500.0, 2498500.0 ], [ 657000.0, 2498500.0 ], [ 656500.0, 2498500.0 ], [ 656000.0, 2498500.0 ], [ 655500.0, 2498500.0 ], [ 655500.0, 2498000.0 ], [ 655500.0, 2497500.0 ], [ 655500.0, 2497000.0 ], [ 656000.0, 2497000.0 ], [ 656000.0, 2496500.0 ], [ 656500.0, 2496500.0 ], [ 656500.0, 2496000.0 ], [ 656500.0, 2495500.0 ], [ 656000.0, 2495500.0 ], [ 656000.0, 2496000.0 ], [ 655500.0, 2496000.0 ], [ 655000.0, 2496000.0 ], [ 655000.0, 2495500.0 ], [ 655000.0, 2495000.0 ], [ 654500.0, 2495000.0 ], [ 654000.0, 2495000.0 ], [ 653500.0, 2495000.0 ], [ 653000.0, 2495000.0 ], [ 653000.0, 2494500.0 ], [ 652500.0, 2494500.0 ], [ 652000.0, 2494500.0 ], [ 652000.0, 2495000.0 ], [ 652500.0, 2495000.0 ], [ 652500.0, 2495500.0 ], [ 653000.0, 2495500.0 ], [ 653000.0, 2496000.0 ], [ 652500.0, 2496000.0 ], [ 652000.0, 2496000.0 ], [ 651500.0, 2496000.0 ], [ 651500.0, 2495500.0 ], [ 651500.0, 2495000.0 ], [ 651500.0, 2494500.0 ], [ 651000.0, 2494500.0 ], [ 651000.0, 2494000.0 ], [ 651000.0, 2493500.0 ], [ 651000.0, 2493000.0 ], [ 650500.0, 2493000.0 ], [ 650500.0, 2493500.0 ], [ 650500.0, 2494000.0 ], [ 650500.0, 2494500.0 ], [ 650500.0, 2495000.0 ], [ 650500.0, 2495500.0 ], [ 650000.0, 2495500.0 ], [ 650000.0, 2496000.0 ], [ 650000.0, 2496500.0 ], [ 649500.0, 2496500.0 ], [ 649000.0, 2496500.0 ], [ 649000.0, 2496000.0 ], [ 648500.0, 2496000.0 ], [ 648500.0, 2496500.0 ], [ 648500.0, 2497000.0 ], [ 648000.0, 2497000.0 ], [ 648000.0, 2496500.0 ], [ 648000.0, 2496000.0 ], [ 647500.0, 2496000.0 ], [ 647000.0, 2496000.0 ], [ 647000.0, 2496500.0 ], [ 646500.0, 2496500.0 ], [ 646000.0, 2496500.0 ], [ 646000.0, 2496000.0 ], [ 646000.0, 2495500.0 ], [ 646000.0, 2495000.0 ], [ 646000.0, 2494500.0 ], [ 646500.0, 2494500.0 ], [ 646500.0, 2494000.0 ], [ 647000.0, 2494000.0 ], [ 647000.0, 2493500.0 ], [ 647000.0, 2493000.0 ], [ 646500.0, 2493000.0 ], [ 646000.0, 2493000.0 ], [ 645500.0, 2493000.0 ], [ 645000.0, 2493000.0 ], [ 645000.0, 2492500.0 ], [ 645500.0, 2492500.0 ], [ 646000.0, 2492500.0 ], [ 646000.0, 2492000.0 ], [ 646000.0, 2491500.0 ], [ 646000.0, 2491000.0 ], [ 646000.0, 2490500.0 ], [ 646000.0, 2490000.0 ], [ 646000.0, 2489500.0 ], [ 646000.0, 2489000.0 ], [ 646000.0, 2488500.0 ], [ 645500.0, 2488500.0 ], [ 645500.0, 2488000.0 ], [ 646000.0, 2488000.0 ], [ 646000.0, 2487500.0 ], [ 646000.0, 2487000.0 ], [ 646000.0, 2486500.0 ], [ 646000.0, 2486000.0 ], [ 646000.0, 2485500.0 ], [ 646500.0, 2485500.0 ], [ 646500.0, 2485000.0 ], [ 646500.0, 2484500.0 ], [ 646000.0, 2484500.0 ], [ 646000.0, 2484000.0 ], [ 646500.0, 2484000.0 ], [ 647000.0, 2484000.0 ], [ 647000.0, 2483500.0 ], [ 646500.0, 2483500.0 ], [ 646500.0, 2483000.0 ], [ 646500.0, 2482500.0 ], [ 646500.0, 2482000.0 ], [ 646000.0, 2482000.0 ], [ 645500.0, 2482000.0 ], [ 645000.0, 2482000.0 ], [ 645000.0, 2481500.0 ], [ 644500.0, 2481500.0 ], [ 644500.0, 2482000.0 ], [ 644000.0, 2482000.0 ], [ 644000.0, 2481500.0 ], [ 643500.0, 2481500.0 ], [ 643000.0, 2481500.0 ], [ 643000.0, 2482000.0 ], [ 642500.0, 2482000.0 ], [ 642000.0, 2482000.0 ], [ 641500.0, 2482000.0 ], [ 641000.0, 2482000.0 ], [ 640500.0, 2482000.0 ], [ 640000.0, 2482000.0 ], [ 639500.0, 2482000.0 ], [ 639500.0, 2482500.0 ], [ 639000.0, 2482500.0 ], [ 638500.0, 2482500.0 ], [ 638500.0, 2482000.0 ], [ 638000.0, 2482000.0 ], [ 637500.0, 2482000.0 ], [ 637000.0, 2482000.0 ], [ 637000.0, 2482500.0 ], [ 636500.0, 2482500.0 ], [ 636500.0, 2482000.0 ], [ 636000.0, 2482000.0 ], [ 635500.0, 2482000.0 ], [ 635000.0, 2482000.0 ], [ 635000.0, 2482500.0 ], [ 634500.0, 2482500.0 ], [ 634500.0, 2482000.0 ], [ 634000.0, 2482000.0 ], [ 633500.0, 2482000.0 ], [ 633000.0, 2482000.0 ], [ 632500.0, 2482000.0 ], [ 632000.0, 2482000.0 ], [ 631500.0, 2482000.0 ], [ 631000.0, 2482000.0 ], [ 631000.0, 2482500.0 ], [ 630500.0, 2482500.0 ], [ 630500.0, 2483000.0 ], [ 631000.0, 2483000.0 ] ], [ [ 633500.0, 2493000.0 ], [ 634000.0, 2493000.0 ], [ 634000.0, 2493500.0 ], [ 633500.0, 2493500.0 ], [ 633500.0, 2493000.0 ] ], [ [ 640000.0, 2514500.0 ], [ 640000.0, 2515000.0 ], [ 640000.0, 2515500.0 ], [ 640000.0, 2516000.0 ], [ 640000.0, 2516500.0 ], [ 640000.0, 2517000.0 ], [ 639500.0, 2517000.0 ], [ 639000.0, 2517000.0 ], [ 639000.0, 2516500.0 ], [ 639500.0, 2516500.0 ], [ 639500.0, 2516000.0 ], [ 639500.0, 2515500.0 ], [ 639500.0, 2515000.0 ], [ 639500.0, 2514500.0 ], [ 640000.0, 2514500.0 ] ], [ [ 639000.0, 2517500.0 ], [ 638500.0, 2517500.0 ], [ 638500.0, 2517000.0 ], [ 639000.0, 2517000.0 ], [ 639000.0, 2517500.0 ] ], [ [ 638500.0, 2518000.0 ], [ 638000.0, 2518000.0 ], [ 638000.0, 2517500.0 ], [ 638500.0, 2517500.0 ], [ 638500.0, 2518000.0 ] ], [ [ 638500.0, 2520500.0 ], [ 638500.0, 2520000.0 ], [ 639000.0, 2520000.0 ], [ 639000.0, 2520500.0 ], [ 638500.0, 2520500.0 ] ], [ [ 645500.0, 2510000.0 ], [ 645500.0, 2509500.0 ], [ 646000.0, 2509500.0 ], [ 646000.0, 2510000.0 ], [ 645500.0, 2510000.0 ] ], [ [ 645000.0, 2509500.0 ], [ 644500.0, 2509500.0 ], [ 644000.0, 2509500.0 ], [ 644000.0, 2509000.0 ], [ 644000.0, 2508500.0 ], [ 644500.0, 2508500.0 ], [ 644500.0, 2508000.0 ], [ 645000.0, 2508000.0 ], [ 645000.0, 2507500.0 ], [ 645500.0, 2507500.0 ], [ 645500.0, 2508000.0 ], [ 645500.0, 2508500.0 ], [ 645500.0, 2509000.0 ], [ 645500.0, 2509500.0 ], [ 645000.0, 2509500.0 ] ], [ [ 638500.0, 2483000.0 ], [ 638000.0, 2483000.0 ], [ 638000.0, 2482500.0 ], [ 638500.0, 2482500.0 ], [ 638500.0, 2483000.0 ] ], [ [ 641000.0, 2509500.0 ], [ 640500.0, 2509500.0 ], [ 640000.0, 2509500.0 ], [ 640000.0, 2510000.0 ], [ 639500.0, 2510000.0 ], [ 639500.0, 2509500.0 ], [ 639000.0, 2509500.0 ], [ 638500.0, 2509500.0 ], [ 638500.0, 2509000.0 ], [ 638500.0, 2508500.0 ], [ 638500.0, 2508000.0 ], [ 638500.0, 2507500.0 ], [ 639000.0, 2507500.0 ], [ 639000.0, 2507000.0 ], [ 639500.0, 2507000.0 ], [ 639500.0, 2507500.0 ], [ 640000.0, 2507500.0 ], [ 640500.0, 2507500.0 ], [ 641000.0, 2507500.0 ], [ 641000.0, 2508000.0 ], [ 641000.0, 2508500.0 ], [ 641000.0, 2509000.0 ], [ 641500.0, 2509000.0 ], [ 642000.0, 2509000.0 ], [ 642000.0, 2508500.0 ], [ 642500.0, 2508500.0 ], [ 642500.0, 2508000.0 ], [ 643000.0, 2508000.0 ], [ 643500.0, 2508000.0 ], [ 643500.0, 2508500.0 ], [ 643000.0, 2508500.0 ], [ 643000.0, 2509000.0 ], [ 643000.0, 2509500.0 ], [ 642500.0, 2509500.0 ], [ 642000.0, 2509500.0 ], [ 641500.0, 2509500.0 ], [ 641000.0, 2509500.0 ] ], [ [ 642000.0, 2508000.0 ], [ 642000.0, 2507500.0 ], [ 642500.0, 2507500.0 ], [ 642500.0, 2508000.0 ], [ 642000.0, 2508000.0 ] ], [ [ 643500.0, 2507500.0 ], [ 644000.0, 2507500.0 ], [ 644000.0, 2508000.0 ], [ 643500.0, 2508000.0 ], [ 643500.0, 2507500.0 ] ], [ [ 637500.0, 2495500.0 ], [ 637500.0, 2496000.0 ], [ 637000.0, 2496000.0 ], [ 637000.0, 2495500.0 ], [ 637500.0, 2495500.0 ] ], [ [ 636500.0, 2495500.0 ], [ 636500.0, 2495000.0 ], [ 637000.0, 2495000.0 ], [ 637000.0, 2495500.0 ], [ 636500.0, 2495500.0 ] ], [ [ 636000.0, 2495000.0 ], [ 636000.0, 2494500.0 ], [ 636500.0, 2494500.0 ], [ 636500.0, 2495000.0 ], [ 636000.0, 2495000.0 ] ], [ [ 638000.0, 2493500.0 ], [ 638000.0, 2494000.0 ], [ 637500.0, 2494000.0 ], [ 637500.0, 2493500.0 ], [ 638000.0, 2493500.0 ] ], [ [ 638500.0, 2494000.0 ], [ 638500.0, 2494500.0 ], [ 638500.0, 2495000.0 ], [ 638000.0, 2495000.0 ], [ 638000.0, 2494500.0 ], [ 638000.0, 2494000.0 ], [ 638500.0, 2494000.0 ] ], [ [ 636500.0, 2483000.0 ], [ 637000.0, 2483000.0 ], [ 637000.0, 2483500.0 ], [ 636500.0, 2483500.0 ], [ 636500.0, 2483000.0 ] ], [ [ 634500.0, 2494000.0 ], [ 635000.0, 2494000.0 ], [ 635000.0, 2494500.0 ], [ 634500.0, 2494500.0 ], [ 634000.0, 2494500.0 ], [ 634000.0, 2494000.0 ], [ 634500.0, 2494000.0 ] ], [ [ 633000.0, 2484500.0 ], [ 632500.0, 2484500.0 ], [ 632500.0, 2484000.0 ], [ 633000.0, 2484000.0 ], [ 633000.0, 2484500.0 ] ], [ [ 638000.0, 2497000.0 ], [ 637500.0, 2497000.0 ], [ 637500.0, 2496500.0 ], [ 638000.0, 2496500.0 ], [ 638000.0, 2497000.0 ] ], [ [ 639000.0, 2504500.0 ], [ 639500.0, 2504500.0 ], [ 639500.0, 2505000.0 ], [ 639500.0, 2505500.0 ], [ 639000.0, 2505500.0 ], [ 639000.0, 2505000.0 ], [ 639000.0, 2504500.0 ] ], [ [ 640000.0, 2504000.0 ], [ 639500.0, 2504000.0 ], [ 639500.0, 2503500.0 ], [ 640000.0, 2503500.0 ], [ 640000.0, 2504000.0 ] ], [ [ 640000.0, 2501000.0 ], [ 639500.0, 2501000.0 ], [ 639500.0, 2500500.0 ], [ 640000.0, 2500500.0 ], [ 640000.0, 2501000.0 ] ], [ [ 640500.0, 2501000.0 ], [ 640500.0, 2501500.0 ], [ 640500.0, 2502000.0 ], [ 640500.0, 2502500.0 ], [ 640500.0, 2503000.0 ], [ 640000.0, 2503000.0 ], [ 640000.0, 2502500.0 ], [ 640000.0, 2502000.0 ], [ 640000.0, 2501500.0 ], [ 640000.0, 2501000.0 ], [ 640500.0, 2501000.0 ] ], [ [ 638500.0, 2519000.0 ], [ 638500.0, 2518500.0 ], [ 639000.0, 2518500.0 ], [ 639500.0, 2518500.0 ], [ 640000.0, 2518500.0 ], [ 640000.0, 2519000.0 ], [ 639500.0, 2519000.0 ], [ 639500.0, 2519500.0 ], [ 639000.0, 2519500.0 ], [ 638500.0, 2519500.0 ], [ 638500.0, 2519000.0 ] ], [ [ 645000.0, 2517000.0 ], [ 645000.0, 2516500.0 ], [ 644500.0, 2516500.0 ], [ 644000.0, 2516500.0 ], [ 644000.0, 2516000.0 ], [ 644500.0, 2516000.0 ], [ 645000.0, 2516000.0 ], [ 645500.0, 2516000.0 ], [ 645500.0, 2516500.0 ], [ 645500.0, 2517000.0 ], [ 645000.0, 2517000.0 ] ], [ [ 644500.0, 2494500.0 ], [ 644500.0, 2494000.0 ], [ 644500.0, 2493500.0 ], [ 645000.0, 2493500.0 ], [ 645500.0, 2493500.0 ], [ 645500.0, 2494000.0 ], [ 645500.0, 2494500.0 ], [ 645000.0, 2494500.0 ], [ 644500.0, 2494500.0 ] ], [ [ 644000.0, 2517500.0 ], [ 643500.0, 2517500.0 ], [ 643500.0, 2517000.0 ], [ 644000.0, 2517000.0 ], [ 644000.0, 2517500.0 ] ], [ [ 644500.0, 2512500.0 ], [ 645000.0, 2512500.0 ], [ 645000.0, 2513000.0 ], [ 645000.0, 2513500.0 ], [ 644500.0, 2513500.0 ], [ 644000.0, 2513500.0 ], [ 644000.0, 2513000.0 ], [ 644500.0, 2513000.0 ], [ 644500.0, 2512500.0 ] ], [ [ 644000.0, 2512500.0 ], [ 644000.0, 2512000.0 ], [ 644500.0, 2512000.0 ], [ 644500.0, 2512500.0 ], [ 644000.0, 2512500.0 ] ], [ [ 645000.0, 2491500.0 ], [ 645000.0, 2492000.0 ], [ 644500.0, 2492000.0 ], [ 644500.0, 2491500.0 ], [ 644500.0, 2491000.0 ], [ 645000.0, 2491000.0 ], [ 645000.0, 2491500.0 ] ], [ [ 650000.0, 2500500.0 ], [ 650000.0, 2500000.0 ], [ 650500.0, 2500000.0 ], [ 650500.0, 2500500.0 ], [ 650500.0, 2501000.0 ], [ 650500.0, 2501500.0 ], [ 650000.0, 2501500.0 ], [ 649500.0, 2501500.0 ], [ 649500.0, 2501000.0 ], [ 650000.0, 2501000.0 ], [ 650000.0, 2500500.0 ] ], [ [ 649000.0, 2506500.0 ], [ 649000.0, 2507000.0 ], [ 649000.0, 2507500.0 ], [ 649000.0, 2508000.0 ], [ 649000.0, 2508500.0 ], [ 648500.0, 2508500.0 ], [ 648500.0, 2508000.0 ], [ 648500.0, 2507500.0 ], [ 648500.0, 2507000.0 ], [ 648500.0, 2506500.0 ], [ 648500.0, 2506000.0 ], [ 648500.0, 2505500.0 ], [ 648000.0, 2505500.0 ], [ 648000.0, 2505000.0 ], [ 648500.0, 2505000.0 ], [ 648500.0, 2504500.0 ], [ 649000.0, 2504500.0 ], [ 649000.0, 2505000.0 ], [ 649000.0, 2505500.0 ], [ 649000.0, 2506000.0 ], [ 649000.0, 2506500.0 ] ], [ [ 650000.0, 2506500.0 ], [ 650000.0, 2506000.0 ], [ 650500.0, 2506000.0 ], [ 650500.0, 2506500.0 ], [ 650000.0, 2506500.0 ] ], [ [ 653000.0, 2500000.0 ], [ 653000.0, 2500500.0 ], [ 653000.0, 2501000.0 ], [ 653000.0, 2501500.0 ], [ 653000.0, 2502000.0 ], [ 652500.0, 2502000.0 ], [ 652500.0, 2501500.0 ], [ 652500.0, 2501000.0 ], [ 652000.0, 2501000.0 ], [ 652000.0, 2500500.0 ], [ 652500.0, 2500500.0 ], [ 652500.0, 2500000.0 ], [ 653000.0, 2500000.0 ] ], [ [ 651500.0, 2500500.0 ], [ 651500.0, 2500000.0 ], [ 651500.0, 2499500.0 ], [ 652000.0, 2499500.0 ], [ 652000.0, 2500000.0 ], [ 652000.0, 2500500.0 ], [ 651500.0, 2500500.0 ] ], [ [ 652500.0, 2498500.0 ], [ 652500.0, 2499000.0 ], [ 652000.0, 2499000.0 ], [ 652000.0, 2498500.0 ], [ 652000.0, 2498000.0 ], [ 652500.0, 2498000.0 ], [ 652500.0, 2498500.0 ] ], [ [ 654500.0, 2496000.0 ], [ 654000.0, 2496000.0 ], [ 654000.0, 2495500.0 ], [ 654500.0, 2495500.0 ], [ 654500.0, 2496000.0 ] ], [ [ 653500.0, 2496500.0 ], [ 653500.0, 2497000.0 ], [ 653000.0, 2497000.0 ], [ 653000.0, 2496500.0 ], [ 653500.0, 2496500.0 ] ] ], [ [ [ 631000.0, 2483500.0 ], [ 630500.0, 2483500.0 ], [ 630500.0, 2484000.0 ], [ 631000.0, 2484000.0 ], [ 631000.0, 2483500.0 ] ] ], [ [ [ 629500.0, 2488000.0 ], [ 629500.0, 2487500.0 ], [ 629000.0, 2487500.0 ], [ 628500.0, 2487500.0 ], [ 628500.0, 2488000.0 ], [ 629000.0, 2488000.0 ], [ 629000.0, 2488500.0 ], [ 629500.0, 2488500.0 ], [ 630000.0, 2488500.0 ], [ 630000.0, 2488000.0 ], [ 629500.0, 2488000.0 ] ] ], [ [ [ 631500.0, 2492500.0 ], [ 631500.0, 2492000.0 ], [ 631500.0, 2491500.0 ], [ 631000.0, 2491500.0 ], [ 631000.0, 2492000.0 ], [ 631000.0, 2492500.0 ], [ 631500.0, 2492500.0 ] ] ], [ [ [ 632000.0, 2494000.0 ], [ 631500.0, 2494000.0 ], [ 631500.0, 2494500.0 ], [ 632000.0, 2494500.0 ], [ 632000.0, 2494000.0 ] ] ], [ [ [ 632500.0, 2495000.0 ], [ 632500.0, 2494500.0 ], [ 632000.0, 2494500.0 ], [ 632000.0, 2495000.0 ], [ 632500.0, 2495000.0 ] ] ], [ [ [ 631500.0, 2496000.0 ], [ 631500.0, 2495500.0 ], [ 631000.0, 2495500.0 ], [ 631000.0, 2496000.0 ], [ 630500.0, 2496000.0 ], [ 630000.0, 2496000.0 ], [ 630000.0, 2496500.0 ], [ 630500.0, 2496500.0 ], [ 631000.0, 2496500.0 ], [ 631500.0, 2496500.0 ], [ 632000.0, 2496500.0 ], [ 632000.0, 2496000.0 ], [ 631500.0, 2496000.0 ] ] ], [ [ [ 631000.0, 2498000.0 ], [ 631500.0, 2498000.0 ], [ 631500.0, 2498500.0 ], [ 632000.0, 2498500.0 ], [ 632000.0, 2498000.0 ], [ 632000.0, 2497500.0 ], [ 631500.0, 2497500.0 ], [ 631000.0, 2497500.0 ], [ 630500.0, 2497500.0 ], [ 630500.0, 2498000.0 ], [ 631000.0, 2498000.0 ] ] ], [ [ [ 628000.0, 2501500.0 ], [ 628500.0, 2501500.0 ], [ 629000.0, 2501500.0 ], [ 629500.0, 2501500.0 ], [ 630000.0, 2501500.0 ], [ 630500.0, 2501500.0 ], [ 630500.0, 2501000.0 ], [ 630500.0, 2500500.0 ], [ 630500.0, 2500000.0 ], [ 630500.0, 2499500.0 ], [ 630500.0, 2499000.0 ], [ 630000.0, 2499000.0 ], [ 630000.0, 2498500.0 ], [ 629500.0, 2498500.0 ], [ 629000.0, 2498500.0 ], [ 628500.0, 2498500.0 ], [ 628000.0, 2498500.0 ], [ 627500.0, 2498500.0 ], [ 627500.0, 2499000.0 ], [ 627500.0, 2499500.0 ], [ 627500.0, 2500000.0 ], [ 627500.0, 2500500.0 ], [ 627500.0, 2501000.0 ], [ 627500.0, 2501500.0 ], [ 628000.0, 2501500.0 ] ] ], [ [ [ 632500.0, 2499000.0 ], [ 632000.0, 2499000.0 ], [ 632000.0, 2499500.0 ], [ 632500.0, 2499500.0 ], [ 632500.0, 2499000.0 ] ] ], [ [ [ 635500.0, 2514000.0 ], [ 635000.0, 2514000.0 ], [ 635000.0, 2514500.0 ], [ 635000.0, 2515000.0 ], [ 635500.0, 2515000.0 ], [ 636000.0, 2515000.0 ], [ 636000.0, 2514500.0 ], [ 636000.0, 2514000.0 ], [ 635500.0, 2514000.0 ] ] ], [ [ [ 635500.0, 2519500.0 ], [ 635500.0, 2520000.0 ], [ 636000.0, 2520000.0 ], [ 636500.0, 2520000.0 ], [ 636500.0, 2519500.0 ], [ 636000.0, 2519500.0 ], [ 635500.0, 2519500.0 ] ] ], [ [ [ 636500.0, 2520500.0 ], [ 636000.0, 2520500.0 ], [ 636000.0, 2521000.0 ], [ 636500.0, 2521000.0 ], [ 636500.0, 2520500.0 ] ] ], [ [ [ 637000.0, 2521500.0 ], [ 637000.0, 2521000.0 ], [ 636500.0, 2521000.0 ], [ 636500.0, 2521500.0 ], [ 637000.0, 2521500.0 ] ] ], [ [ [ 638500.0, 2481000.0 ], [ 638500.0, 2480500.0 ], [ 639000.0, 2480500.0 ], [ 639000.0, 2480000.0 ], [ 638500.0, 2480000.0 ], [ 638000.0, 2480000.0 ], [ 638000.0, 2480500.0 ], [ 638000.0, 2481000.0 ], [ 638500.0, 2481000.0 ] ] ], [ [ [ 639500.0, 2521500.0 ], [ 639000.0, 2521500.0 ], [ 639000.0, 2522000.0 ], [ 639500.0, 2522000.0 ], [ 639500.0, 2521500.0 ] ] ], [ [ [ 639000.0, 2523500.0 ], [ 639000.0, 2523000.0 ], [ 638500.0, 2523000.0 ], [ 638500.0, 2523500.0 ], [ 639000.0, 2523500.0 ] ] ], [ [ [ 641000.0, 2522500.0 ], [ 641000.0, 2522000.0 ], [ 641000.0, 2521500.0 ], [ 640500.0, 2521500.0 ], [ 640500.0, 2522000.0 ], [ 640000.0, 2522000.0 ], [ 639500.0, 2522000.0 ], [ 639500.0, 2522500.0 ], [ 639500.0, 2523000.0 ], [ 639500.0, 2523500.0 ], [ 640000.0, 2523500.0 ], [ 640500.0, 2523500.0 ], [ 640500.0, 2523000.0 ], [ 640500.0, 2522500.0 ], [ 641000.0, 2522500.0 ] ] ], [ [ [ 640000.0, 2525000.0 ], [ 640500.0, 2525000.0 ], [ 640500.0, 2524500.0 ], [ 640000.0, 2524500.0 ], [ 639500.0, 2524500.0 ], [ 639500.0, 2525000.0 ], [ 640000.0, 2525000.0 ] ] ], [ [ [ 641500.0, 2523500.0 ], [ 641000.0, 2523500.0 ], [ 641000.0, 2524000.0 ], [ 641000.0, 2524500.0 ], [ 641500.0, 2524500.0 ], [ 641500.0, 2524000.0 ], [ 641500.0, 2523500.0 ] ] ], [ [ [ 645500.0, 2480500.0 ], [ 645500.0, 2480000.0 ], [ 645000.0, 2480000.0 ], [ 645000.0, 2480500.0 ], [ 645500.0, 2480500.0 ] ] ], [ [ [ 646000.0, 2480000.0 ], [ 646000.0, 2479500.0 ], [ 645500.0, 2479500.0 ], [ 645500.0, 2480000.0 ], [ 646000.0, 2480000.0 ] ] ], [ [ [ 647500.0, 2482500.0 ], [ 647500.0, 2482000.0 ], [ 647000.0, 2482000.0 ], [ 647000.0, 2482500.0 ], [ 647500.0, 2482500.0 ] ] ], [ [ [ 647500.0, 2483000.0 ], [ 647000.0, 2483000.0 ], [ 647000.0, 2483500.0 ], [ 647500.0, 2483500.0 ], [ 647500.0, 2483000.0 ] ] ], [ [ [ 647000.0, 2490000.0 ], [ 647000.0, 2489500.0 ], [ 646500.0, 2489500.0 ], [ 646500.0, 2490000.0 ], [ 647000.0, 2490000.0 ] ] ], [ [ [ 647500.0, 2515500.0 ], [ 647000.0, 2515500.0 ], [ 646500.0, 2515500.0 ], [ 646500.0, 2516000.0 ], [ 646500.0, 2516500.0 ], [ 647000.0, 2516500.0 ], [ 647500.0, 2516500.0 ], [ 647500.0, 2516000.0 ], [ 647500.0, 2515500.0 ] ] ], [ [ [ 646000.0, 2520000.0 ], [ 646000.0, 2519500.0 ], [ 645500.0, 2519500.0 ], [ 645500.0, 2520000.0 ], [ 646000.0, 2520000.0 ] ] ], [ [ [ 649000.0, 2482000.0 ], [ 648500.0, 2482000.0 ], [ 648000.0, 2482000.0 ], [ 648000.0, 2482500.0 ], [ 648500.0, 2482500.0 ], [ 649000.0, 2482500.0 ], [ 649000.0, 2482000.0 ] ] ], [ [ [ 648000.0, 2495000.0 ], [ 648000.0, 2495500.0 ], [ 648500.0, 2495500.0 ], [ 648500.0, 2495000.0 ], [ 648500.0, 2494500.0 ], [ 648000.0, 2494500.0 ], [ 648000.0, 2495000.0 ] ] ], [ [ [ 649000.0, 2517000.0 ], [ 649000.0, 2516500.0 ], [ 648500.0, 2516500.0 ], [ 648500.0, 2517000.0 ], [ 649000.0, 2517000.0 ] ] ], [ [ [ 657000.0, 2494500.0 ], [ 657000.0, 2494000.0 ], [ 656500.0, 2494000.0 ], [ 656500.0, 2494500.0 ], [ 657000.0, 2494500.0 ] ] ], [ [ [ 658500.0, 2500500.0 ], [ 658500.0, 2500000.0 ], [ 658000.0, 2500000.0 ], [ 658000.0, 2500500.0 ], [ 658500.0, 2500500.0 ] ] ], [ [ [ 654500.0, 2511500.0 ], [ 654000.0, 2511500.0 ], [ 654000.0, 2512000.0 ], [ 654500.0, 2512000.0 ], [ 654500.0, 2511500.0 ] ] ] ] } }
]
}
