{
"type": "FeatureCollection",
"name": "pune_building_extraction_envelope",
"crs": { "type": "name", "properties": { "name": "urn:ogc:def:crs:OGC:1.3:CRS84" } },
"features": [
{ "type": "Feature", "properties": { "city": "Pune", "method": "geofabrik-direct-temporary-extraction-window", "temporary_half_width_km": 50.0 }, "geometry": { "type": "Polygon", "coordinates": [ [ [ 74.33038757338889, 18.071244412504491 ], [ 74.33038757338889, 18.969555587495506 ], [ 73.383012426611117, 18.969555587495506 ], [ 73.383012426611117, 18.071244412504491 ], [ 74.33038757338889, 18.071244412504491 ] ] ] } }
]
}
