{
"type": "FeatureCollection",
"name": "pune_boundary",
"crs": { "type": "name", "properties": { "name": "urn:ogc:def:crs:OGC:1.3:CRS84" } },
"features": [
{ "type": "Feature", "properties": { "city": "Pune" }, "geometry": { "type": "MultiPolygon", "coordinates": [ [ [ [ 73.756553442568787, 18.614650014917409 ], [ 73.756586269728146, 18.610132054414869 ], [ 73.761324821982228, 18.610163289338256 ], [ 73.761292119846487, 18.614681257964719 ], [ 73.766030806508084, 18.614712381788237 ], [ 73.76596562424092, 18.623748328563948 ], [ 73.770704570409933, 18.623779349287751 ], [ 73.770673534399805, 18.628096492214258 ], [ 73.775411171003071, 18.628328236874424 ], [ 73.775388607745271, 18.631478166860607 ], [ 73.780106931584427, 18.634430922631161 ], [ 73.780118021902524, 18.632877018953536 ], [ 73.784857246216859, 18.632907697751509 ], [ 73.784826944359864, 18.637169587575379 ], [ 73.801450922433546, 18.645287418343074 ], [ 73.803722875711316, 18.646078694567301 ], [ 73.803750981761752, 18.642065275692879 ], [ 73.808490502226704, 18.642095373348745 ], [ 73.80852200823179, 18.637577338498282 ], [ 73.822740247916755, 18.637666891679853 ], [ 73.822709117668694, 18.642184949793219 ], [ 73.817969570216093, 18.642155210399896 ], [ 73.817938305754609, 18.646673258570754 ], [ 73.813198641973742, 18.6466433920009 ], [ 73.813179680589073, 18.64937194455371 ], [ 73.82737463961746, 18.652997666269183 ], [ 73.827386637392678, 18.651250694719273 ], [ 73.836866278014682, 18.651309606973399 ], [ 73.836844782095739, 18.654464948752764 ], [ 73.855795385328378, 18.655944102279477 ], [ 73.855825664793642, 18.651425997621125 ], [ 73.851085804996799, 18.651397079194151 ], [ 73.851146588533396, 18.642360878240368 ], [ 73.846406988074861, 18.642331855398375 ], [ 73.846437492039527, 18.637813759133739 ], [ 73.851176967238189, 18.637842774438507 ], [ 73.851207337235351, 18.633324668420627 ], [ 73.860686063268403, 18.633382325855901 ], [ 73.860746276457178, 18.624346077214945 ], [ 73.865485402097136, 18.624374711993934 ], [ 73.865455424974968, 18.628892844864616 ], [ 73.870194684368101, 18.628921367748269 ], [ 73.870164823840454, 18.633439505817403 ], [ 73.874904216988881, 18.633467916743143 ], [ 73.874993397414698, 18.619913473752408 ], [ 73.879732423614655, 18.619941743256859 ], [ 73.879791584472798, 18.610905422169406 ], [ 73.875052808410445, 18.610877167363093 ], [ 73.87502310717403, 18.615395321663655 ], [ 73.865545330552209, 18.615338439612543 ], [ 73.865515370622532, 18.619856576909758 ], [ 73.860776370102073, 18.619827949573427 ], [ 73.860806455115366, 18.615309819718497 ], [ 73.837112208106888, 18.61516493160098 ], [ 73.837081497691386, 18.619683023779434 ], [ 73.818125758145612, 18.619564936266645 ], [ 73.81815696886359, 18.615046874787453 ], [ 73.808679402819024, 18.614987130962085 ], [ 73.808647941956337, 18.619505176905637 ], [ 73.803909047383172, 18.61947511832739 ], [ 73.804003778001331, 18.605920997287342 ], [ 73.799265267591537, 18.605890842980052 ], [ 73.799296951307099, 18.601372806043496 ], [ 73.80877373126043, 18.601432979829969 ], [ 73.808805156028995, 18.596914925020311 ], [ 73.804066886450713, 18.596884905509729 ], [ 73.804129958673514, 18.587848804869065 ], [ 73.813606007354849, 18.587908693593818 ], [ 73.813480825961619, 18.60598094838841 ], [ 73.818219363440349, 18.606010745180225 ], [ 73.818312888173821, 18.592456534154266 ], [ 73.82778924036279, 18.592515723990083 ], [ 73.827758324191493, 18.597033811954518 ], [ 73.832496638515153, 18.597063235906163 ], [ 73.832650506494005, 18.574472735672465 ], [ 73.842125913362551, 18.574531150129776 ], [ 73.842156411007224, 18.570013028230068 ], [ 73.851631603490887, 18.570070951746889 ], [ 73.851692073820715, 18.561034671132877 ], [ 73.828005405086529, 18.56088904629188 ], [ 73.82794368809671, 18.569925250977295 ], [ 73.818468583784409, 18.569866138168287 ], [ 73.81859297930049, 18.551793781564477 ], [ 73.832804153569654, 18.551882180161691 ], [ 73.832834856488191, 18.547364062431402 ], [ 73.837571807747636, 18.547393283399657 ], [ 73.83766349012555, 18.533838894095691 ], [ 73.842400076771824, 18.533867973516944 ], [ 73.8423696492045, 18.538386113082424 ], [ 73.847106369039935, 18.538415081380251 ], [ 73.847076057186726, 18.542933226298896 ], [ 73.856549771925543, 18.542990821776002 ], [ 73.856579834835429, 18.53847266183077 ], [ 73.851843097595506, 18.53844393096335 ], [ 73.851873276293219, 18.533925776310095 ], [ 73.861346510547776, 18.533983104364456 ], [ 73.861286642287254, 18.543019441393628 ], [ 73.866023521262719, 18.543047942262724 ], [ 73.866112937420027, 18.529493411105406 ], [ 73.870849451654919, 18.529521771011559 ], [ 73.870790098303203, 18.538558142129581 ], [ 73.875526869922439, 18.538586398124917 ], [ 73.875497304911775, 18.543104587751568 ], [ 73.884971122586265, 18.543160758235118 ], [ 73.884912465171297, 18.552197160186633 ], [ 73.889649635744846, 18.552225081862115 ], [ 73.889620418969585, 18.556743286813283 ], [ 73.894357722532021, 18.556771096923786 ], [ 73.894328621978502, 18.561289306921712 ], [ 73.889591193792356, 18.561261489559769 ], [ 73.889561960212092, 18.565779690101103 ], [ 73.899037074271718, 18.565835220418681 ], [ 73.899066058531844, 18.561317005404717 ], [ 73.908540956596724, 18.561372045730302 ], [ 73.908512221660772, 18.565890275092936 ], [ 73.903774643817982, 18.56586280721168 ], [ 73.903745775922914, 18.570381027210967 ], [ 73.899008081679227, 18.570353433227776 ], [ 73.898979080753378, 18.574871643831532 ], [ 73.90845472700579, 18.57492672720532 ], [ 73.908425967284728, 18.579444949954141 ], [ 73.913163927594013, 18.57947232030849 ], [ 73.913192562543969, 18.574954090430733 ], [ 73.917930406308997, 18.574981334680629 ], [ 73.917958908295816, 18.570463095500578 ], [ 73.922696635514612, 18.570490213707473 ], [ 73.922753365552168, 18.561453714604088 ], [ 73.927490851556172, 18.561480699794551 ], [ 73.927434370887596, 18.570517212968053 ], [ 73.932172114378929, 18.570544093281445 ], [ 73.932200234068489, 18.566025830791791 ], [ 73.94167549585309, 18.566079220657958 ], [ 73.941703358123064, 18.561560942051159 ], [ 73.946440876377565, 18.561587451695505 ], [ 73.946385393204579, 18.57062402052966 ], [ 73.95586095235636, 18.570676710609774 ], [ 73.955833448295095, 18.575195005454717 ], [ 73.951095540005554, 18.575168713040807 ], [ 73.951067903260082, 18.579686998834255 ], [ 73.965282026148444, 18.57976553958181 ], [ 73.965336543121353, 18.570728924880193 ], [ 73.960598743805122, 18.570702877221624 ], [ 73.960626115253831, 18.566184573357344 ], [ 73.951150789677101, 18.56613213484879 ], [ 73.951178402605123, 18.561613842451138 ], [ 73.970128586529185, 18.561718216569314 ], [ 73.970155692967879, 18.557199894762782 ], [ 73.960680834552704, 18.557147959028505 ], [ 73.960708182404773, 18.552629648564867 ], [ 73.96544548309528, 18.552655669076326 ], [ 73.965472698516848, 18.548137349627915 ], [ 73.946524041341604, 18.548032581939207 ], [ 73.946551747054698, 18.543514287620937 ], [ 73.951288774954676, 18.543540650860361 ], [ 73.95134391352542, 18.53450404187133 ], [ 73.96081749518612, 18.534556384726322 ], [ 73.960844803729515, 18.530038063272993 ], [ 73.965581481943914, 18.530064049858311 ], [ 73.965608658240612, 18.525545719424233 ], [ 73.960872104414008, 18.52551973962311 ], [ 73.96089939724061, 18.521001413777132 ], [ 73.956162975622973, 18.520975322147414 ], [ 73.956108133373988, 18.530011958013279 ], [ 73.951371470913131, 18.529985734080022 ], [ 73.951399020370388, 18.525467424091467 ], [ 73.937189453865798, 18.525388060983428 ], [ 73.937161531256677, 18.52990635024765 ], [ 73.927688278282105, 18.529852834340907 ], [ 73.927631911208294, 18.538889378329632 ], [ 73.922895047999816, 18.538862428308217 ], [ 73.922866727808767, 18.543380689969819 ], [ 73.908655813753654, 18.543299106247566 ], [ 73.908684507401162, 18.538780865871146 ], [ 73.903947676996566, 18.538753440937477 ], [ 73.903976486837081, 18.53423520551635 ], [ 73.913449907004605, 18.534289922374619 ], [ 73.913478459730868, 18.529771670470598 ], [ 73.918215057745456, 18.529798843760883 ], [ 73.918271889828006, 18.520762319165467 ], [ 73.927744612917991, 18.520816281556147 ], [ 73.927716449654298, 18.525334559047799 ], [ 73.932452947723704, 18.525361369334725 ], [ 73.932480986642148, 18.52084308484238 ], [ 73.941953758269847, 18.520896335592234 ], [ 73.941981540494737, 18.51637803499441 ], [ 73.94671781401432, 18.516404475548871 ], [ 73.946690156101809, 18.5209227830541 ], [ 73.951426561898117, 18.520949111906123 ], [ 73.951481621168867, 18.511912480946926 ], [ 73.946745463963452, 18.511886165847429 ], [ 73.946800739975401, 18.502849539857753 ], [ 73.951536648733082, 18.502875841206112 ], [ 73.951509138913806, 18.507394162173988 ], [ 73.956245179803133, 18.507420351879944 ], [ 73.956190384907856, 18.516457000920287 ], [ 73.965662987368617, 18.516509051969283 ], [ 73.965717285215703, 18.507472375735027 ], [ 73.960981228582355, 18.50744642306724 ], [ 73.961008489986781, 18.5029280884415 ], [ 73.970480362653134, 18.502979861722739 ], [ 73.970507367857294, 18.498461511369921 ], [ 73.979979023299236, 18.498512797280796 ], [ 73.980005772443405, 18.493994431326609 ], [ 73.970534365280784, 18.493943158824461 ], [ 73.970561354924541, 18.489424804086823 ], [ 73.96582578709743, 18.489398996943358 ], [ 73.965798673351188, 18.493917344930519 ], [ 73.961062989237078, 18.493891412609127 ], [ 73.961144679230429, 18.480336382415249 ], [ 73.965879991147219, 18.480362294393334 ], [ 73.965988305502421, 18.462288863003383 ], [ 73.95651868103856, 18.462236975076564 ], [ 73.956545987804432, 18.457718625343755 ], [ 73.951811311224546, 18.457692510907364 ], [ 73.951756442077979, 18.466729194500751 ], [ 73.956491366392356, 18.466755322619402 ], [ 73.956464043864841, 18.471273667971811 ], [ 73.951728995629594, 18.471247533011507 ], [ 73.951674078977845, 18.480284203458822 ], [ 73.946938790713574, 18.480257936482193 ], [ 73.946966376990332, 18.475739609227691 ], [ 73.937496072344459, 18.475686734121386 ], [ 73.937523898574895, 18.471168418513624 ], [ 73.932788882226163, 18.471141810478208 ], [ 73.932760932042967, 18.475660119120139 ], [ 73.928025799803436, 18.475633385821332 ], [ 73.927913422276646, 18.493706570462663 ], [ 73.92317780197412, 18.493679690752597 ], [ 73.923149563211211, 18.498197974396284 ], [ 73.918413826917487, 18.498170969206051 ], [ 73.918442189808971, 18.493652692622867 ], [ 73.904235402495559, 18.493570987724588 ], [ 73.904264129486435, 18.489052730311592 ], [ 73.908999592934947, 18.489080076541939 ], [ 73.909028187592284, 18.484561809779631 ], [ 73.913763535229421, 18.484589030502242 ], [ 73.913848897798516, 18.471034195679305 ], [ 73.909113922112127, 18.471006996319666 ], [ 73.909142483804686, 18.466488720776873 ], [ 73.899672805007981, 18.466433981605334 ], [ 73.899615177669304, 18.475470501828948 ], [ 73.89488010286442, 18.475442940471936 ], [ 73.89490904463419, 18.470924688671211 ], [ 73.89017410212108, 18.470897016268207 ], [ 73.890203159451985, 18.466378769516055 ], [ 73.89493797805703, 18.466406434674965 ], [ 73.895024728254057, 18.452851659517787 ], [ 73.90922811945407, 18.452933880986578 ], [ 73.909171037258517, 18.461970443040116 ], [ 73.918640501256348, 18.462024695077865 ], [ 73.918555559653242, 18.475579564334527 ], [ 73.923290675661619, 18.475606534225832 ], [ 73.923403419213798, 18.457533342598062 ], [ 73.91866879879025, 18.457506400939469 ], [ 73.918753642404354, 18.443951505372222 ], [ 73.914019401456528, 18.443924466806166 ], [ 73.913991004681009, 18.448442760432602 ], [ 73.899787959971164, 18.448360914825585 ], [ 73.899816727944042, 18.443842642647407 ], [ 73.895082520002575, 18.443815131777271 ], [ 73.895053628299252, 18.448333396744122 ], [ 73.890319304969239, 18.448305760557936 ], [ 73.890290281158869, 18.452824016088964 ], [ 73.880821412140079, 18.452768374827933 ], [ 73.880850683477746, 18.44825013387501 ], [ 73.885584990016824, 18.44827800626792 ], [ 73.885643259926908, 18.439241503171711 ], [ 73.880909200806926, 18.43921364538674 ], [ 73.880879946366349, 18.44373189072779 ], [ 73.871411606122791, 18.443675806338042 ], [ 73.87147060124623, 18.434639342862667 ], [ 73.866736691227317, 18.434611138356392 ], [ 73.866707074271901, 18.439129363794883 ], [ 73.847771025482999, 18.439015335820624 ], [ 73.847831239900572, 18.42997894253703 ], [ 73.843097496616224, 18.429950155558664 ], [ 73.84297653833093, 18.448022903137243 ], [ 73.838242309119067, 18.447993967859677 ], [ 73.838272685508016, 18.443475791842506 ], [ 73.828804500864493, 18.44341758226571 ], [ 73.828835115845564, 18.438899419308722 ], [ 73.819367213922774, 18.438840752870099 ], [ 73.819398067349923, 18.434322603096 ], [ 73.814664253378822, 18.434293100570994 ], [ 73.814695221501481, 18.42977495633529 ], [ 73.809961540080735, 18.429745343581459 ], [ 73.809930448353541, 18.434263480050003 ], [ 73.805196652309789, 18.434233741534001 ], [ 73.805165427961882, 18.43875186800544 ], [ 73.809899347644802, 18.438781614319932 ], [ 73.809868237953452, 18.443299746390775 ], [ 73.800400160257283, 18.443240120108094 ], [ 73.800431517297284, 18.438722003665966 ], [ 73.786229839770428, 18.438631702507507 ], [ 73.786198111715649, 18.443149795274497 ], [ 73.795666134974013, 18.443210129883852 ], [ 73.795603146275056, 18.452246340443896 ], [ 73.786134628118276, 18.45218597420342 ], [ 73.786102872573451, 18.456704060364416 ], [ 73.781368503447354, 18.456673692118088 ], [ 73.781336614924754, 18.461191768120955 ], [ 73.77660213118881, 18.461161273744672 ], [ 73.776634143522543, 18.456643205727943 ], [ 73.771899792834716, 18.456612601194994 ], [ 73.77193191970575, 18.452094538991222 ], [ 73.767197702063811, 18.452063824364089 ], [ 73.767165451419615, 18.456581878520229 ], [ 73.762431119312936, 18.456551037704664 ], [ 73.762398735552523, 18.461069081577282 ], [ 73.767133191466982, 18.461099930471832 ], [ 73.767100922204776, 18.465617980218415 ], [ 73.776570109616969, 18.465679339557191 ], [ 73.776538078805899, 18.470197403165042 ], [ 73.80021182782157, 18.470348772537456 ], [ 73.800243239208655, 18.465830669304342 ], [ 73.786039333986054, 18.465740226077148 ], [ 73.786071107863094, 18.461222144322477 ], [ 73.805009170925814, 18.461342467361138 ], [ 73.804977892451674, 18.465860580628728 ], [ 73.819181906186898, 18.465949605334082 ], [ 73.819120065611799, 18.474985871884957 ], [ 73.81438513758296, 18.47495629971635 ], [ 73.814416186256977, 18.470438175281441 ], [ 73.80968139110972, 18.470408492609021 ], [ 73.809650218509702, 18.474926609273247 ], [ 73.795445515380621, 18.474836828306682 ], [ 73.795413961910597, 18.479354919269106 ], [ 73.790678955059576, 18.479324747842877 ], [ 73.790647268496826, 18.483842828705541 ], [ 73.785912146789144, 18.483812531052507 ], [ 73.785848498161883, 18.492848670307673 ], [ 73.79531924689843, 18.49290917892775 ], [ 73.795287657023351, 18.497427261069525 ], [ 73.790552153985374, 18.497397058059697 ], [ 73.790488698614041, 18.506433199929603 ], [ 73.785752956410036, 18.50640286263928 ], [ 73.785721090805382, 18.510920922334311 ], [ 73.790456957215937, 18.510951267553299 ], [ 73.79042520667474, 18.515469332968873 ], [ 73.795161206471818, 18.5154995675687 ], [ 73.795192832769587, 18.51098149425502 ], [ 73.799928717430561, 18.511011602438497 ], [ 73.799897215377328, 18.515529683619295 ], [ 73.814105296386657, 18.515619320465955 ], [ 73.8140430108635, 18.524655523038483 ], [ 73.818779304450089, 18.524685180370096 ], [ 73.818841341368099, 18.515648962309864 ], [ 73.828313458083855, 18.515707890334358 ], [ 73.828251918382605, 18.524744139184197 ], [ 73.823515606968385, 18.524714719085658 ], [ 73.823453783074015, 18.533750943744657 ], [ 73.828190343240848, 18.533780379208583 ], [ 73.828097914058446, 18.547334722689325 ], [ 73.823360980494215, 18.547305264174383 ], [ 73.823391923587351, 18.542787159572928 ], [ 73.818655123424946, 18.542757590001123 ], [ 73.818624055831279, 18.547275686887538 ], [ 73.809150233352597, 18.547216176002053 ], [ 73.809181549944071, 18.542698094638645 ], [ 73.799708012493753, 18.542638124324174 ], [ 73.799739568999399, 18.538120056397112 ], [ 73.780793101166623, 18.537998722607679 ], [ 73.780761046830605, 18.542516758870786 ], [ 73.776024328381467, 18.542486120674806 ], [ 73.775992140332363, 18.547004146731901 ], [ 73.766518482266818, 18.546942498067217 ], [ 73.766486035908869, 18.551460505829837 ], [ 73.747538333950885, 18.551335750854083 ], [ 73.74750538003228, 18.555853723866189 ], [ 73.761716516082743, 18.555947492730521 ], [ 73.761618719116981, 18.569501471819418 ], [ 73.756881290461976, 18.569470309992745 ], [ 73.756848548028955, 18.573988290469554 ], [ 73.752111004082437, 18.57395700157883 ], [ 73.752078127504276, 18.578474971686539 ], [ 73.761553474279253, 18.578537446796354 ], [ 73.761520837798813, 18.583055430958723 ], [ 73.770996471621558, 18.583117446314237 ], [ 73.771028858553294, 18.578599446002766 ], [ 73.780504280039722, 18.578660969297644 ], [ 73.780439996050177, 18.587696999754499 ], [ 73.770964075385606, 18.587635444408516 ], [ 73.770931669844288, 18.592153440285124 ], [ 73.761455536709065, 18.592091392628944 ], [ 73.761488191942462, 18.587573412903076 ], [ 73.756750264268533, 18.587542218593111 ], [ 73.756717484190816, 18.592060190197117 ], [ 73.747241407432256, 18.591997428131112 ], [ 73.747274437195202, 18.587479472863791 ], [ 73.74253653786748, 18.58744792144649 ], [ 73.742602818515053, 18.578412020681515 ], [ 73.733127547598215, 18.578348593789535 ], [ 73.733094162499128, 18.582866528760931 ], [ 73.730608016713191, 18.582849803881548 ], [ 73.738008076884512, 18.594949911786291 ], [ 73.742439034094104, 18.600730963160075 ], [ 73.742470219138241, 18.596483813330885 ], [ 73.747208368183593, 18.596515381178246 ], [ 73.747175319448033, 18.601033332004718 ], [ 73.74264767321921, 18.6010031621054 ], [ 73.754627458375779, 18.614637282424674 ], [ 73.756553442568787, 18.614650014917409 ] ], [ [ 73.822740247916755, 18.637666891679853 ], [ 73.822771369241835, 18.63314883134813 ], [ 73.827510675145362, 18.633178435934482 ], [ 73.827479679038916, 18.63769650395809 ], [ 73.822740247916755, 18.637666891679853 ] ], [ [ 73.846406988074861, 18.642331855398375 ], [ 73.846376475365616, 18.646849949446135 ], [ 73.841636758356913, 18.646820799607902 ], [ 73.841667396360876, 18.64230271312876 ], [ 73.846406988074861, 18.642331855398375 ] ], [ [ 73.808647941956337, 18.619505176905637 ], [ 73.813386845555769, 18.619535116219044 ], [ 73.813355500774492, 18.624053167728626 ], [ 73.808616472067371, 18.624023220631489 ], [ 73.808647941956337, 18.619505176905637 ] ], [ [ 73.813355500774492, 18.624053167728626 ], [ 73.818094538473119, 18.624082995528944 ], [ 73.818063309845002, 18.628601052573885 ], [ 73.813324147001723, 18.628571217020447 ], [ 73.813355500774492, 18.624053167728626 ] ], [ [ 73.903947676996566, 18.538753440937477 ], [ 73.903918858865552, 18.543271674156877 ], [ 73.899181912268958, 18.543244123309378 ], [ 73.899210854882455, 18.538725897277992 ], [ 73.903947676996566, 18.538753440937477 ] ], [ [ 73.923149563211211, 18.498197974396284 ], [ 73.927885307643322, 18.498224861135885 ], [ 73.92785718490741, 18.50274314961333 ], [ 73.923121316309931, 18.50271625584384 ], [ 73.923149563211211, 18.498197974396284 ] ], [ [ 73.918413826917487, 18.498170969206051 ], [ 73.918385455851833, 18.502689243592759 ], [ 73.913649603568871, 18.502662112860968 ], [ 73.91362110012895, 18.507180377958534 ], [ 73.908885131858753, 18.507153121623769 ], [ 73.908856495972984, 18.511671377400059 ], [ 73.904120411717528, 18.511643995400913 ], [ 73.90420666722423, 18.498089242940484 ], [ 73.918413826917487, 18.498170969206051 ] ], [ [ 73.904264129486435, 18.489052730311592 ], [ 73.899528674317366, 18.489025265696107 ], [ 73.899557517081874, 18.484507013270111 ], [ 73.904292848197855, 18.484534470701956 ], [ 73.904264129486435, 18.489052730311592 ] ], [ [ 73.909113922112127, 18.471006996319666 ], [ 73.909085352179886, 18.475525269668026 ], [ 73.904350260786373, 18.475497944894613 ], [ 73.904378954665461, 18.470979678697841 ], [ 73.909113922112127, 18.471006996319666 ] ], [ [ 73.79531924689843, 18.49290917892775 ], [ 73.795350827670603, 18.488391094580106 ], [ 73.809556646757486, 18.488480946047183 ], [ 73.80952543818573, 18.492999053897375 ], [ 73.79531924689843, 18.49290917892775 ] ], [ [ 73.809150233352597, 18.547216176002053 ], [ 73.809118907752392, 18.551734255155189 ], [ 73.804381885475181, 18.551704313750122 ], [ 73.804413335608459, 18.547186242405349 ], [ 73.809150233352597, 18.547216176002053 ] ], [ [ 73.799708012493753, 18.542638124324174 ], [ 73.799676446908862, 18.547156190040656 ], [ 73.794939567289632, 18.547126018908958 ], [ 73.794971257369582, 18.542607961062398 ], [ 73.799708012493753, 18.542638124324174 ] ], [ [ 73.775992140332363, 18.547004146731901 ], [ 73.790202696786551, 18.547095729011236 ], [ 73.790139040181728, 18.556131822266522 ], [ 73.780664828483268, 18.556070854385105 ], [ 73.780696910490036, 18.551552824759963 ], [ 73.775959943023864, 18.551522170575922 ], [ 73.775992140332363, 18.547004146731901 ] ], [ [ 73.761618719116981, 18.569501471819418 ], [ 73.766356157144457, 18.569532514732206 ], [ 73.766323664114537, 18.574050511418438 ], [ 73.761586101384935, 18.57401946041643 ], [ 73.761618719116981, 18.569501471819418 ] ], [ [ 73.780504280039722, 18.578660969297644 ], [ 73.780536408186805, 18.574142950745106 ], [ 73.785274008052596, 18.574173525957505 ], [ 73.785337987279519, 18.565137466276386 ], [ 73.790075346960123, 18.565167906670677 ], [ 73.790107198148576, 18.560649865575225 ], [ 73.794844442348378, 18.56068017917806 ], [ 73.794812715797136, 18.565198228176023 ], [ 73.799550093754746, 18.565228430791418 ], [ 73.799518482757051, 18.569746485448 ], [ 73.808993515242321, 18.569806549655919 ], [ 73.809024876888415, 18.565288479348443 ], [ 73.813762281992823, 18.565318325288093 ], [ 73.813699799077142, 18.57435447924879 ], [ 73.804224499102176, 18.57429463729795 ], [ 73.804192994678573, 18.578812695369049 ], [ 73.808930764906393, 18.578842683632658 ], [ 73.808899376214384, 18.583360747300997 ], [ 73.799423595244363, 18.583300636135622 ], [ 73.799391947896595, 18.587818681935911 ], [ 73.789915953649427, 18.587758078932975 ], [ 73.789884047505808, 18.592276106739174 ], [ 73.785145939256154, 18.592245618735468 ], [ 73.785242004647998, 18.578691552475728 ], [ 73.780504280039722, 18.578660969297644 ] ], [ [ 73.955970889577884, 18.552603509224099 ], [ 73.955943417124104, 18.557121812870481 ], [ 73.951206007595928, 18.557095547853006 ], [ 73.951233604650483, 18.55257725105486 ], [ 73.955970889577884, 18.552603509224099 ] ], [ [ 73.937384687150825, 18.4937599746203 ], [ 73.937412545491952, 18.489241667786317 ], [ 73.946883594292075, 18.489294584413194 ], [ 73.946855984145415, 18.493812905088767 ], [ 73.942120331650955, 18.493786499066118 ], [ 73.94209258941224, 18.498304810642129 ], [ 73.93262106017805, 18.498251629423976 ], [ 73.932649050680794, 18.493733331752189 ], [ 73.937384687150825, 18.4937599746203 ] ], [ [ 73.941870363590454, 18.53445122420171 ], [ 73.946607134574322, 18.53447769238792 ], [ 73.946579444798616, 18.538995991103693 ], [ 73.937105661923795, 18.538942922180738 ], [ 73.937133600609656, 18.53442463731357 ], [ 73.941870363590454, 18.53445122420171 ] ], [ [ 73.918328689194169, 18.511725785774853 ], [ 73.918357076611059, 18.507207515782511 ], [ 73.923093061269299, 18.50723453509481 ], [ 73.923064798088319, 18.511752812148728 ], [ 73.918328689194169, 18.511725785774853 ] ], [ [ 73.91804436512011, 18.556908364738991 ], [ 73.918015887700378, 18.561426610529299 ], [ 73.913278418036612, 18.561399387571075 ], [ 73.913307020085114, 18.556881148877267 ], [ 73.91804436512011, 18.556908364738991 ] ], [ [ 73.913535540533772, 18.520735160062788 ], [ 73.908799199454435, 18.520707882356401 ], [ 73.908827851838552, 18.516189630977756 ], [ 73.913564068612388, 18.516216901559911 ], [ 73.913535540533772, 18.520735160062788 ] ], [ [ 73.908569683272987, 18.556853814163983 ], [ 73.903832354719555, 18.556826360600049 ], [ 73.903861197728062, 18.552308133988618 ], [ 73.908598401690554, 18.552335580394445 ], [ 73.908569683272987, 18.556853814163983 ] ], [ [ 73.894619251158218, 18.516107107803862 ], [ 73.889883067597793, 18.516079362939756 ], [ 73.88991220880105, 18.511561138167274 ], [ 73.880440115422772, 18.511505307323738 ], [ 73.880469496690992, 18.506987094938903 ], [ 73.885205414938468, 18.507015062319507 ], [ 73.885263903740466, 18.497978616331761 ], [ 73.880528233841432, 18.497950663568712 ], [ 73.880498869496861, 18.502468880353735 ], [ 73.875763083902797, 18.502440801808611 ], [ 73.875939887481749, 18.47533151214849 ], [ 73.871204854774007, 18.475303359348349 ], [ 73.87117528476864, 18.479821572419379 ], [ 73.866440136613093, 18.479793293933746 ], [ 73.866499516010336, 18.470756880392727 ], [ 73.871234416252705, 18.4707851440795 ], [ 73.871263969205785, 18.466266926613276 ], [ 73.875998754069784, 18.466295064677219 ], [ 73.875969325020705, 18.470813289511351 ], [ 73.880704242278597, 18.470841316687363 ], [ 73.880557589725697, 18.493432444584283 ], [ 73.885293135504199, 18.493460390039111 ], [ 73.885322358844419, 18.488942161547886 ], [ 73.894793227463495, 18.488997682696397 ], [ 73.894735268776373, 18.498034166526637 ], [ 73.899470963841694, 18.498061763956638 ], [ 73.899326542083571, 18.520652971136084 ], [ 73.894590225863624, 18.520625337623954 ], [ 73.894619251158218, 18.516107107803862 ] ], [ [ 73.88970804409351, 18.543188665347589 ], [ 73.894444973999683, 18.543216453705984 ], [ 73.894415898541595, 18.54773467031546 ], [ 73.889678844119146, 18.547706874706734 ], [ 73.88970804409351, 18.543188665347589 ] ], [ [ 73.889795593627071, 18.529634024052246 ], [ 73.885059045450731, 18.529606138781507 ], [ 73.885088336207531, 18.5250879278918 ], [ 73.88982476001182, 18.525115805882702 ], [ 73.889795593627071, 18.529634024052246 ] ], [ [ 73.857149388094385, 18.452627204364887 ], [ 73.857179278232323, 18.448109000398837 ], [ 73.861913542169006, 18.448137463292536 ], [ 73.861854000816152, 18.457173883946925 ], [ 73.857119489327772, 18.457145406134305 ], [ 73.857149388094385, 18.452627204364887 ] ], [ [ 73.861913542169006, 18.448137463292536 ], [ 73.861943299957034, 18.443619249671436 ], [ 73.866677448762331, 18.443647587038882 ], [ 73.866647814697615, 18.448165808087928 ], [ 73.861913542169006, 18.448137463292536 ] ], [ [ 73.8566399347106, 18.529436335324426 ], [ 73.856669971678002, 18.524918168764245 ], [ 73.861406344361555, 18.524946758516844 ], [ 73.861376431759993, 18.529464932542716 ], [ 73.8566399347106, 18.529436335324426 ] ], [ [ 73.833386000181093, 18.4660375661174 ], [ 73.833355456033431, 18.470555723525962 ], [ 73.83809029559572, 18.470584814971001 ], [ 73.838120715847737, 18.466066649946896 ], [ 73.842855440289128, 18.466095615558988 ], [ 73.842794838838415, 18.475131958576743 ], [ 73.847529819850052, 18.475160821078145 ], [ 73.847469431409124, 18.48419717040472 ], [ 73.842734202423259, 18.484168292794131 ], [ 73.84267353103516, 18.493204618207422 ], [ 73.847409008138243, 18.493233510928722 ], [ 73.847378783438955, 18.497751677888601 ], [ 73.852114393364928, 18.497780459729832 ], [ 73.852084284104066, 18.50229863201303 ], [ 73.842612824665707, 18.502240934812907 ], [ 73.84264318222364, 18.497722777611372 ], [ 73.837907589754721, 18.497693758899096 ], [ 73.837938062677438, 18.49317560708203 ], [ 73.833202603100801, 18.493146477553509 ], [ 73.833233191316793, 18.488628331151581 ], [ 73.828497864630322, 18.4885990908693 ], [ 73.828528568068066, 18.484080949913164 ], [ 73.833263770716968, 18.484110182547397 ], [ 73.833324903074228, 18.475073878734126 ], [ 73.828589948393173, 18.475044661394808 ], [ 73.828651293324924, 18.466008364071467 ], [ 73.833386000181093, 18.4660375661174 ] ], [ [ 73.847529819850052, 18.475160821078145 ], [ 73.847560001011942, 18.47064264311506 ], [ 73.852294866794409, 18.470671379812195 ], [ 73.852264809567075, 18.475189565298347 ], [ 73.847529819850052, 18.475160821078145 ] ], [ [ 73.837907589754721, 18.497693758899096 ], [ 73.837877108049824, 18.502211908513353 ], [ 73.833141400217173, 18.502182763748728 ], [ 73.833172006067954, 18.497664621752712 ], [ 73.837907589754721, 18.497693758899096 ] ], [ [ 73.832988238656952, 18.524773440664752 ], [ 73.83301888861341, 18.520255309691642 ], [ 73.837755093387315, 18.520284484933079 ], [ 73.837724567755629, 18.524802623526359 ], [ 73.832988238656952, 18.524773440664752 ] ], [ [ 73.800306034802205, 18.456794456230583 ], [ 73.800368794162154, 18.447758234349873 ], [ 73.805102952210035, 18.447788114349404 ], [ 73.805071700803907, 18.452306234221012 ], [ 73.809805991618575, 18.452336003933354 ], [ 73.809774854972886, 18.45685412940416 ], [ 73.800306034802205, 18.456794456230583 ] ], [ [ 73.789756331289254, 18.61034819579432 ], [ 73.789788274091919, 18.605830176856912 ], [ 73.794526766276448, 18.605860569502909 ], [ 73.794494948469421, 18.610378596346845 ], [ 73.789756331289254, 18.61034819579432 ] ], [ [ 73.794494948469421, 18.610378596346845 ], [ 73.799233574781269, 18.610408877699516 ], [ 73.799201872875173, 18.614926910201426 ], [ 73.794463121530697, 18.614896620972821 ], [ 73.794494948469421, 18.610378596346845 ] ], [ [ 73.789660447871427, 18.623902239294495 ], [ 73.79913844177112, 18.623962968550703 ], [ 73.799106712570932, 18.628480994397147 ], [ 73.789628468391854, 18.62842024935566 ], [ 73.789660447871427, 18.623902239294495 ] ], [ [ 73.780246922437541, 18.61480503790586 ], [ 73.789724379319026, 18.614866212513359 ], [ 73.789692418180124, 18.619384227013573 ], [ 73.780214711167218, 18.6193230364984 ], [ 73.780246922437541, 18.61480503790586 ] ], [ [ 73.780214711167218, 18.6193230364984 ], [ 73.780182490655349, 18.623841032870835 ], [ 73.775443525893365, 18.623810250723714 ], [ 73.775475871505137, 18.619292262352023 ], [ 73.780214711167218, 18.6193230364984 ] ] ], [ [ [ 73.756553442568787, 18.614650014917409 ], [ 73.756540097613566, 18.616486293091313 ], [ 73.761249174664101, 18.620612384777601 ], [ 73.761292119846487, 18.614681257964719 ], [ 73.756553442568787, 18.614650014917409 ] ] ], [ [ [ 73.827758324191493, 18.597033811954518 ], [ 73.823020018745183, 18.597004268889133 ], [ 73.82295790987034, 18.606040422798262 ], [ 73.827696465215723, 18.606069981241532 ], [ 73.827758324191493, 18.597033811954518 ] ] ], [ [ [ 73.828005405086529, 18.56088904629188 ], [ 73.82803625027779, 18.556370940633819 ], [ 73.823299067602917, 18.556341466749583 ], [ 73.823268097802583, 18.560859564722417 ], [ 73.828005405086529, 18.56088904629188 ] ] ], [ [ [ 73.837571807747636, 18.547393283399657 ], [ 73.837510642194715, 18.556429531896853 ], [ 73.842247851365116, 18.556458649273729 ], [ 73.842278313962609, 18.551940518537418 ], [ 73.847015407315695, 18.551969509515679 ], [ 73.84704573661233, 18.547451369010858 ], [ 73.837571807747636, 18.547393283399657 ] ] ], [ [ [ 73.866023521262719, 18.543047942262724 ], [ 73.865993698722406, 18.547566114905464 ], [ 73.870730710786972, 18.547594504430336 ], [ 73.870760408816167, 18.543076324382344 ], [ 73.866023521262719, 18.543047942262724 ] ] ], [ [ [ 73.898979080753378, 18.574871643831532 ], [ 73.884765673972254, 18.574788126477021 ], [ 73.884883123809146, 18.556715357855744 ], [ 73.880145837086502, 18.556687310052094 ], [ 73.880086879768584, 18.565723684147486 ], [ 73.875349352242438, 18.565695502809458 ], [ 73.875290111601316, 18.574731853388787 ], [ 73.870552343168299, 18.574703538391862 ], [ 73.87049281891106, 18.583739865386452 ], [ 73.884706898406449, 18.58382449754809 ], [ 73.884677497958123, 18.588342679772108 ], [ 73.88941566623005, 18.588370659714407 ], [ 73.889386382210319, 18.59288884701515 ], [ 73.89412468376598, 18.592916715147496 ], [ 73.894066340351856, 18.601953097632528 ], [ 73.908282044703782, 18.60203603060604 ], [ 73.908224417797328, 18.611072447415157 ], [ 73.917702095454146, 18.611127168725815 ], [ 73.917759222341871, 18.602090723453518 ], [ 73.92249782347433, 18.602117891134093 ], [ 73.922469389117708, 18.606636121943136 ], [ 73.936685616309092, 18.606716931022845 ], [ 73.936741727027396, 18.597680425156476 ], [ 73.946218752254921, 18.597733674175359 ], [ 73.946246545692887, 18.593215404076346 ], [ 73.932031394673842, 18.593135372678315 ], [ 73.932059554785781, 18.588617121207328 ], [ 73.922583077581365, 18.588563185468271 ], [ 73.922526249669815, 18.597599658118288 ], [ 73.913049305505638, 18.59754521776323 ], [ 73.913106633009548, 18.588508773448041 ], [ 73.898892027965431, 18.588426262406163 ], [ 73.898979080753378, 18.574871643831532 ] ] ], [ [ [ 73.880145837086502, 18.556687310052094 ], [ 73.880175303034505, 18.552169119696021 ], [ 73.870701004214581, 18.552112682273066 ], [ 73.870671289097942, 18.556630857910104 ], [ 73.880145837086502, 18.556687310052094 ] ] ], [ [ [ 73.908224417797328, 18.611072447415157 ], [ 73.903485591357096, 18.611044907925454 ], [ 73.903456640441249, 18.615563105854246 ], [ 73.908195591938465, 18.615590652506803 ], [ 73.908224417797328, 18.611072447415157 ] ] ], [ [ [ 73.922583077581365, 18.588563185468271 ], [ 73.92261147929942, 18.584044945834972 ], [ 73.913135284416214, 18.583990547981081 ], [ 73.913106633009548, 18.588508773448041 ], [ 73.922583077581365, 18.588563185468271 ] ] ], [ [ [ 73.917930406308997, 18.574981334680629 ], [ 73.917901896131156, 18.579499571656328 ], [ 73.922639872860316, 18.579526703996763 ], [ 73.922668258265062, 18.575008459954109 ], [ 73.917930406308997, 18.574981334680629 ] ] ], [ [ [ 73.895082520002575, 18.443815131777271 ], [ 73.895140278387586, 18.434778595265819 ], [ 73.890406326138759, 18.434750980805333 ], [ 73.890348320401998, 18.443787502833342 ], [ 73.895082520002575, 18.443815131777271 ] ] ], [ [ [ 73.786198111715649, 18.443149795274497 ], [ 73.781464113811964, 18.443119450891352 ], [ 73.781400382768695, 18.452155613911888 ], [ 73.786134628118276, 18.45218597420342 ], [ 73.786198111715649, 18.443149795274497 ] ] ], [ [ [ 73.785721090805382, 18.510920922334311 ], [ 73.780985233573688, 18.510890458599061 ], [ 73.781017223383785, 18.506372406863655 ], [ 73.77628149957107, 18.506341832603727 ], [ 73.776249385556639, 18.510859876348544 ], [ 73.766777717309552, 18.510798356305717 ], [ 73.766745345567912, 18.515316381766329 ], [ 73.771481299286208, 18.515347209097289 ], [ 73.771449042495107, 18.519865240400609 ], [ 73.761976895835474, 18.519803451057847 ], [ 73.76194438113825, 18.524321464012054 ], [ 73.776152988006459, 18.524413994325133 ], [ 73.776120836983665, 18.528932029229818 ], [ 73.780857182175765, 18.528962643446739 ], [ 73.780953234548974, 18.515408508125542 ], [ 73.785689216021851, 18.515438979820825 ], [ 73.785721090805382, 18.510920922334311 ] ] ], [ [ [ 73.766777717309552, 18.510798356305717 ], [ 73.766810079729254, 18.506280328634961 ], [ 73.76207438377169, 18.506249398928148 ], [ 73.76204189715105, 18.510767418515432 ], [ 73.766777717309552, 18.510798356305717 ] ] ], [ [ [ 73.809181549944071, 18.542698094638645 ], [ 73.813918332198597, 18.542727901689371 ], [ 73.813949515319862, 18.53820981033958 ], [ 73.809212857527882, 18.538180011065453 ], [ 73.809181549944071, 18.542698094638645 ] ] ], [ [ [ 73.799739568999399, 18.538120056397112 ], [ 73.804476208742471, 18.538150093084308 ], [ 73.804507631745395, 18.533632015108964 ], [ 73.799771116426882, 18.533601986259928 ], [ 73.799739568999399, 18.538120056397112 ] ] ], [ [ [ 73.790075346960123, 18.565167906670677 ], [ 73.790011617112867, 18.574203982219991 ], [ 73.794749235331778, 18.574234319531552 ], [ 73.794812715797136, 18.565198228176023 ], [ 73.790075346960123, 18.565167906670677 ] ] ], [ [ [ 73.865993698722406, 18.547566114905464 ], [ 73.861256695236833, 18.547537606600152 ], [ 73.861226739571592, 18.552055769600663 ], [ 73.865963867603057, 18.552084285342584 ], [ 73.865993698722406, 18.547566114905464 ] ] ] ] } }
]
}
