{
"type": "FeatureCollection",
"name": "pune_city_extent",
"crs": { "type": "name", "properties": { "name": "urn:ogc:def:crs:EPSG::32643" } },
"features": [
{ "type": "Feature", "properties": { "city": "Pune", "component_id": 0, "selected_component_ids": "0,2,9,11,39,53,56,58,61,67,85,86,87,92,93,114,135,155,160,164,208,231,234,264,283,291,299,300,374,380", "selection_method": "nearest city-centre component + components within 1 km", "combine_distance_km": 1.0, "extent_cells": 3201, "extent_area_km2": 800.25, "distance_to_city_center_km": 7.4227219080031892 }, "geometry": { "type": "MultiPolygon", "coordinates": [ [ [ [ 358500.0, 2046000.0 ], [ 358500.0, 2046500.0 ], [ 358500.0, 2047000.0 ], [ 359000.0, 2047000.0 ], [ 359000.0, 2047500.0 ], [ 359000.0, 2048000.0 ], [ 359500.0, 2048000.0 ], [ 359500.0, 2048500.0 ], [ 359500.0, 2049000.0 ], [ 359500.0, 2049500.0 ], [ 359500.0, 2050000.0 ], [ 360000.0, 2050000.0 ], [ 360000.0, 2049500.0 ], [ 360000.0, 2049000.0 ], [ 360500.0, 2049000.0 ], [ 360500.0, 2048500.0 ], [ 360500.0, 2048000.0 ], [ 361000.0, 2048000.0 ], [ 361500.0, 2048000.0 ], [ 361500.0, 2047500.0 ], [ 361500.0, 2047000.0 ], [ 361000.0, 2047000.0 ], [ 361000.0, 2046500.0 ], [ 361000.0, 2046000.0 ], [ 360500.0, 2046000.0 ], [ 360500.0, 2045500.0 ], [ 360000.0, 2045500.0 ], [ 360000.0, 2045000.0 ], [ 360500.0, 2045000.0 ], [ 361000.0, 2045000.0 ], [ 361500.0, 2045000.0 ], [ 361500.0, 2045500.0 ], [ 361500.0, 2046000.0 ], [ 362000.0, 2046000.0 ], [ 362000.0, 2045500.0 ], [ 362500.0, 2045500.0 ], [ 362500.0, 2045000.0 ], [ 363000.0, 2045000.0 ], [ 363000.0, 2044500.0 ], [ 362500.0, 2044500.0 ], [ 362500.0, 2044000.0 ], [ 362000.0, 2044000.0 ], [ 361500.0, 2044000.0 ], [ 361000.0, 2044000.0 ], [ 361000.0, 2044500.0 ], [ 360500.0, 2044500.0 ], [ 360500.0, 2044000.0 ], [ 360500.0, 2043500.0 ], [ 360000.0, 2043500.0 ], [ 360000.0, 2044000.0 ], [ 359500.0, 2044000.0 ], [ 359000.0, 2044000.0 ], [ 359000.0, 2043500.0 ], [ 358500.0, 2043500.0 ], [ 358500.0, 2043000.0 ], [ 358000.0, 2043000.0 ], [ 358000.0, 2043500.0 ], [ 358000.0, 2044000.0 ], [ 358000.0, 2044500.0 ], [ 358500.0, 2044500.0 ], [ 358500.0, 2045000.0 ], [ 358500.0, 2045500.0 ], [ 359000.0, 2045500.0 ], [ 359000.0, 2046000.0 ], [ 358500.0, 2046000.0 ] ], [ [ 360000.0, 2048000.0 ], [ 360000.0, 2047500.0 ], [ 360000.0, 2047000.0 ], [ 360500.0, 2047000.0 ], [ 360500.0, 2047500.0 ], [ 360500.0, 2048000.0 ], [ 360000.0, 2048000.0 ] ], [ [ 359500.0, 2047000.0 ], [ 359500.0, 2046500.0 ], [ 360000.0, 2046500.0 ], [ 360000.0, 2047000.0 ], [ 359500.0, 2047000.0 ] ] ], [ [ [ 361500.0, 2047000.0 ], [ 362000.0, 2047000.0 ], [ 362000.0, 2047500.0 ], [ 362500.0, 2047500.0 ], [ 363000.0, 2047500.0 ], [ 363000.0, 2047000.0 ], [ 363500.0, 2047000.0 ], [ 363500.0, 2046500.0 ], [ 364000.0, 2046500.0 ], [ 364000.0, 2046000.0 ], [ 363500.0, 2046000.0 ], [ 363500.0, 2045500.0 ], [ 364000.0, 2045500.0 ], [ 364000.0, 2045000.0 ], [ 363500.0, 2045000.0 ], [ 363000.0, 2045000.0 ], [ 363000.0, 2045500.0 ], [ 362500.0, 2045500.0 ], [ 362500.0, 2046000.0 ], [ 362500.0, 2046500.0 ], [ 362000.0, 2046500.0 ], [ 361500.0, 2046500.0 ], [ 361500.0, 2047000.0 ] ] ], [ [ [ 360500.0, 2051000.0 ], [ 360500.0, 2050500.0 ], [ 361000.0, 2050500.0 ], [ 361000.0, 2050000.0 ], [ 360500.0, 2050000.0 ], [ 360000.0, 2050000.0 ], [ 360000.0, 2050500.0 ], [ 359500.0, 2050500.0 ], [ 359500.0, 2051000.0 ], [ 359000.0, 2051000.0 ], [ 359000.0, 2051500.0 ], [ 359500.0, 2051500.0 ], [ 360000.0, 2051500.0 ], [ 360500.0, 2051500.0 ], [ 360500.0, 2051000.0 ] ] ], [ [ [ 362500.0, 2053500.0 ], [ 362000.0, 2053500.0 ], [ 361500.0, 2053500.0 ], [ 361500.0, 2054000.0 ], [ 361000.0, 2054000.0 ], [ 360500.0, 2054000.0 ], [ 360500.0, 2054500.0 ], [ 360500.0, 2055000.0 ], [ 360500.0, 2055500.0 ], [ 360000.0, 2055500.0 ], [ 360000.0, 2056000.0 ], [ 360500.0, 2056000.0 ], [ 360500.0, 2056500.0 ], [ 361000.0, 2056500.0 ], [ 361500.0, 2056500.0 ], [ 361500.0, 2057000.0 ], [ 361500.0, 2057500.0 ], [ 361500.0, 2058000.0 ], [ 362000.0, 2058000.0 ], [ 362000.0, 2057500.0 ], [ 362000.0, 2057000.0 ], [ 362500.0, 2057000.0 ], [ 363000.0, 2057000.0 ], [ 363000.0, 2057500.0 ], [ 363500.0, 2057500.0 ], [ 364000.0, 2057500.0 ], [ 364000.0, 2058000.0 ], [ 364000.0, 2058500.0 ], [ 363500.0, 2058500.0 ], [ 363000.0, 2058500.0 ], [ 363000.0, 2059000.0 ], [ 363500.0, 2059000.0 ], [ 363500.0, 2059500.0 ], [ 363000.0, 2059500.0 ], [ 363000.0, 2060000.0 ], [ 363500.0, 2060000.0 ], [ 363500.0, 2060500.0 ], [ 364000.0, 2060500.0 ], [ 364000.0, 2061000.0 ], [ 364000.0, 2061500.0 ], [ 364500.0, 2061500.0 ], [ 364500.0, 2062000.0 ], [ 364000.0, 2062000.0 ], [ 364000.0, 2062500.0 ], [ 364500.0, 2062500.0 ], [ 365000.0, 2062500.0 ], [ 365000.0, 2063000.0 ], [ 364500.0, 2063000.0 ], [ 364500.0, 2063500.0 ], [ 364500.0, 2064000.0 ], [ 364000.0, 2064000.0 ], [ 364000.0, 2063500.0 ], [ 363500.0, 2063500.0 ], [ 363000.0, 2063500.0 ], [ 363000.0, 2064000.0 ], [ 363000.0, 2064500.0 ], [ 362500.0, 2064500.0 ], [ 362500.0, 2065000.0 ], [ 362000.0, 2065000.0 ], [ 361500.0, 2065000.0 ], [ 361500.0, 2065500.0 ], [ 361000.0, 2065500.0 ], [ 360500.0, 2065500.0 ], [ 360500.0, 2066000.0 ], [ 361000.0, 2066000.0 ], [ 361000.0, 2066500.0 ], [ 361500.0, 2066500.0 ], [ 362000.0, 2066500.0 ], [ 362500.0, 2066500.0 ], [ 362500.0, 2066000.0 ], [ 362500.0, 2065500.0 ], [ 363000.0, 2065500.0 ], [ 363000.0, 2065000.0 ], [ 363500.0, 2065000.0 ], [ 363500.0, 2065500.0 ], [ 363500.0, 2066000.0 ], [ 363500.0, 2066500.0 ], [ 364000.0, 2066500.0 ], [ 364500.0, 2066500.0 ], [ 365000.0, 2066500.0 ], [ 365000.0, 2067000.0 ], [ 365500.0, 2067000.0 ], [ 366000.0, 2067000.0 ], [ 366000.0, 2066500.0 ], [ 366500.0, 2066500.0 ], [ 367000.0, 2066500.0 ], [ 367000.0, 2066000.0 ], [ 367500.0, 2066000.0 ], [ 367500.0, 2066500.0 ], [ 368000.0, 2066500.0 ], [ 368500.0, 2066500.0 ], [ 368500.0, 2066000.0 ], [ 369000.0, 2066000.0 ], [ 369000.0, 2066500.0 ], [ 369500.0, 2066500.0 ], [ 369500.0, 2066000.0 ], [ 370000.0, 2066000.0 ], [ 370000.0, 2065500.0 ], [ 369500.0, 2065500.0 ], [ 369500.0, 2065000.0 ], [ 369500.0, 2064500.0 ], [ 370000.0, 2064500.0 ], [ 370500.0, 2064500.0 ], [ 370500.0, 2065000.0 ], [ 371000.0, 2065000.0 ], [ 371000.0, 2065500.0 ], [ 371000.0, 2066000.0 ], [ 371500.0, 2066000.0 ], [ 371500.0, 2066500.0 ], [ 371000.0, 2066500.0 ], [ 371000.0, 2067000.0 ], [ 371500.0, 2067000.0 ], [ 372000.0, 2067000.0 ], [ 372000.0, 2066500.0 ], [ 372500.0, 2066500.0 ], [ 372500.0, 2067000.0 ], [ 372500.0, 2067500.0 ], [ 372000.0, 2067500.0 ], [ 372000.0, 2068000.0 ], [ 371500.0, 2068000.0 ], [ 371500.0, 2068500.0 ], [ 371000.0, 2068500.0 ], [ 371000.0, 2069000.0 ], [ 370500.0, 2069000.0 ], [ 370500.0, 2069500.0 ], [ 371000.0, 2069500.0 ], [ 371000.0, 2070000.0 ], [ 371500.0, 2070000.0 ], [ 371500.0, 2069500.0 ], [ 372000.0, 2069500.0 ], [ 372000.0, 2070000.0 ], [ 372500.0, 2070000.0 ], [ 372500.0, 2070500.0 ], [ 373000.0, 2070500.0 ], [ 373000.0, 2071000.0 ], [ 373000.0, 2071500.0 ], [ 373000.0, 2072000.0 ], [ 372500.0, 2072000.0 ], [ 372000.0, 2072000.0 ], [ 371500.0, 2072000.0 ], [ 371500.0, 2072500.0 ], [ 371500.0, 2073000.0 ], [ 371500.0, 2073500.0 ], [ 371000.0, 2073500.0 ], [ 370500.0, 2073500.0 ], [ 370500.0, 2074000.0 ], [ 370500.0, 2074500.0 ], [ 370000.0, 2074500.0 ], [ 369500.0, 2074500.0 ], [ 369500.0, 2075000.0 ], [ 369500.0, 2075500.0 ], [ 369000.0, 2075500.0 ], [ 369000.0, 2075000.0 ], [ 369000.0, 2074500.0 ], [ 368500.0, 2074500.0 ], [ 368500.0, 2075000.0 ], [ 368500.0, 2075500.0 ], [ 368500.0, 2076000.0 ], [ 368000.0, 2076000.0 ], [ 368000.0, 2076500.0 ], [ 367500.0, 2076500.0 ], [ 367500.0, 2077000.0 ], [ 367000.0, 2077000.0 ], [ 367000.0, 2077500.0 ], [ 367500.0, 2077500.0 ], [ 368000.0, 2077500.0 ], [ 368000.0, 2078000.0 ], [ 367500.0, 2078000.0 ], [ 367500.0, 2078500.0 ], [ 368000.0, 2078500.0 ], [ 368000.0, 2079000.0 ], [ 368500.0, 2079000.0 ], [ 369000.0, 2079000.0 ], [ 369000.0, 2078500.0 ], [ 369500.0, 2078500.0 ], [ 369500.0, 2079000.0 ], [ 369500.0, 2079500.0 ], [ 369500.0, 2080000.0 ], [ 370000.0, 2080000.0 ], [ 370500.0, 2080000.0 ], [ 371000.0, 2080000.0 ], [ 371500.0, 2080000.0 ], [ 372000.0, 2080000.0 ], [ 372000.0, 2079500.0 ], [ 372500.0, 2079500.0 ], [ 372500.0, 2080000.0 ], [ 373000.0, 2080000.0 ], [ 373000.0, 2079500.0 ], [ 373500.0, 2079500.0 ], [ 373500.0, 2080000.0 ], [ 373500.0, 2080500.0 ], [ 374000.0, 2080500.0 ], [ 374000.0, 2080000.0 ], [ 374000.0, 2079500.0 ], [ 374500.0, 2079500.0 ], [ 374500.0, 2079000.0 ], [ 375000.0, 2079000.0 ], [ 375000.0, 2078500.0 ], [ 375000.0, 2078000.0 ], [ 375000.0, 2077500.0 ], [ 375500.0, 2077500.0 ], [ 376000.0, 2077500.0 ], [ 376500.0, 2077500.0 ], [ 377000.0, 2077500.0 ], [ 377000.0, 2077000.0 ], [ 377500.0, 2077000.0 ], [ 377500.0, 2076500.0 ], [ 378000.0, 2076500.0 ], [ 378000.0, 2076000.0 ], [ 378500.0, 2076000.0 ], [ 378500.0, 2076500.0 ], [ 379000.0, 2076500.0 ], [ 379000.0, 2076000.0 ], [ 379500.0, 2076000.0 ], [ 380000.0, 2076000.0 ], [ 380000.0, 2076500.0 ], [ 380500.0, 2076500.0 ], [ 381000.0, 2076500.0 ], [ 381500.0, 2076500.0 ], [ 381500.0, 2076000.0 ], [ 381500.0, 2075500.0 ], [ 381500.0, 2075000.0 ], [ 381000.0, 2075000.0 ], [ 381000.0, 2074500.0 ], [ 381000.0, 2074000.0 ], [ 381500.0, 2074000.0 ], [ 381500.0, 2073500.0 ], [ 382000.0, 2073500.0 ], [ 382000.0, 2073000.0 ], [ 382000.0, 2072500.0 ], [ 381500.0, 2072500.0 ], [ 381500.0, 2073000.0 ], [ 381000.0, 2073000.0 ], [ 381000.0, 2072500.0 ], [ 380500.0, 2072500.0 ], [ 380500.0, 2072000.0 ], [ 380000.0, 2072000.0 ], [ 380000.0, 2072500.0 ], [ 379500.0, 2072500.0 ], [ 379500.0, 2073000.0 ], [ 379500.0, 2073500.0 ], [ 379000.0, 2073500.0 ], [ 379000.0, 2074000.0 ], [ 378500.0, 2074000.0 ], [ 378000.0, 2074000.0 ], [ 378000.0, 2073500.0 ], [ 378000.0, 2073000.0 ], [ 378000.0, 2072500.0 ], [ 378000.0, 2072000.0 ], [ 378500.0, 2072000.0 ], [ 378500.0, 2071500.0 ], [ 378500.0, 2071000.0 ], [ 378000.0, 2071000.0 ], [ 377500.0, 2071000.0 ], [ 377500.0, 2071500.0 ], [ 377000.0, 2071500.0 ], [ 376500.0, 2071500.0 ], [ 376500.0, 2072000.0 ], [ 376500.0, 2072500.0 ], [ 376000.0, 2072500.0 ], [ 376000.0, 2072000.0 ], [ 375500.0, 2072000.0 ], [ 375500.0, 2071500.0 ], [ 376000.0, 2071500.0 ], [ 376000.0, 2071000.0 ], [ 376500.0, 2071000.0 ], [ 376500.0, 2070500.0 ], [ 376500.0, 2070000.0 ], [ 376500.0, 2069500.0 ], [ 376000.0, 2069500.0 ], [ 376000.0, 2069000.0 ], [ 376500.0, 2069000.0 ], [ 376500.0, 2068500.0 ], [ 376500.0, 2068000.0 ], [ 377000.0, 2068000.0 ], [ 377500.0, 2068000.0 ], [ 377500.0, 2067500.0 ], [ 377000.0, 2067500.0 ], [ 377000.0, 2067000.0 ], [ 377500.0, 2067000.0 ], [ 377500.0, 2066500.0 ], [ 378000.0, 2066500.0 ], [ 378000.0, 2067000.0 ], [ 378500.0, 2067000.0 ], [ 379000.0, 2067000.0 ], [ 379000.0, 2066500.0 ], [ 379500.0, 2066500.0 ], [ 379500.0, 2066000.0 ], [ 380000.0, 2066000.0 ], [ 380500.0, 2066000.0 ], [ 380500.0, 2066500.0 ], [ 381000.0, 2066500.0 ], [ 381500.0, 2066500.0 ], [ 382000.0, 2066500.0 ], [ 382000.0, 2066000.0 ], [ 382000.0, 2065500.0 ], [ 382500.0, 2065500.0 ], [ 382500.0, 2066000.0 ], [ 382500.0, 2066500.0 ], [ 382500.0, 2067000.0 ], [ 383000.0, 2067000.0 ], [ 383000.0, 2066500.0 ], [ 383500.0, 2066500.0 ], [ 384000.0, 2066500.0 ], [ 384000.0, 2067000.0 ], [ 384500.0, 2067000.0 ], [ 385000.0, 2067000.0 ], [ 385500.0, 2067000.0 ], [ 386000.0, 2067000.0 ], [ 386000.0, 2066500.0 ], [ 385500.0, 2066500.0 ], [ 385500.0, 2066000.0 ], [ 385500.0, 2065500.0 ], [ 386000.0, 2065500.0 ], [ 386000.0, 2065000.0 ], [ 386000.0, 2064500.0 ], [ 385500.0, 2064500.0 ], [ 385000.0, 2064500.0 ], [ 385000.0, 2064000.0 ], [ 385000.0, 2063500.0 ], [ 385500.0, 2063500.0 ], [ 385500.0, 2063000.0 ], [ 385500.0, 2062500.0 ], [ 386000.0, 2062500.0 ], [ 386500.0, 2062500.0 ], [ 386500.0, 2062000.0 ], [ 386000.0, 2062000.0 ], [ 385500.0, 2062000.0 ], [ 385000.0, 2062000.0 ], [ 384500.0, 2062000.0 ], [ 384000.0, 2062000.0 ], [ 383500.0, 2062000.0 ], [ 383000.0, 2062000.0 ], [ 382500.0, 2062000.0 ], [ 382500.0, 2061500.0 ], [ 382000.0, 2061500.0 ], [ 382000.0, 2061000.0 ], [ 381500.0, 2061000.0 ], [ 381500.0, 2060500.0 ], [ 381500.0, 2060000.0 ], [ 381500.0, 2059500.0 ], [ 382000.0, 2059500.0 ], [ 382000.0, 2059000.0 ], [ 382000.0, 2058500.0 ], [ 382000.0, 2058000.0 ], [ 381500.0, 2058000.0 ], [ 381500.0, 2057500.0 ], [ 381500.0, 2057000.0 ], [ 381500.0, 2056500.0 ], [ 382000.0, 2056500.0 ], [ 382500.0, 2056500.0 ], [ 382500.0, 2056000.0 ], [ 383000.0, 2056000.0 ], [ 383000.0, 2056500.0 ], [ 383000.0, 2057000.0 ], [ 383500.0, 2057000.0 ], [ 383500.0, 2057500.0 ], [ 383500.0, 2058000.0 ], [ 383500.0, 2058500.0 ], [ 384000.0, 2058500.0 ], [ 384000.0, 2059000.0 ], [ 384000.0, 2059500.0 ], [ 384500.0, 2059500.0 ], [ 385000.0, 2059500.0 ], [ 385000.0, 2060000.0 ], [ 385500.0, 2060000.0 ], [ 386000.0, 2060000.0 ], [ 386000.0, 2059500.0 ], [ 386500.0, 2059500.0 ], [ 386500.0, 2060000.0 ], [ 387000.0, 2060000.0 ], [ 387500.0, 2060000.0 ], [ 387500.0, 2059500.0 ], [ 387000.0, 2059500.0 ], [ 387000.0, 2059000.0 ], [ 387000.0, 2058500.0 ], [ 387500.0, 2058500.0 ], [ 388000.0, 2058500.0 ], [ 388000.0, 2059000.0 ], [ 388500.0, 2059000.0 ], [ 388500.0, 2058500.0 ], [ 389000.0, 2058500.0 ], [ 389000.0, 2058000.0 ], [ 389000.0, 2057500.0 ], [ 389500.0, 2057500.0 ], [ 390000.0, 2057500.0 ], [ 390500.0, 2057500.0 ], [ 391000.0, 2057500.0 ], [ 391000.0, 2057000.0 ], [ 391000.0, 2056500.0 ], [ 391500.0, 2056500.0 ], [ 391500.0, 2056000.0 ], [ 392000.0, 2056000.0 ], [ 392500.0, 2056000.0 ], [ 393000.0, 2056000.0 ], [ 393000.0, 2056500.0 ], [ 393000.0, 2057000.0 ], [ 393500.0, 2057000.0 ], [ 393500.0, 2057500.0 ], [ 393500.0, 2058000.0 ], [ 394000.0, 2058000.0 ], [ 394000.0, 2057500.0 ], [ 394500.0, 2057500.0 ], [ 394500.0, 2057000.0 ], [ 395000.0, 2057000.0 ], [ 395000.0, 2057500.0 ], [ 395000.0, 2058000.0 ], [ 395500.0, 2058000.0 ], [ 396000.0, 2058000.0 ], [ 396500.0, 2058000.0 ], [ 396500.0, 2057500.0 ], [ 396500.0, 2057000.0 ], [ 396000.0, 2057000.0 ], [ 396000.0, 2056500.0 ], [ 396000.0, 2056000.0 ], [ 396000.0, 2055500.0 ], [ 396000.0, 2055000.0 ], [ 396500.0, 2055000.0 ], [ 396500.0, 2054500.0 ], [ 397000.0, 2054500.0 ], [ 397000.0, 2054000.0 ], [ 397000.0, 2053500.0 ], [ 397000.0, 2053000.0 ], [ 397000.0, 2052500.0 ], [ 397000.0, 2052000.0 ], [ 396500.0, 2052000.0 ], [ 396500.0, 2052500.0 ], [ 396500.0, 2053000.0 ], [ 396500.0, 2053500.0 ], [ 396000.0, 2053500.0 ], [ 395500.0, 2053500.0 ], [ 395000.0, 2053500.0 ], [ 395000.0, 2053000.0 ], [ 394500.0, 2053000.0 ], [ 394000.0, 2053000.0 ], [ 394000.0, 2052500.0 ], [ 393500.0, 2052500.0 ], [ 393500.0, 2052000.0 ], [ 393000.0, 2052000.0 ], [ 392500.0, 2052000.0 ], [ 392500.0, 2051500.0 ], [ 392500.0, 2051000.0 ], [ 392000.0, 2051000.0 ], [ 391500.0, 2051000.0 ], [ 391000.0, 2051000.0 ], [ 391000.0, 2050500.0 ], [ 390500.0, 2050500.0 ], [ 390500.0, 2051000.0 ], [ 390000.0, 2051000.0 ], [ 390000.0, 2050500.0 ], [ 390000.0, 2050000.0 ], [ 390500.0, 2050000.0 ], [ 390500.0, 2049500.0 ], [ 391000.0, 2049500.0 ], [ 391000.0, 2049000.0 ], [ 391500.0, 2049000.0 ], [ 392000.0, 2049000.0 ], [ 392500.0, 2049000.0 ], [ 393000.0, 2049000.0 ], [ 393000.0, 2048500.0 ], [ 393000.0, 2048000.0 ], [ 392500.0, 2048000.0 ], [ 392500.0, 2047500.0 ], [ 392000.0, 2047500.0 ], [ 392000.0, 2047000.0 ], [ 391500.0, 2047000.0 ], [ 391500.0, 2046500.0 ], [ 392000.0, 2046500.0 ], [ 392500.0, 2046500.0 ], [ 392500.0, 2046000.0 ], [ 393000.0, 2046000.0 ], [ 393000.0, 2045500.0 ], [ 392500.0, 2045500.0 ], [ 392500.0, 2045000.0 ], [ 392000.0, 2045000.0 ], [ 392000.0, 2044500.0 ], [ 392000.0, 2044000.0 ], [ 392500.0, 2044000.0 ], [ 392500.0, 2043500.0 ], [ 392500.0, 2043000.0 ], [ 392500.0, 2042500.0 ], [ 392500.0, 2042000.0 ], [ 392500.0, 2041500.0 ], [ 392500.0, 2041000.0 ], [ 392000.0, 2041000.0 ], [ 392000.0, 2040500.0 ], [ 392000.0, 2040000.0 ], [ 392000.0, 2039500.0 ], [ 392500.0, 2039500.0 ], [ 392500.0, 2039000.0 ], [ 392500.0, 2038500.0 ], [ 393000.0, 2038500.0 ], [ 393000.0, 2038000.0 ], [ 393500.0, 2038000.0 ], [ 393500.0, 2037500.0 ], [ 393000.0, 2037500.0 ], [ 393000.0, 2037000.0 ], [ 393000.0, 2036500.0 ], [ 392500.0, 2036500.0 ], [ 392500.0, 2037000.0 ], [ 392000.0, 2037000.0 ], [ 392000.0, 2037500.0 ], [ 391500.0, 2037500.0 ], [ 391500.0, 2038000.0 ], [ 391000.0, 2038000.0 ], [ 391000.0, 2038500.0 ], [ 391000.0, 2039000.0 ], [ 390500.0, 2039000.0 ], [ 390500.0, 2039500.0 ], [ 390500.0, 2040000.0 ], [ 390500.0, 2040500.0 ], [ 390000.0, 2040500.0 ], [ 390000.0, 2041000.0 ], [ 389500.0, 2041000.0 ], [ 389000.0, 2041000.0 ], [ 388500.0, 2041000.0 ], [ 388000.0, 2041000.0 ], [ 388000.0, 2040500.0 ], [ 387500.0, 2040500.0 ], [ 387000.0, 2040500.0 ], [ 387000.0, 2040000.0 ], [ 386500.0, 2040000.0 ], [ 386500.0, 2039500.0 ], [ 387000.0, 2039500.0 ], [ 387000.0, 2039000.0 ], [ 387000.0, 2038500.0 ], [ 386500.0, 2038500.0 ], [ 386000.0, 2038500.0 ], [ 385500.0, 2038500.0 ], [ 385000.0, 2038500.0 ], [ 384500.0, 2038500.0 ], [ 384000.0, 2038500.0 ], [ 384000.0, 2038000.0 ], [ 384000.0, 2037500.0 ], [ 383500.0, 2037500.0 ], [ 383500.0, 2038000.0 ], [ 383500.0, 2038500.0 ], [ 383000.0, 2038500.0 ], [ 382500.0, 2038500.0 ], [ 382500.0, 2038000.0 ], [ 382000.0, 2038000.0 ], [ 382000.0, 2037500.0 ], [ 381500.0, 2037500.0 ], [ 381500.0, 2037000.0 ], [ 381000.0, 2037000.0 ], [ 381000.0, 2037500.0 ], [ 380500.0, 2037500.0 ], [ 380500.0, 2038000.0 ], [ 380000.0, 2038000.0 ], [ 379500.0, 2038000.0 ], [ 379500.0, 2037500.0 ], [ 380000.0, 2037500.0 ], [ 380000.0, 2037000.0 ], [ 379500.0, 2037000.0 ], [ 379000.0, 2037000.0 ], [ 379000.0, 2037500.0 ], [ 379000.0, 2038000.0 ], [ 378500.0, 2038000.0 ], [ 378000.0, 2038000.0 ], [ 377500.0, 2038000.0 ], [ 377000.0, 2038000.0 ], [ 377000.0, 2038500.0 ], [ 377500.0, 2038500.0 ], [ 377500.0, 2039000.0 ], [ 377000.0, 2039000.0 ], [ 376500.0, 2039000.0 ], [ 376500.0, 2038500.0 ], [ 376000.0, 2038500.0 ], [ 375500.0, 2038500.0 ], [ 375000.0, 2038500.0 ], [ 375000.0, 2038000.0 ], [ 374500.0, 2038000.0 ], [ 374500.0, 2037500.0 ], [ 374000.0, 2037500.0 ], [ 374000.0, 2038000.0 ], [ 374000.0, 2038500.0 ], [ 373500.0, 2038500.0 ], [ 373000.0, 2038500.0 ], [ 373000.0, 2038000.0 ], [ 372500.0, 2038000.0 ], [ 372500.0, 2038500.0 ], [ 372500.0, 2039000.0 ], [ 372000.0, 2039000.0 ], [ 371500.0, 2039000.0 ], [ 371000.0, 2039000.0 ], [ 371000.0, 2039500.0 ], [ 370500.0, 2039500.0 ], [ 370500.0, 2040000.0 ], [ 371000.0, 2040000.0 ], [ 371000.0, 2040500.0 ], [ 370500.0, 2040500.0 ], [ 370000.0, 2040500.0 ], [ 370000.0, 2040000.0 ], [ 369500.0, 2040000.0 ], [ 369500.0, 2040500.0 ], [ 369500.0, 2041000.0 ], [ 369500.0, 2041500.0 ], [ 369500.0, 2042000.0 ], [ 370000.0, 2042000.0 ], [ 370500.0, 2042000.0 ], [ 370500.0, 2042500.0 ], [ 370500.0, 2043000.0 ], [ 371000.0, 2043000.0 ], [ 371000.0, 2042500.0 ], [ 371500.0, 2042500.0 ], [ 371500.0, 2043000.0 ], [ 372000.0, 2043000.0 ], [ 372500.0, 2043000.0 ], [ 372500.0, 2043500.0 ], [ 372000.0, 2043500.0 ], [ 371500.0, 2043500.0 ], [ 371000.0, 2043500.0 ], [ 371000.0, 2044000.0 ], [ 371500.0, 2044000.0 ], [ 371500.0, 2044500.0 ], [ 371000.0, 2044500.0 ], [ 371000.0, 2045000.0 ], [ 371000.0, 2045500.0 ], [ 370500.0, 2045500.0 ], [ 370500.0, 2046000.0 ], [ 370000.0, 2046000.0 ], [ 370000.0, 2045500.0 ], [ 370000.0, 2045000.0 ], [ 370000.0, 2044500.0 ], [ 370000.0, 2044000.0 ], [ 369500.0, 2044000.0 ], [ 369500.0, 2044500.0 ], [ 369000.0, 2044500.0 ], [ 368500.0, 2044500.0 ], [ 368000.0, 2044500.0 ], [ 368000.0, 2044000.0 ], [ 367500.0, 2044000.0 ], [ 367500.0, 2044500.0 ], [ 367000.0, 2044500.0 ], [ 367000.0, 2045000.0 ], [ 366500.0, 2045000.0 ], [ 366500.0, 2045500.0 ], [ 366000.0, 2045500.0 ], [ 366000.0, 2045000.0 ], [ 365500.0, 2045000.0 ], [ 365500.0, 2044500.0 ], [ 365000.0, 2044500.0 ], [ 365000.0, 2045000.0 ], [ 365000.0, 2045500.0 ], [ 365000.0, 2046000.0 ], [ 365500.0, 2046000.0 ], [ 365500.0, 2046500.0 ], [ 365000.0, 2046500.0 ], [ 365000.0, 2047000.0 ], [ 365500.0, 2047000.0 ], [ 366000.0, 2047000.0 ], [ 366000.0, 2047500.0 ], [ 365500.0, 2047500.0 ], [ 365500.0, 2048000.0 ], [ 365500.0, 2048500.0 ], [ 365500.0, 2049000.0 ], [ 365000.0, 2049000.0 ], [ 365000.0, 2049500.0 ], [ 365500.0, 2049500.0 ], [ 366000.0, 2049500.0 ], [ 366000.0, 2050000.0 ], [ 365500.0, 2050000.0 ], [ 365000.0, 2050000.0 ], [ 365000.0, 2050500.0 ], [ 365500.0, 2050500.0 ], [ 365500.0, 2051000.0 ], [ 365500.0, 2051500.0 ], [ 365000.0, 2051500.0 ], [ 365000.0, 2052000.0 ], [ 364500.0, 2052000.0 ], [ 364000.0, 2052000.0 ], [ 363500.0, 2052000.0 ], [ 363500.0, 2051500.0 ], [ 363000.0, 2051500.0 ], [ 363000.0, 2052000.0 ], [ 362500.0, 2052000.0 ], [ 362500.0, 2052500.0 ], [ 362000.0, 2052500.0 ], [ 362000.0, 2053000.0 ], [ 362500.0, 2053000.0 ], [ 362500.0, 2053500.0 ] ], [ [ 365000.0, 2062000.0 ], [ 365500.0, 2062000.0 ], [ 366000.0, 2062000.0 ], [ 366000.0, 2062500.0 ], [ 365500.0, 2062500.0 ], [ 365000.0, 2062500.0 ], [ 365000.0, 2062000.0 ] ], [ [ 366000.0, 2061500.0 ], [ 366500.0, 2061500.0 ], [ 366500.0, 2062000.0 ], [ 366000.0, 2062000.0 ], [ 366000.0, 2061500.0 ] ], [ [ 365500.0, 2061500.0 ], [ 365500.0, 2061000.0 ], [ 366000.0, 2061000.0 ], [ 366000.0, 2061500.0 ], [ 365500.0, 2061500.0 ] ], [ [ 365000.0, 2061000.0 ], [ 365000.0, 2060500.0 ], [ 365500.0, 2060500.0 ], [ 365500.0, 2061000.0 ], [ 365000.0, 2061000.0 ] ], [ [ 364500.0, 2060500.0 ], [ 364500.0, 2060000.0 ], [ 365000.0, 2060000.0 ], [ 365000.0, 2060500.0 ], [ 364500.0, 2060500.0 ] ], [ [ 372500.0, 2069500.0 ], [ 372500.0, 2069000.0 ], [ 373000.0, 2069000.0 ], [ 373000.0, 2068500.0 ], [ 373000.0, 2068000.0 ], [ 373500.0, 2068000.0 ], [ 374000.0, 2068000.0 ], [ 374000.0, 2067500.0 ], [ 374500.0, 2067500.0 ], [ 374500.0, 2068000.0 ], [ 375000.0, 2068000.0 ], [ 375000.0, 2067500.0 ], [ 375500.0, 2067500.0 ], [ 375500.0, 2068000.0 ], [ 375500.0, 2068500.0 ], [ 375500.0, 2069000.0 ], [ 375000.0, 2069000.0 ], [ 375000.0, 2069500.0 ], [ 374500.0, 2069500.0 ], [ 374500.0, 2069000.0 ], [ 374000.0, 2069000.0 ], [ 373500.0, 2069000.0 ], [ 373500.0, 2069500.0 ], [ 373000.0, 2069500.0 ], [ 373000.0, 2070000.0 ], [ 372500.0, 2070000.0 ], [ 372500.0, 2069500.0 ] ], [ [ 374000.0, 2069500.0 ], [ 374000.0, 2070000.0 ], [ 373500.0, 2070000.0 ], [ 373500.0, 2069500.0 ], [ 374000.0, 2069500.0 ] ], [ [ 396000.0, 2054500.0 ], [ 396000.0, 2054000.0 ], [ 396500.0, 2054000.0 ], [ 396500.0, 2054500.0 ], [ 396000.0, 2054500.0 ] ], [ [ 391500.0, 2044000.0 ], [ 391500.0, 2043500.0 ], [ 392000.0, 2043500.0 ], [ 392000.0, 2044000.0 ], [ 391500.0, 2044000.0 ] ], [ [ 386000.0, 2039500.0 ], [ 386000.0, 2039000.0 ], [ 386500.0, 2039000.0 ], [ 386500.0, 2039500.0 ], [ 386000.0, 2039500.0 ] ], [ [ 382000.0, 2038500.0 ], [ 382000.0, 2039000.0 ], [ 381500.0, 2039000.0 ], [ 381500.0, 2038500.0 ], [ 381500.0, 2038000.0 ], [ 382000.0, 2038000.0 ], [ 382000.0, 2038500.0 ] ], [ [ 366500.0, 2047500.0 ], [ 367000.0, 2047500.0 ], [ 367500.0, 2047500.0 ], [ 367500.0, 2047000.0 ], [ 368000.0, 2047000.0 ], [ 368500.0, 2047000.0 ], [ 369000.0, 2047000.0 ], [ 369000.0, 2047500.0 ], [ 369500.0, 2047500.0 ], [ 369500.0, 2048000.0 ], [ 369000.0, 2048000.0 ], [ 368500.0, 2048000.0 ], [ 368500.0, 2048500.0 ], [ 368500.0, 2049000.0 ], [ 369000.0, 2049000.0 ], [ 369000.0, 2049500.0 ], [ 369000.0, 2050000.0 ], [ 369000.0, 2050500.0 ], [ 368500.0, 2050500.0 ], [ 368500.0, 2050000.0 ], [ 368000.0, 2050000.0 ], [ 367500.0, 2050000.0 ], [ 367500.0, 2050500.0 ], [ 367500.0, 2051000.0 ], [ 367500.0, 2051500.0 ], [ 367000.0, 2051500.0 ], [ 367000.0, 2052000.0 ], [ 366500.0, 2052000.0 ], [ 366500.0, 2051500.0 ], [ 366500.0, 2051000.0 ], [ 366500.0, 2050500.0 ], [ 366500.0, 2050000.0 ], [ 366500.0, 2049500.0 ], [ 366500.0, 2049000.0 ], [ 366500.0, 2048500.0 ], [ 367000.0, 2048500.0 ], [ 367000.0, 2049000.0 ], [ 367500.0, 2049000.0 ], [ 368000.0, 2049000.0 ], [ 368000.0, 2048500.0 ], [ 368000.0, 2048000.0 ], [ 367500.0, 2048000.0 ], [ 367000.0, 2048000.0 ], [ 366500.0, 2048000.0 ], [ 366000.0, 2048000.0 ], [ 366000.0, 2047500.0 ], [ 366500.0, 2047500.0 ] ], [ [ 366500.0, 2052500.0 ], [ 366000.0, 2052500.0 ], [ 366000.0, 2052000.0 ], [ 366500.0, 2052000.0 ], [ 366500.0, 2052500.0 ] ], [ [ 376000.0, 2073500.0 ], [ 376000.0, 2073000.0 ], [ 376500.0, 2073000.0 ], [ 377000.0, 2073000.0 ], [ 377000.0, 2073500.0 ], [ 376500.0, 2073500.0 ], [ 376000.0, 2073500.0 ] ], [ [ 376500.0, 2058500.0 ], [ 376000.0, 2058500.0 ], [ 376000.0, 2058000.0 ], [ 376500.0, 2058000.0 ], [ 376500.0, 2057500.0 ], [ 376500.0, 2057000.0 ], [ 377000.0, 2057000.0 ], [ 377000.0, 2056500.0 ], [ 377000.0, 2056000.0 ], [ 377500.0, 2056000.0 ], [ 377500.0, 2056500.0 ], [ 378000.0, 2056500.0 ], [ 378000.0, 2056000.0 ], [ 378500.0, 2056000.0 ], [ 378500.0, 2056500.0 ], [ 378500.0, 2057000.0 ], [ 378500.0, 2057500.0 ], [ 379000.0, 2057500.0 ], [ 379000.0, 2057000.0 ], [ 379500.0, 2057000.0 ], [ 379500.0, 2056500.0 ], [ 380000.0, 2056500.0 ], [ 380500.0, 2056500.0 ], [ 380500.0, 2057000.0 ], [ 380000.0, 2057000.0 ], [ 380000.0, 2057500.0 ], [ 380000.0, 2058000.0 ], [ 380500.0, 2058000.0 ], [ 381000.0, 2058000.0 ], [ 381000.0, 2058500.0 ], [ 380500.0, 2058500.0 ], [ 380000.0, 2058500.0 ], [ 379500.0, 2058500.0 ], [ 379000.0, 2058500.0 ], [ 379000.0, 2058000.0 ], [ 378500.0, 2058000.0 ], [ 378000.0, 2058000.0 ], [ 378000.0, 2058500.0 ], [ 377500.0, 2058500.0 ], [ 377500.0, 2059000.0 ], [ 377000.0, 2059000.0 ], [ 376500.0, 2059000.0 ], [ 376500.0, 2058500.0 ] ], [ [ 376500.0, 2044000.0 ], [ 377000.0, 2044000.0 ], [ 377500.0, 2044000.0 ], [ 377500.0, 2044500.0 ], [ 377000.0, 2044500.0 ], [ 376500.0, 2044500.0 ], [ 376500.0, 2044000.0 ] ], [ [ 377500.0, 2043500.0 ], [ 377500.0, 2043000.0 ], [ 378000.0, 2043000.0 ], [ 378000.0, 2043500.0 ], [ 378500.0, 2043500.0 ], [ 378500.0, 2044000.0 ], [ 378000.0, 2044000.0 ], [ 377500.0, 2044000.0 ], [ 377500.0, 2043500.0 ] ], [ [ 369500.0, 2059500.0 ], [ 370000.0, 2059500.0 ], [ 370000.0, 2060000.0 ], [ 369500.0, 2060000.0 ], [ 369500.0, 2059500.0 ] ], [ [ 372000.0, 2049500.0 ], [ 372000.0, 2050000.0 ], [ 371500.0, 2050000.0 ], [ 371500.0, 2049500.0 ], [ 372000.0, 2049500.0 ] ], [ [ 372000.0, 2048000.0 ], [ 372000.0, 2047500.0 ], [ 372500.0, 2047500.0 ], [ 373000.0, 2047500.0 ], [ 373000.0, 2048000.0 ], [ 373500.0, 2048000.0 ], [ 374000.0, 2048000.0 ], [ 374000.0, 2048500.0 ], [ 374500.0, 2048500.0 ], [ 374500.0, 2049000.0 ], [ 374000.0, 2049000.0 ], [ 374000.0, 2049500.0 ], [ 373500.0, 2049500.0 ], [ 373000.0, 2049500.0 ], [ 373000.0, 2049000.0 ], [ 373000.0, 2048500.0 ], [ 372500.0, 2048500.0 ], [ 372000.0, 2048500.0 ], [ 371500.0, 2048500.0 ], [ 371500.0, 2048000.0 ], [ 372000.0, 2048000.0 ] ], [ [ 371000.0, 2046000.0 ], [ 371500.0, 2046000.0 ], [ 372000.0, 2046000.0 ], [ 372000.0, 2046500.0 ], [ 371500.0, 2046500.0 ], [ 371000.0, 2046500.0 ], [ 371000.0, 2046000.0 ] ], [ [ 366000.0, 2058500.0 ], [ 366000.0, 2059000.0 ], [ 365500.0, 2059000.0 ], [ 365500.0, 2058500.0 ], [ 366000.0, 2058500.0 ] ], [ [ 365500.0, 2059500.0 ], [ 365000.0, 2059500.0 ], [ 365000.0, 2059000.0 ], [ 365500.0, 2059000.0 ], [ 365500.0, 2059500.0 ] ], [ [ 366500.0, 2054000.0 ], [ 366500.0, 2054500.0 ], [ 366000.0, 2054500.0 ], [ 366000.0, 2054000.0 ], [ 366500.0, 2054000.0 ] ], [ [ 364500.0, 2055000.0 ], [ 364500.0, 2055500.0 ], [ 364000.0, 2055500.0 ], [ 363500.0, 2055500.0 ], [ 363500.0, 2055000.0 ], [ 364000.0, 2055000.0 ], [ 364500.0, 2055000.0 ] ], [ [ 364000.0, 2053000.0 ], [ 364500.0, 2053000.0 ], [ 364500.0, 2053500.0 ], [ 364000.0, 2053500.0 ], [ 363500.0, 2053500.0 ], [ 363500.0, 2053000.0 ], [ 363500.0, 2052500.0 ], [ 364000.0, 2052500.0 ], [ 364000.0, 2053000.0 ] ], [ [ 364500.0, 2052500.0 ], [ 365000.0, 2052500.0 ], [ 365000.0, 2053000.0 ], [ 364500.0, 2053000.0 ], [ 364500.0, 2052500.0 ] ], [ [ 366000.0, 2053500.0 ], [ 365500.0, 2053500.0 ], [ 365500.0, 2053000.0 ], [ 366000.0, 2053000.0 ], [ 366000.0, 2053500.0 ] ], [ [ 365500.0, 2055500.0 ], [ 365500.0, 2056000.0 ], [ 365000.0, 2056000.0 ], [ 365000.0, 2055500.0 ], [ 365500.0, 2055500.0 ] ], [ [ 365500.0, 2065000.0 ], [ 365000.0, 2065000.0 ], [ 365000.0, 2064500.0 ], [ 365500.0, 2064500.0 ], [ 365500.0, 2065000.0 ] ], [ [ 368500.0, 2053000.0 ], [ 368000.0, 2053000.0 ], [ 367500.0, 2053000.0 ], [ 367500.0, 2052500.0 ], [ 368000.0, 2052500.0 ], [ 368500.0, 2052500.0 ], [ 368500.0, 2053000.0 ] ], [ [ 369000.0, 2053000.0 ], [ 369000.0, 2053500.0 ], [ 368500.0, 2053500.0 ], [ 368500.0, 2053000.0 ], [ 369000.0, 2053000.0 ] ], [ [ 368500.0, 2054500.0 ], [ 368500.0, 2055000.0 ], [ 368500.0, 2055500.0 ], [ 368000.0, 2055500.0 ], [ 368000.0, 2055000.0 ], [ 368000.0, 2054500.0 ], [ 368500.0, 2054500.0 ] ], [ [ 367500.0, 2054500.0 ], [ 367500.0, 2054000.0 ], [ 368000.0, 2054000.0 ], [ 368000.0, 2054500.0 ], [ 367500.0, 2054500.0 ] ], [ [ 370500.0, 2051000.0 ], [ 370000.0, 2051000.0 ], [ 370000.0, 2050500.0 ], [ 370500.0, 2050500.0 ], [ 370500.0, 2051000.0 ] ], [ [ 370500.0, 2050000.0 ], [ 371000.0, 2050000.0 ], [ 371000.0, 2050500.0 ], [ 370500.0, 2050500.0 ], [ 370500.0, 2050000.0 ] ], [ [ 367500.0, 2062000.0 ], [ 367000.0, 2062000.0 ], [ 367000.0, 2061500.0 ], [ 367500.0, 2061500.0 ], [ 367500.0, 2062000.0 ] ], [ [ 368500.0, 2064500.0 ], [ 369000.0, 2064500.0 ], [ 369000.0, 2065000.0 ], [ 368500.0, 2065000.0 ], [ 368500.0, 2064500.0 ] ], [ [ 370500.0, 2055500.0 ], [ 370500.0, 2055000.0 ], [ 371000.0, 2055000.0 ], [ 371000.0, 2055500.0 ], [ 370500.0, 2055500.0 ] ], [ [ 375000.0, 2057500.0 ], [ 375000.0, 2058000.0 ], [ 375000.0, 2058500.0 ], [ 374500.0, 2058500.0 ], [ 374500.0, 2058000.0 ], [ 374000.0, 2058000.0 ], [ 374000.0, 2057500.0 ], [ 374500.0, 2057500.0 ], [ 375000.0, 2057500.0 ] ], [ [ 373000.0, 2053500.0 ], [ 373500.0, 2053500.0 ], [ 374000.0, 2053500.0 ], [ 374000.0, 2054000.0 ], [ 373500.0, 2054000.0 ], [ 373000.0, 2054000.0 ], [ 373000.0, 2053500.0 ] ], [ [ 372500.0, 2055000.0 ], [ 372500.0, 2055500.0 ], [ 372500.0, 2056000.0 ], [ 372000.0, 2056000.0 ], [ 372000.0, 2055500.0 ], [ 372000.0, 2055000.0 ], [ 372500.0, 2055000.0 ] ], [ [ 372000.0, 2077000.0 ], [ 372000.0, 2076500.0 ], [ 372000.0, 2076000.0 ], [ 372000.0, 2075500.0 ], [ 371500.0, 2075500.0 ], [ 371500.0, 2075000.0 ], [ 372000.0, 2075000.0 ], [ 372500.0, 2075000.0 ], [ 373000.0, 2075000.0 ], [ 373000.0, 2074500.0 ], [ 373500.0, 2074500.0 ], [ 373500.0, 2075000.0 ], [ 374000.0, 2075000.0 ], [ 374500.0, 2075000.0 ], [ 374500.0, 2075500.0 ], [ 374000.0, 2075500.0 ], [ 374000.0, 2076000.0 ], [ 374500.0, 2076000.0 ], [ 374500.0, 2076500.0 ], [ 374000.0, 2076500.0 ], [ 374000.0, 2077000.0 ], [ 374000.0, 2077500.0 ], [ 373500.0, 2077500.0 ], [ 373500.0, 2077000.0 ], [ 373500.0, 2076500.0 ], [ 373000.0, 2076500.0 ], [ 372500.0, 2076500.0 ], [ 372500.0, 2077000.0 ], [ 372500.0, 2077500.0 ], [ 372000.0, 2077500.0 ], [ 372000.0, 2077000.0 ] ], [ [ 374000.0, 2039000.0 ], [ 374000.0, 2039500.0 ], [ 373500.0, 2039500.0 ], [ 373500.0, 2039000.0 ], [ 374000.0, 2039000.0 ] ], [ [ 375500.0, 2067000.0 ], [ 375000.0, 2067000.0 ], [ 375000.0, 2066500.0 ], [ 375500.0, 2066500.0 ], [ 375500.0, 2067000.0 ] ], [ [ 375000.0, 2061500.0 ], [ 375500.0, 2061500.0 ], [ 375500.0, 2062000.0 ], [ 375000.0, 2062000.0 ], [ 375000.0, 2062500.0 ], [ 374500.0, 2062500.0 ], [ 374500.0, 2062000.0 ], [ 374500.0, 2061500.0 ], [ 375000.0, 2061500.0 ] ], [ [ 374500.0, 2073500.0 ], [ 375000.0, 2073500.0 ], [ 375000.0, 2074000.0 ], [ 374500.0, 2074000.0 ], [ 374500.0, 2073500.0 ] ], [ [ 375500.0, 2071000.0 ], [ 375000.0, 2071000.0 ], [ 375000.0, 2070500.0 ], [ 375500.0, 2070500.0 ], [ 375500.0, 2071000.0 ] ], [ [ 375500.0, 2070000.0 ], [ 376000.0, 2070000.0 ], [ 376000.0, 2070500.0 ], [ 375500.0, 2070500.0 ], [ 375500.0, 2070000.0 ] ], [ [ 375000.0, 2049500.0 ], [ 375000.0, 2049000.0 ], [ 375500.0, 2049000.0 ], [ 375500.0, 2049500.0 ], [ 375000.0, 2049500.0 ] ], [ [ 376000.0, 2074500.0 ], [ 375500.0, 2074500.0 ], [ 375500.0, 2074000.0 ], [ 376000.0, 2074000.0 ], [ 376000.0, 2074500.0 ] ], [ [ 379500.0, 2074500.0 ], [ 379500.0, 2075000.0 ], [ 379000.0, 2075000.0 ], [ 379000.0, 2074500.0 ], [ 379500.0, 2074500.0 ] ], [ [ 379000.0, 2075500.0 ], [ 378500.0, 2075500.0 ], [ 378500.0, 2075000.0 ], [ 379000.0, 2075000.0 ], [ 379000.0, 2075500.0 ] ], [ [ 383000.0, 2053500.0 ], [ 383500.0, 2053500.0 ], [ 383500.0, 2054000.0 ], [ 383000.0, 2054000.0 ], [ 382500.0, 2054000.0 ], [ 382500.0, 2053500.0 ], [ 383000.0, 2053500.0 ] ], [ [ 384500.0, 2049500.0 ], [ 384500.0, 2050000.0 ], [ 384000.0, 2050000.0 ], [ 384000.0, 2049500.0 ], [ 384500.0, 2049500.0 ] ], [ [ 378000.0, 2054500.0 ], [ 377500.0, 2054500.0 ], [ 377500.0, 2054000.0 ], [ 378000.0, 2054000.0 ], [ 378500.0, 2054000.0 ], [ 379000.0, 2054000.0 ], [ 379000.0, 2054500.0 ], [ 379500.0, 2054500.0 ], [ 379500.0, 2055000.0 ], [ 379000.0, 2055000.0 ], [ 378500.0, 2055000.0 ], [ 378500.0, 2054500.0 ], [ 378000.0, 2054500.0 ] ], [ [ 379000.0, 2050000.0 ], [ 379500.0, 2050000.0 ], [ 379500.0, 2050500.0 ], [ 379500.0, 2051000.0 ], [ 379000.0, 2051000.0 ], [ 379000.0, 2050500.0 ], [ 379000.0, 2050000.0 ] ], [ [ 377500.0, 2042500.0 ], [ 377500.0, 2042000.0 ], [ 378000.0, 2042000.0 ], [ 378000.0, 2042500.0 ], [ 377500.0, 2042500.0 ] ], [ [ 379500.0, 2063000.0 ], [ 379500.0, 2062500.0 ], [ 379500.0, 2062000.0 ], [ 379500.0, 2061500.0 ], [ 379500.0, 2061000.0 ], [ 379500.0, 2060500.0 ], [ 380000.0, 2060500.0 ], [ 380500.0, 2060500.0 ], [ 381000.0, 2060500.0 ], [ 381000.0, 2061000.0 ], [ 381000.0, 2061500.0 ], [ 381000.0, 2062000.0 ], [ 381500.0, 2062000.0 ], [ 381500.0, 2062500.0 ], [ 381000.0, 2062500.0 ], [ 381000.0, 2063000.0 ], [ 381500.0, 2063000.0 ], [ 381500.0, 2063500.0 ], [ 381000.0, 2063500.0 ], [ 381000.0, 2064000.0 ], [ 381000.0, 2064500.0 ], [ 381000.0, 2065000.0 ], [ 381000.0, 2065500.0 ], [ 380500.0, 2065500.0 ], [ 380000.0, 2065500.0 ], [ 380000.0, 2065000.0 ], [ 380000.0, 2064500.0 ], [ 379500.0, 2064500.0 ], [ 379500.0, 2064000.0 ], [ 379000.0, 2064000.0 ], [ 379000.0, 2063500.0 ], [ 379500.0, 2063500.0 ], [ 379500.0, 2063000.0 ] ], [ [ 378000.0, 2065000.0 ], [ 377500.0, 2065000.0 ], [ 377500.0, 2064500.0 ], [ 378000.0, 2064500.0 ], [ 378000.0, 2065000.0 ] ], [ [ 381000.0, 2054500.0 ], [ 380500.0, 2054500.0 ], [ 380500.0, 2054000.0 ], [ 381000.0, 2054000.0 ], [ 381000.0, 2054500.0 ] ], [ [ 380500.0, 2053500.0 ], [ 380500.0, 2053000.0 ], [ 381000.0, 2053000.0 ], [ 381000.0, 2053500.0 ], [ 380500.0, 2053500.0 ] ], [ [ 380500.0, 2052000.0 ], [ 381000.0, 2052000.0 ], [ 381000.0, 2052500.0 ], [ 380500.0, 2052500.0 ], [ 380000.0, 2052500.0 ], [ 380000.0, 2052000.0 ], [ 380500.0, 2052000.0 ] ], [ [ 381000.0, 2050500.0 ], [ 380500.0, 2050500.0 ], [ 380500.0, 2050000.0 ], [ 381000.0, 2050000.0 ], [ 381000.0, 2050500.0 ] ], [ [ 382500.0, 2046000.0 ], [ 382500.0, 2045500.0 ], [ 383000.0, 2045500.0 ], [ 383000.0, 2046000.0 ], [ 382500.0, 2046000.0 ] ], [ [ 381500.0, 2045500.0 ], [ 381500.0, 2045000.0 ], [ 382000.0, 2045000.0 ], [ 382000.0, 2045500.0 ], [ 381500.0, 2045500.0 ] ], [ [ 383500.0, 2046500.0 ], [ 383500.0, 2047000.0 ], [ 383500.0, 2047500.0 ], [ 383000.0, 2047500.0 ], [ 383000.0, 2047000.0 ], [ 383000.0, 2046500.0 ], [ 383500.0, 2046500.0 ] ], [ [ 386500.0, 2058000.0 ], [ 386500.0, 2058500.0 ], [ 386000.0, 2058500.0 ], [ 386000.0, 2058000.0 ], [ 386500.0, 2058000.0 ] ], [ [ 387500.0, 2054000.0 ], [ 387500.0, 2053500.0 ], [ 388000.0, 2053500.0 ], [ 388000.0, 2054000.0 ], [ 387500.0, 2054000.0 ] ], [ [ 389000.0, 2054500.0 ], [ 388500.0, 2054500.0 ], [ 388500.0, 2054000.0 ], [ 388500.0, 2053500.0 ], [ 389000.0, 2053500.0 ], [ 389000.0, 2054000.0 ], [ 389000.0, 2054500.0 ] ], [ [ 388500.0, 2055000.0 ], [ 388000.0, 2055000.0 ], [ 388000.0, 2055500.0 ], [ 387500.0, 2055500.0 ], [ 387000.0, 2055500.0 ], [ 387000.0, 2055000.0 ], [ 387500.0, 2055000.0 ], [ 387500.0, 2054500.0 ], [ 388000.0, 2054500.0 ], [ 388500.0, 2054500.0 ], [ 388500.0, 2055000.0 ] ], [ [ 389000.0, 2055000.0 ], [ 389000.0, 2055500.0 ], [ 388500.0, 2055500.0 ], [ 388500.0, 2055000.0 ], [ 389000.0, 2055000.0 ] ], [ [ 389000.0, 2041500.0 ], [ 389000.0, 2042000.0 ], [ 389500.0, 2042000.0 ], [ 389500.0, 2042500.0 ], [ 389000.0, 2042500.0 ], [ 388500.0, 2042500.0 ], [ 388500.0, 2042000.0 ], [ 388500.0, 2041500.0 ], [ 389000.0, 2041500.0 ] ], [ [ 384500.0, 2054500.0 ], [ 384000.0, 2054500.0 ], [ 384000.0, 2054000.0 ], [ 384500.0, 2054000.0 ], [ 384500.0, 2054500.0 ] ], [ [ 386000.0, 2049000.0 ], [ 386000.0, 2048500.0 ], [ 386500.0, 2048500.0 ], [ 386500.0, 2049000.0 ], [ 386000.0, 2049000.0 ] ], [ [ 386500.0, 2043500.0 ], [ 386500.0, 2044000.0 ], [ 386500.0, 2044500.0 ], [ 386000.0, 2044500.0 ], [ 386000.0, 2044000.0 ], [ 386000.0, 2043500.0 ], [ 386500.0, 2043500.0 ] ], [ [ 385500.0, 2044500.0 ], [ 385500.0, 2045000.0 ], [ 385000.0, 2045000.0 ], [ 385000.0, 2044500.0 ], [ 385000.0, 2044000.0 ], [ 385500.0, 2044000.0 ], [ 385500.0, 2044500.0 ] ], [ [ 386000.0, 2050500.0 ], [ 385500.0, 2050500.0 ], [ 385500.0, 2050000.0 ], [ 386000.0, 2050000.0 ], [ 386000.0, 2050500.0 ] ], [ [ 387000.0, 2042000.0 ], [ 387000.0, 2042500.0 ], [ 386500.0, 2042500.0 ], [ 386500.0, 2042000.0 ], [ 387000.0, 2042000.0 ] ], [ [ 390000.0, 2055500.0 ], [ 390000.0, 2055000.0 ], [ 390500.0, 2055000.0 ], [ 390500.0, 2055500.0 ], [ 390000.0, 2055500.0 ] ], [ [ 390500.0, 2054500.0 ], [ 391000.0, 2054500.0 ], [ 391000.0, 2055000.0 ], [ 390500.0, 2055000.0 ], [ 390500.0, 2054500.0 ] ], [ [ 391500.0, 2052500.0 ], [ 391500.0, 2052000.0 ], [ 391500.0, 2051500.0 ], [ 392000.0, 2051500.0 ], [ 392000.0, 2052000.0 ], [ 392000.0, 2052500.0 ], [ 392000.0, 2053000.0 ], [ 392000.0, 2053500.0 ], [ 391500.0, 2053500.0 ], [ 391000.0, 2053500.0 ], [ 391000.0, 2053000.0 ], [ 391500.0, 2053000.0 ], [ 391500.0, 2052500.0 ] ], [ [ 391500.0, 2042500.0 ], [ 391000.0, 2042500.0 ], [ 391000.0, 2042000.0 ], [ 391500.0, 2042000.0 ], [ 391500.0, 2042500.0 ] ], [ [ 389500.0, 2048000.0 ], [ 389500.0, 2047500.0 ], [ 390000.0, 2047500.0 ], [ 390000.0, 2048000.0 ], [ 389500.0, 2048000.0 ] ] ], [ [ [ 359000.0, 2052500.0 ], [ 359000.0, 2053000.0 ], [ 359000.0, 2053500.0 ], [ 359500.0, 2053500.0 ], [ 359500.0, 2053000.0 ], [ 359500.0, 2052500.0 ], [ 360000.0, 2052500.0 ], [ 360000.0, 2052000.0 ], [ 359500.0, 2052000.0 ], [ 359000.0, 2052000.0 ], [ 358500.0, 2052000.0 ], [ 358500.0, 2052500.0 ], [ 359000.0, 2052500.0 ] ] ], [ [ [ 361000.0, 2053000.0 ], [ 361000.0, 2052500.0 ], [ 360500.0, 2052500.0 ], [ 360500.0, 2053000.0 ], [ 361000.0, 2053000.0 ] ] ], [ [ [ 360500.0, 2053000.0 ], [ 360000.0, 2053000.0 ], [ 360000.0, 2053500.0 ], [ 360500.0, 2053500.0 ], [ 360500.0, 2053000.0 ] ] ], [ [ [ 360000.0, 2053500.0 ], [ 359500.0, 2053500.0 ], [ 359500.0, 2054000.0 ], [ 360000.0, 2054000.0 ], [ 360000.0, 2053500.0 ] ] ], [ [ [ 362000.0, 2060000.0 ], [ 362000.0, 2060500.0 ], [ 362000.0, 2061000.0 ], [ 362500.0, 2061000.0 ], [ 362500.0, 2061500.0 ], [ 363000.0, 2061500.0 ], [ 363000.0, 2061000.0 ], [ 363000.0, 2060500.0 ], [ 362500.0, 2060500.0 ], [ 362500.0, 2060000.0 ], [ 362000.0, 2060000.0 ] ] ], [ [ [ 361000.0, 2064500.0 ], [ 361000.0, 2064000.0 ], [ 361000.0, 2063500.0 ], [ 360500.0, 2063500.0 ], [ 360500.0, 2064000.0 ], [ 360000.0, 2064000.0 ], [ 360000.0, 2064500.0 ], [ 360000.0, 2065000.0 ], [ 360500.0, 2065000.0 ], [ 361000.0, 2065000.0 ], [ 361000.0, 2064500.0 ] ] ], [ [ [ 360000.0, 2067500.0 ], [ 360500.0, 2067500.0 ], [ 360500.0, 2067000.0 ], [ 360000.0, 2067000.0 ], [ 360000.0, 2066500.0 ], [ 359500.0, 2066500.0 ], [ 359000.0, 2066500.0 ], [ 358500.0, 2066500.0 ], [ 358500.0, 2067000.0 ], [ 359000.0, 2067000.0 ], [ 359000.0, 2067500.0 ], [ 359500.0, 2067500.0 ], [ 360000.0, 2067500.0 ] ] ], [ [ [ 360000.0, 2069000.0 ], [ 360500.0, 2069000.0 ], [ 361000.0, 2069000.0 ], [ 361500.0, 2069000.0 ], [ 362000.0, 2069000.0 ], [ 362500.0, 2069000.0 ], [ 362500.0, 2068500.0 ], [ 362500.0, 2068000.0 ], [ 362500.0, 2067500.0 ], [ 362000.0, 2067500.0 ], [ 362000.0, 2067000.0 ], [ 361500.0, 2067000.0 ], [ 361000.0, 2067000.0 ], [ 361000.0, 2067500.0 ], [ 361000.0, 2068000.0 ], [ 360500.0, 2068000.0 ], [ 360500.0, 2068500.0 ], [ 360000.0, 2068500.0 ], [ 360000.0, 2069000.0 ] ] ], [ [ [ 363000.0, 2068000.0 ], [ 363000.0, 2068500.0 ], [ 363500.0, 2068500.0 ], [ 363500.0, 2068000.0 ], [ 363500.0, 2067500.0 ], [ 363000.0, 2067500.0 ], [ 363000.0, 2068000.0 ] ] ], [ [ [ 359000.0, 2067500.0 ], [ 358500.0, 2067500.0 ], [ 358500.0, 2068000.0 ], [ 359000.0, 2068000.0 ], [ 359000.0, 2067500.0 ] ] ], [ [ [ 366000.0, 2043500.0 ], [ 366000.0, 2043000.0 ], [ 365500.0, 2043000.0 ], [ 365500.0, 2043500.0 ], [ 366000.0, 2043500.0 ] ] ], [ [ [ 365000.0, 2049500.0 ], [ 364500.0, 2049500.0 ], [ 364500.0, 2050000.0 ], [ 365000.0, 2050000.0 ], [ 365000.0, 2049500.0 ] ] ], [ [ [ 364000.0, 2063000.0 ], [ 364000.0, 2062500.0 ], [ 363500.0, 2062500.0 ], [ 363500.0, 2063000.0 ], [ 364000.0, 2063000.0 ] ] ], [ [ [ 366500.0, 2072500.0 ], [ 367000.0, 2072500.0 ], [ 367500.0, 2072500.0 ], [ 367500.0, 2073000.0 ], [ 367500.0, 2073500.0 ], [ 368000.0, 2073500.0 ], [ 368500.0, 2073500.0 ], [ 368500.0, 2073000.0 ], [ 368000.0, 2073000.0 ], [ 368000.0, 2072500.0 ], [ 368000.0, 2072000.0 ], [ 367500.0, 2072000.0 ], [ 367000.0, 2072000.0 ], [ 367000.0, 2071500.0 ], [ 367000.0, 2071000.0 ], [ 366500.0, 2071000.0 ], [ 366000.0, 2071000.0 ], [ 365500.0, 2071000.0 ], [ 365500.0, 2071500.0 ], [ 366000.0, 2071500.0 ], [ 366000.0, 2072000.0 ], [ 365500.0, 2072000.0 ], [ 365000.0, 2072000.0 ], [ 365000.0, 2071500.0 ], [ 365000.0, 2071000.0 ], [ 364500.0, 2071000.0 ], [ 364500.0, 2071500.0 ], [ 364500.0, 2072000.0 ], [ 364500.0, 2072500.0 ], [ 365000.0, 2072500.0 ], [ 365500.0, 2072500.0 ], [ 366000.0, 2072500.0 ], [ 366500.0, 2072500.0 ] ] ], [ [ [ 365500.0, 2079000.0 ], [ 365500.0, 2079500.0 ], [ 365500.0, 2080000.0 ], [ 366000.0, 2080000.0 ], [ 366500.0, 2080000.0 ], [ 367000.0, 2080000.0 ], [ 367000.0, 2079500.0 ], [ 367500.0, 2079500.0 ], [ 367500.0, 2079000.0 ], [ 367000.0, 2079000.0 ], [ 367000.0, 2078500.0 ], [ 367000.0, 2078000.0 ], [ 366500.0, 2078000.0 ], [ 366500.0, 2078500.0 ], [ 366000.0, 2078500.0 ], [ 366000.0, 2079000.0 ], [ 365500.0, 2079000.0 ] ] ], [ [ [ 368000.0, 2047500.0 ], [ 368000.0, 2048000.0 ], [ 368500.0, 2048000.0 ], [ 368500.0, 2047500.0 ], [ 368000.0, 2047500.0 ] ] ], [ [ [ 369000.0, 2069500.0 ], [ 369000.0, 2070000.0 ], [ 369500.0, 2070000.0 ], [ 369500.0, 2070500.0 ], [ 370000.0, 2070500.0 ], [ 370000.0, 2071000.0 ], [ 370000.0, 2071500.0 ], [ 370500.0, 2071500.0 ], [ 371000.0, 2071500.0 ], [ 371500.0, 2071500.0 ], [ 371500.0, 2071000.0 ], [ 371000.0, 2071000.0 ], [ 371000.0, 2070500.0 ], [ 371000.0, 2070000.0 ], [ 370500.0, 2070000.0 ], [ 370500.0, 2069500.0 ], [ 370000.0, 2069500.0 ], [ 369500.0, 2069500.0 ], [ 369500.0, 2069000.0 ], [ 369000.0, 2069000.0 ], [ 368500.0, 2069000.0 ], [ 368000.0, 2069000.0 ], [ 368000.0, 2069500.0 ], [ 368500.0, 2069500.0 ], [ 369000.0, 2069500.0 ] ] ], [ [ [ 368000.0, 2070000.0 ], [ 367500.0, 2070000.0 ], [ 367500.0, 2070500.0 ], [ 368000.0, 2070500.0 ], [ 368000.0, 2070000.0 ] ] ], [ [ [ 366500.0, 2077000.0 ], [ 366000.0, 2077000.0 ], [ 366000.0, 2077500.0 ], [ 366500.0, 2077500.0 ], [ 366500.0, 2077000.0 ] ] ], [ [ [ 369500.0, 2068000.0 ], [ 369000.0, 2068000.0 ], [ 369000.0, 2068500.0 ], [ 369500.0, 2068500.0 ], [ 369500.0, 2068000.0 ] ] ], [ [ [ 369500.0, 2071500.0 ], [ 369000.0, 2071500.0 ], [ 368500.0, 2071500.0 ], [ 368500.0, 2072000.0 ], [ 369000.0, 2072000.0 ], [ 369500.0, 2072000.0 ], [ 369500.0, 2071500.0 ] ] ], [ [ [ 369500.0, 2072000.0 ], [ 369500.0, 2072500.0 ], [ 370000.0, 2072500.0 ], [ 370000.0, 2072000.0 ], [ 369500.0, 2072000.0 ] ] ], [ [ [ 371000.0, 2044500.0 ], [ 371000.0, 2044000.0 ], [ 370500.0, 2044000.0 ], [ 370500.0, 2044500.0 ], [ 371000.0, 2044500.0 ] ] ], [ [ [ 372000.0, 2081000.0 ], [ 372000.0, 2080500.0 ], [ 371500.0, 2080500.0 ], [ 371000.0, 2080500.0 ], [ 371000.0, 2081000.0 ], [ 371500.0, 2081000.0 ], [ 372000.0, 2081000.0 ] ] ], [ [ [ 370500.0, 2080500.0 ], [ 370000.0, 2080500.0 ], [ 370000.0, 2081000.0 ], [ 370500.0, 2081000.0 ], [ 370500.0, 2080500.0 ] ] ], [ [ [ 372500.0, 2071000.0 ], [ 372500.0, 2070500.0 ], [ 372000.0, 2070500.0 ], [ 372000.0, 2071000.0 ], [ 372500.0, 2071000.0 ] ] ], [ [ [ 373500.0, 2038000.0 ], [ 373500.0, 2037500.0 ], [ 373500.0, 2037000.0 ], [ 373000.0, 2037000.0 ], [ 373000.0, 2037500.0 ], [ 373000.0, 2038000.0 ], [ 373500.0, 2038000.0 ] ] ], [ [ [ 377500.0, 2069500.0 ], [ 377000.0, 2069500.0 ], [ 377000.0, 2070000.0 ], [ 377500.0, 2070000.0 ], [ 377500.0, 2069500.0 ] ] ], [ [ [ 378500.0, 2068000.0 ], [ 378500.0, 2068500.0 ], [ 378500.0, 2069000.0 ], [ 379000.0, 2069000.0 ], [ 379000.0, 2068500.0 ], [ 379500.0, 2068500.0 ], [ 379500.0, 2068000.0 ], [ 380000.0, 2068000.0 ], [ 380000.0, 2067500.0 ], [ 379500.0, 2067500.0 ], [ 379500.0, 2067000.0 ], [ 379000.0, 2067000.0 ], [ 379000.0, 2067500.0 ], [ 379000.0, 2068000.0 ], [ 378500.0, 2068000.0 ] ] ], [ [ [ 378500.0, 2067500.0 ], [ 378000.0, 2067500.0 ], [ 378000.0, 2068000.0 ], [ 378500.0, 2068000.0 ], [ 378500.0, 2067500.0 ] ] ], [ [ [ 378000.0, 2068500.0 ], [ 378000.0, 2068000.0 ], [ 377500.0, 2068000.0 ], [ 377500.0, 2068500.0 ], [ 378000.0, 2068500.0 ] ] ], [ [ [ 378500.0, 2070000.0 ], [ 378500.0, 2069500.0 ], [ 378000.0, 2069500.0 ], [ 378000.0, 2070000.0 ], [ 378500.0, 2070000.0 ] ] ], [ [ [ 379000.0, 2072500.0 ], [ 379500.0, 2072500.0 ], [ 379500.0, 2072000.0 ], [ 379500.0, 2071500.0 ], [ 379500.0, 2071000.0 ], [ 380000.0, 2071000.0 ], [ 380500.0, 2071000.0 ], [ 380500.0, 2070500.0 ], [ 380000.0, 2070500.0 ], [ 380000.0, 2070000.0 ], [ 379500.0, 2070000.0 ], [ 379500.0, 2070500.0 ], [ 379000.0, 2070500.0 ], [ 379000.0, 2071000.0 ], [ 379000.0, 2071500.0 ], [ 379000.0, 2072000.0 ], [ 379000.0, 2072500.0 ] ] ], [ [ [ 380500.0, 2062500.0 ], [ 380000.0, 2062500.0 ], [ 380000.0, 2063000.0 ], [ 380500.0, 2063000.0 ], [ 380500.0, 2062500.0 ] ] ], [ [ [ 380500.0, 2079000.0 ], [ 381000.0, 2079000.0 ], [ 381500.0, 2079000.0 ], [ 381500.0, 2078500.0 ], [ 381000.0, 2078500.0 ], [ 381000.0, 2078000.0 ], [ 381000.0, 2077500.0 ], [ 381500.0, 2077500.0 ], [ 381500.0, 2077000.0 ], [ 381000.0, 2077000.0 ], [ 380500.0, 2077000.0 ], [ 380500.0, 2077500.0 ], [ 380000.0, 2077500.0 ], [ 379500.0, 2077500.0 ], [ 379500.0, 2078000.0 ], [ 379500.0, 2078500.0 ], [ 380000.0, 2078500.0 ], [ 380500.0, 2078500.0 ], [ 380500.0, 2079000.0 ] ] ], [ [ [ 382000.0, 2036500.0 ], [ 381500.0, 2036500.0 ], [ 381500.0, 2037000.0 ], [ 382000.0, 2037000.0 ], [ 382000.0, 2036500.0 ] ] ], [ [ [ 382500.0, 2068000.0 ], [ 383000.0, 2068000.0 ], [ 383000.0, 2067500.0 ], [ 382500.0, 2067500.0 ], [ 382000.0, 2067500.0 ], [ 382000.0, 2068000.0 ], [ 382500.0, 2068000.0 ] ] ], [ [ [ 381500.0, 2072000.0 ], [ 381500.0, 2071500.0 ], [ 381000.0, 2071500.0 ], [ 381000.0, 2072000.0 ], [ 381000.0, 2072500.0 ], [ 381500.0, 2072500.0 ], [ 381500.0, 2072000.0 ] ] ], [ [ [ 384500.0, 2061000.0 ], [ 384000.0, 2061000.0 ], [ 384000.0, 2061500.0 ], [ 384500.0, 2061500.0 ], [ 384500.0, 2061000.0 ] ] ], [ [ [ 384500.0, 2060500.0 ], [ 384500.0, 2061000.0 ], [ 385000.0, 2061000.0 ], [ 385000.0, 2060500.0 ], [ 385000.0, 2060000.0 ], [ 384500.0, 2060000.0 ], [ 384500.0, 2060500.0 ] ] ], [ [ [ 386000.0, 2063500.0 ], [ 385500.0, 2063500.0 ], [ 385500.0, 2064000.0 ], [ 386000.0, 2064000.0 ], [ 386000.0, 2063500.0 ] ] ], [ [ [ 388000.0, 2039500.0 ], [ 387500.0, 2039500.0 ], [ 387500.0, 2040000.0 ], [ 388000.0, 2040000.0 ], [ 388000.0, 2039500.0 ] ] ], [ [ [ 386500.0, 2060500.0 ], [ 386500.0, 2060000.0 ], [ 386000.0, 2060000.0 ], [ 386000.0, 2060500.0 ], [ 386500.0, 2060500.0 ] ] ], [ [ [ 387000.0, 2061500.0 ], [ 387000.0, 2061000.0 ], [ 386500.0, 2061000.0 ], [ 386500.0, 2061500.0 ], [ 386500.0, 2062000.0 ], [ 387000.0, 2062000.0 ], [ 387000.0, 2061500.0 ] ] ], [ [ [ 387000.0, 2067000.0 ], [ 386500.0, 2067000.0 ], [ 386500.0, 2067500.0 ], [ 387000.0, 2067500.0 ], [ 387000.0, 2067000.0 ] ] ], [ [ [ 389000.0, 2039000.0 ], [ 389000.0, 2038500.0 ], [ 388500.0, 2038500.0 ], [ 388500.0, 2039000.0 ], [ 389000.0, 2039000.0 ] ] ], [ [ [ 390000.0, 2040000.0 ], [ 390000.0, 2039500.0 ], [ 390000.0, 2039000.0 ], [ 389500.0, 2039000.0 ], [ 389000.0, 2039000.0 ], [ 389000.0, 2039500.0 ], [ 389000.0, 2040000.0 ], [ 389500.0, 2040000.0 ], [ 389500.0, 2040500.0 ], [ 390000.0, 2040500.0 ], [ 390000.0, 2040000.0 ] ] ], [ [ [ 390500.0, 2059500.0 ], [ 390500.0, 2059000.0 ], [ 390000.0, 2059000.0 ], [ 390000.0, 2058500.0 ], [ 390000.0, 2058000.0 ], [ 389500.0, 2058000.0 ], [ 389500.0, 2058500.0 ], [ 389500.0, 2059000.0 ], [ 389500.0, 2059500.0 ], [ 390000.0, 2059500.0 ], [ 390500.0, 2059500.0 ] ] ], [ [ [ 392000.0, 2036500.0 ], [ 391500.0, 2036500.0 ], [ 391500.0, 2037000.0 ], [ 392000.0, 2037000.0 ], [ 392000.0, 2036500.0 ] ] ], [ [ [ 394000.0, 2045000.0 ], [ 393500.0, 2045000.0 ], [ 393500.0, 2045500.0 ], [ 394000.0, 2045500.0 ], [ 394000.0, 2046000.0 ], [ 394500.0, 2046000.0 ], [ 394500.0, 2045500.0 ], [ 394500.0, 2045000.0 ], [ 394000.0, 2045000.0 ] ] ], [ [ [ 394000.0, 2048500.0 ], [ 393500.0, 2048500.0 ], [ 393500.0, 2049000.0 ], [ 394000.0, 2049000.0 ], [ 394500.0, 2049000.0 ], [ 394500.0, 2048500.0 ], [ 394000.0, 2048500.0 ] ] ], [ [ [ 395500.0, 2048500.0 ], [ 395500.0, 2049000.0 ], [ 395000.0, 2049000.0 ], [ 395000.0, 2049500.0 ], [ 395500.0, 2049500.0 ], [ 395500.0, 2050000.0 ], [ 396000.0, 2050000.0 ], [ 396000.0, 2049500.0 ], [ 396000.0, 2049000.0 ], [ 396000.0, 2048500.0 ], [ 395500.0, 2048500.0 ] ] ], [ [ [ 393500.0, 2049000.0 ], [ 393000.0, 2049000.0 ], [ 393000.0, 2049500.0 ], [ 393500.0, 2049500.0 ], [ 393500.0, 2049000.0 ] ] ], [ [ [ 392000.0, 2050000.0 ], [ 392000.0, 2050500.0 ], [ 392500.0, 2050500.0 ], [ 392500.0, 2051000.0 ], [ 393000.0, 2051000.0 ], [ 393000.0, 2050500.0 ], [ 393000.0, 2050000.0 ], [ 392500.0, 2050000.0 ], [ 392000.0, 2050000.0 ] ] ], [ [ [ 398000.0, 2051000.0 ], [ 397500.0, 2051000.0 ], [ 397500.0, 2051500.0 ], [ 398000.0, 2051500.0 ], [ 398000.0, 2051000.0 ] ] ], [ [ [ 393000.0, 2051500.0 ], [ 393500.0, 2051500.0 ], [ 393500.0, 2052000.0 ], [ 394000.0, 2052000.0 ], [ 394000.0, 2052500.0 ], [ 394500.0, 2052500.0 ], [ 394500.0, 2052000.0 ], [ 394500.0, 2051500.0 ], [ 394500.0, 2051000.0 ], [ 394000.0, 2051000.0 ], [ 393500.0, 2051000.0 ], [ 393000.0, 2051000.0 ], [ 393000.0, 2051500.0 ] ] ], [ [ [ 398500.0, 2052500.0 ], [ 398000.0, 2052500.0 ], [ 398000.0, 2053000.0 ], [ 398500.0, 2053000.0 ], [ 398500.0, 2052500.0 ] ] ], [ [ [ 396500.0, 2056500.0 ], [ 396500.0, 2057000.0 ], [ 397000.0, 2057000.0 ], [ 397500.0, 2057000.0 ], [ 397500.0, 2056500.0 ], [ 397000.0, 2056500.0 ], [ 396500.0, 2056500.0 ] ] ], [ [ [ 392500.0, 2057000.0 ], [ 392000.0, 2057000.0 ], [ 392000.0, 2057500.0 ], [ 392500.0, 2057500.0 ], [ 392500.0, 2057000.0 ] ] ] ] } }
]
}
