{
"type": "FeatureCollection",
"name": "ranipet_city_extent",
"crs": { "type": "name", "properties": { "name": "urn:ogc:def:crs:EPSG::32644" } },
"features": [
{ "type": "Feature", "properties": { "city": "Ranipet", "component_id": 51, "selected_component_ids": "19,49,51,52,85", "selection_method": "nearest city-centre component + components within 1 km", "combine_distance_km": 1.0, "extent_cells": 21, "extent_area_km2": 5.25, "distance_to_city_center_km": 0.49064039481280508 }, "geometry": { "type": "MultiPolygon", "coordinates": [ [ [ [ 317000.0, 1428000.0 ], [ 316500.0, 1428000.0 ], [ 316500.0, 1428500.0 ], [ 317000.0, 1428500.0 ], [ 317000.0, 1428000.0 ] ] ], [ [ [ 318000.0, 1429000.0 ], [ 317500.0, 1429000.0 ], [ 317500.0, 1429500.0 ], [ 318000.0, 1429500.0 ], [ 318000.0, 1429000.0 ] ] ], [ [ [ 319000.0, 1429000.0 ], [ 318500.0, 1429000.0 ], [ 318500.0, 1429500.0 ], [ 318000.0, 1429500.0 ], [ 318000.0, 1430000.0 ], [ 318500.0, 1430000.0 ], [ 318500.0, 1430500.0 ], [ 319000.0, 1430500.0 ], [ 319500.0, 1430500.0 ], [ 319500.0, 1430000.0 ], [ 320000.0, 1430000.0 ], [ 320000.0, 1429500.0 ], [ 319500.0, 1429500.0 ], [ 319500.0, 1429000.0 ], [ 319000.0, 1429000.0 ] ] ], [ [ [ 318500.0, 1430500.0 ], [ 318000.0, 1430500.0 ], [ 318000.0, 1431000.0 ], [ 318500.0, 1431000.0 ], [ 318500.0, 1430500.0 ] ] ], [ [ [ 318000.0, 1432000.0 ], [ 318000.0, 1431500.0 ], [ 317500.0, 1431500.0 ], [ 317500.0, 1432000.0 ], [ 317500.0, 1432500.0 ], [ 317500.0, 1433000.0 ], [ 318000.0, 1433000.0 ], [ 318000.0, 1432500.0 ], [ 318000.0, 1432000.0 ] ] ], [ [ [ 321500.0, 1428000.0 ], [ 321000.0, 1428000.0 ], [ 321000.0, 1428500.0 ], [ 321500.0, 1428500.0 ], [ 321500.0, 1428000.0 ] ] ], [ [ [ 322500.0, 1428000.0 ], [ 322000.0, 1428000.0 ], [ 322000.0, 1428500.0 ], [ 322500.0, 1428500.0 ], [ 322500.0, 1428000.0 ] ] ], [ [ [ 321000.0, 1429000.0 ], [ 321000.0, 1428500.0 ], [ 320500.0, 1428500.0 ], [ 320500.0, 1429000.0 ], [ 321000.0, 1429000.0 ] ] ], [ [ [ 320000.0, 1429000.0 ], [ 320000.0, 1429500.0 ], [ 320500.0, 1429500.0 ], [ 320500.0, 1429000.0 ], [ 320000.0, 1429000.0 ] ] ], [ [ [ 321500.0, 1430000.0 ], [ 322000.0, 1430000.0 ], [ 322500.0, 1430000.0 ], [ 322500.0, 1429500.0 ], [ 322500.0, 1429000.0 ], [ 322000.0, 1429000.0 ], [ 322000.0, 1429500.0 ], [ 321500.0, 1429500.0 ], [ 321500.0, 1430000.0 ] ] ] ] } }
]
}
